{"type": "FeatureCollection", "features": [{"type": "Feature", "properties": {"wikidata": "Q3360862", "name": "Palazzo Foscari del Pr\u00e0", "status": "missing", "osm_id": null, "group": "Dimore ed edifici", "subgroup": "Residenze", "subcategory": "Palazzo"}, "geometry": {"type": "Point", "coordinates": [12.3348087, 45.4404825]}}, {"type": "Feature", "properties": {"wikidata": "Q3432781", "name": "rio di Santa Marina", "status": "done", "osm_id": "way/322686749", "group": "Natura e paesaggio", "subgroup": "Acqua", "subcategory": "Canale artificiale"}, "geometry": {"type": "Point", "coordinates": [12.3415, 45.4384]}}, {"type": "Feature", "properties": {"wikidata": "Q3432800", "name": "rio della Toletta", "status": "done", "osm_id": "way/174639290", "group": "Natura e paesaggio", "subgroup": "Acqua", "subcategory": "Canale artificiale"}, "geometry": {"type": "Point", "coordinates": [12.326, 45.4322]}}, {"type": "Feature", "properties": {"wikidata": "Q3432765", "name": "rio di San Provolo", "status": "done", "osm_id": "way/173582971", "group": "Natura e paesaggio", "subgroup": "Acqua", "subcategory": "Canale artificiale"}, "geometry": {"type": "Point", "coordinates": [12.3436, 45.4356]}}, {"type": "Feature", "properties": {"wikidata": "Q3360839", "name": "Palazzo Castelli", "status": "missing", "osm_id": null, "group": "Dimore ed edifici", "subgroup": "Residenze", "subcategory": "Palazzo"}, "geometry": {"type": "Point", "coordinates": [12.3391, 45.439]}}, {"type": "Feature", "properties": {"wikidata": "Q3432783", "name": "riello de Santa Sofia", "status": "missing", "osm_id": null, "group": "Natura e paesaggio", "subgroup": "Acqua", "subcategory": "Canale artificiale"}, "geometry": {"type": "Point", "coordinates": [12.3355, 45.4417]}}, {"type": "Feature", "properties": {"wikidata": "Q3432792", "name": "rio de la Guerra", "status": "done", "osm_id": "way/164082304", "group": "Natura e paesaggio", "subgroup": "Acqua", "subcategory": "Canale artificiale"}, "geometry": {"type": "Point", "coordinates": [12.336, 45.442]}}, {"type": "Feature", "properties": {"wikidata": "Q3432785", "name": "rio Ca di Dio", "status": "missing", "osm_id": null, "group": "Natura e paesaggio", "subgroup": "Acqua", "subcategory": "Canale artificiale"}, "geometry": {"type": "Point", "coordinates": [12.3487, 45.434]}}, {"type": "Feature", "properties": {"wikidata": "Q3360844", "name": "Palazzo Coletti", "status": "missing", "osm_id": null, "group": "Dimore ed edifici", "subgroup": "Residenze", "subcategory": "Palazzo"}, "geometry": {"type": "Point", "coordinates": [12.3235, 45.4448]}}, {"type": "Feature", "properties": {"wikidata": "Q3432803", "name": "rio degli Zecchini", "status": "done", "osm_id": "way/121219444", "group": "Natura e paesaggio", "subgroup": "Acqua", "subcategory": "Canale artificiale"}, "geometry": {"type": "Point", "coordinates": [12.3305, 45.4475]}}, {"type": "Feature", "properties": {"wikidata": "Q3432759", "name": "Rio di San Luca", "status": "missing", "osm_id": null, "group": "Natura e paesaggio", "subgroup": "Acqua", "subcategory": "Canale artificiale"}, "geometry": {"type": "Point", "coordinates": [12.333666666, 45.435527777]}}, {"type": "Feature", "properties": {"wikidata": "Q3432749", "name": "rio di San Giobbe", "status": "done", "osm_id": "way/6079610", "group": "Natura e paesaggio", "subgroup": "Acqua", "subcategory": "Canale artificiale"}, "geometry": {"type": "Point", "coordinates": [12.3195, 45.4448]}}, {"type": "Feature", "properties": {"wikidata": "Q3360812", "name": "Palazzo Amadi", "status": "missing", "osm_id": null, "group": "Dimore ed edifici", "subgroup": "Residenze", "subcategory": "Palazzo"}, "geometry": {"type": "Point", "coordinates": [12.3373917, 45.4385271]}}, {"type": "Feature", "properties": {"wikidata": "Q3432757", "name": "rio de San Girolamo", "status": "done", "osm_id": "way/189056460", "group": "Natura e paesaggio", "subgroup": "Acqua", "subcategory": "Canale artificiale"}, "geometry": {"type": "Point", "coordinates": [12.3255, 45.4462]}}, {"type": "Feature", "properties": {"wikidata": "Q3432345", "name": "Rio di Ca' Corner", "status": "done", "osm_id": "way/175659969", "group": "Natura e paesaggio", "subgroup": "Acqua", "subcategory": "Canale artificiale"}, "geometry": {"type": "Point", "coordinates": [12.3311, 45.4353]}}, {"type": "Feature", "properties": {"wikidata": "Q3432761", "name": "rio di San Moise", "status": "done", "osm_id": "way/180954125", "group": "Natura e paesaggio", "subgroup": "Acqua", "subcategory": "Canale artificiale"}, "geometry": {"type": "Point", "coordinates": [12.3357, 45.4326]}}, {"type": "Feature", "properties": {"wikidata": "Q3360829", "name": "Palazzo del Bo", "status": "done", "osm_id": "relation/3312085", "group": "Dimore ed edifici", "subgroup": "Residenze", "subcategory": "Palazzo"}, "geometry": {"type": "Point", "coordinates": [11.87754, 45.40684]}}, {"type": "Feature", "properties": {"wikidata": "Q3432752", "name": "rio San Giovanni Crisostomo", "status": "missing", "osm_id": null, "group": "Natura e paesaggio", "subgroup": "Acqua", "subcategory": "Canale artificiale"}, "geometry": {"type": "Point", "coordinates": [12.3375, 45.4393]}}, {"type": "Feature", "properties": {"wikidata": "Q3432778", "name": "rio de Santa Caterina", "status": "done", "osm_id": "way/164082307", "group": "Natura e paesaggio", "subgroup": "Acqua", "subcategory": "Canale artificiale"}, "geometry": {"type": "Point", "coordinates": [12.337, 45.4429]}}, {"type": "Feature", "properties": {"wikidata": "Q3432745", "name": "rio de San Basegio", "status": "missing", "osm_id": null, "group": "Natura e paesaggio", "subgroup": "Acqua", "subcategory": "Canale artificiale"}, "geometry": {"type": "Point", "coordinates": [12.3206, 45.4315]}}, {"type": "Feature", "properties": {"wikidata": "Q3432741", "name": "Rio di Noale", "status": "done", "osm_id": "way/4640133", "group": "Natura e paesaggio", "subgroup": "Acqua", "subcategory": "Canale artificiale"}, "geometry": {"type": "Point", "coordinates": [12.3335534, 45.4426731]}}, {"type": "Feature", "properties": {"wikidata": "Q3432750", "name": "rio di San Gerolamo", "status": "done", "osm_id": "way/29178754", "group": "Natura e paesaggio", "subgroup": "Acqua", "subcategory": "Canale artificiale"}, "geometry": {"type": "Point", "coordinates": [12.3558, 45.4339]}}, {"type": "Feature", "properties": {"wikidata": "Q3432799", "name": "Rio delle Beccarie", "status": "done", "osm_id": "way/175027075", "group": "Natura e paesaggio", "subgroup": "Acqua", "subcategory": "Canale artificiale"}, "geometry": {"type": "Point", "coordinates": [12.332708356, 45.438872825]}}, {"type": "Feature", "properties": {"wikidata": "Q3432780", "name": "rio di Santa Maria Formosa", "status": "done", "osm_id": "way/323151054", "group": "Natura e paesaggio", "subgroup": "Acqua", "subcategory": "Canale artificiale"}, "geometry": {"type": "Point", "coordinates": [12.3415, 45.4368]}}, {"type": "Feature", "properties": {"wikidata": "Q3360891", "name": "Palazzo Mastelli del Cammello", "status": "missing", "osm_id": null, "group": "Dimore ed edifici", "subgroup": "Residenze", "subcategory": "Palazzo"}, "geometry": {"type": "Point", "coordinates": [12.3327863, 45.4456953]}}, {"type": "Feature", "properties": {"wikidata": "Q3382252", "name": "piazza Grande", "status": "done", "osm_id": "way/855333297", "group": "Insediamenti", "subgroup": "Zone Urbane", "subcategory": "Piazza"}, "geometry": {"type": "Point", "coordinates": [12.4939, 45.7831]}}, {"type": "Feature", "properties": {"wikidata": "Q3364860", "name": "Parco Natura Viva", "status": "done", "osm_id": "way/72871517", "group": "Altro", "subgroup": "Altro", "subcategory": "Altro"}, "geometry": {"type": "Point", "coordinates": [10.7969, 45.4786]}}, {"type": "Feature", "properties": {"wikidata": "Q3432738", "name": "rio Ca' Michiel", "status": "done", "osm_id": "way/175659951", "group": "Natura e paesaggio", "subgroup": "Acqua", "subcategory": "Canale artificiale"}, "geometry": {"type": "Point", "coordinates": [12.3316, 45.4354]}}, {"type": "Feature", "properties": {"wikidata": "Q3432787", "name": "Rio di Palazzo", "status": "done", "osm_id": "way/173582978", "group": "Natura e paesaggio", "subgroup": "Acqua", "subcategory": "Canale artificiale"}, "geometry": {"type": "Point", "coordinates": [12.3409, 45.434]}}, {"type": "Feature", "properties": {"wikidata": "Q3432773", "name": "rio di San Zan Degola", "status": "done", "osm_id": "way/174903727", "group": "Natura e paesaggio", "subgroup": "Acqua", "subcategory": "Canale artificiale"}, "geometry": {"type": "Point", "coordinates": [12.3271, 45.4405]}}, {"type": "Feature", "properties": {"wikidata": "Q3431791", "name": "rielo drio la Celestia", "status": "done", "osm_id": "way/192914877", "group": "Natura e paesaggio", "subgroup": "Acqua", "subcategory": "Canale artificiale"}, "geometry": {"type": "Point", "coordinates": [12.3498, 45.4383]}}, {"type": "Feature", "properties": {"wikidata": "Q3360835", "name": "Palazzo Caotorta-Angaran", "status": "missing", "osm_id": null, "group": "Dimore ed edifici", "subgroup": "Residenze", "subcategory": "Palazzo italiano"}, "geometry": {"type": "Point", "coordinates": [12.32727, 45.43507]}}, {"type": "Feature", "properties": {"wikidata": "Q3360930", "name": "Palazzo Smith Mangilli Valmarana", "status": "missing", "osm_id": null, "group": "Dimore ed edifici", "subgroup": "Residenze", "subcategory": "Palazzo"}, "geometry": {"type": "Point", "coordinates": [12.3357341, 45.4400798]}}, {"type": "Feature", "properties": {"wikidata": "Q3360860", "name": "Palazzo Clary", "status": "done", "osm_id": "way/314195566", "group": "Dimore ed edifici", "subgroup": "Residenze", "subcategory": "Palazzo"}, "geometry": {"type": "Point", "coordinates": [12.324483, 45.430197]}}, {"type": "Feature", "properties": {"wikidata": "Q3432784", "name": "Rio dell'Alboro", "status": "missing", "osm_id": null, "group": "Natura e paesaggio", "subgroup": "Acqua", "subcategory": "Canale artificiale"}, "geometry": {"type": "Point", "coordinates": [12.3335, 45.432]}}, {"type": "Feature", "properties": {"wikidata": "Q3432747", "name": "rio di San Boldo", "status": "done", "osm_id": "way/178854221", "group": "Natura e paesaggio", "subgroup": "Acqua", "subcategory": "Canale artificiale"}, "geometry": {"type": "Point", "coordinates": [12.3293, 45.4393]}}, {"type": "Feature", "properties": {"wikidata": "Q3432760", "name": "rio di San Maurizio", "status": "done", "osm_id": "way/173619538", "group": "Natura e paesaggio", "subgroup": "Acqua", "subcategory": "Canale artificiale"}, "geometry": {"type": "Point", "coordinates": [12.332, 45.432]}}, {"type": "Feature", "properties": {"wikidata": "Q3432779", "name": "rio de Santa Fosca", "status": "missing", "osm_id": null, "group": "Natura e paesaggio", "subgroup": "Acqua", "subcategory": "Canale artificiale"}, "geometry": {"type": "Point", "coordinates": [12.3325, 45.443]}}, {"type": "Feature", "properties": {"wikidata": "Q3432793", "name": "rio de la Madalena", "status": "missing", "osm_id": null, "group": "Natura e paesaggio", "subgroup": "Acqua", "subcategory": "Canale artificiale"}, "geometry": {"type": "Point", "coordinates": [12.3317188, 45.4426844]}}, {"type": "Feature", "properties": {"wikidata": "Q3432755", "name": "rio di San Giovanni Laterano", "status": "done", "osm_id": "way/256289605", "group": "Natura e paesaggio", "subgroup": "Acqua", "subcategory": "Canale artificiale"}, "geometry": {"type": "Point", "coordinates": [12.3436, 45.4381]}}, {"type": "Feature", "properties": {"wikidata": "Q3432335", "name": "rio Briati", "status": "done", "osm_id": "way/178854214", "group": "Natura e paesaggio", "subgroup": "Acqua", "subcategory": "Canale artificiale"}, "geometry": {"type": "Point", "coordinates": [12.3204, 45.4343]}}, {"type": "Feature", "properties": {"wikidata": "Q3399208", "name": "Porta di Terra dell'Arsenale di Venezia", "status": "missing", "osm_id": null, "group": "Altro", "subgroup": "Altro", "subcategory": "Altro"}, "geometry": {"type": "Point", "coordinates": [12.3499095, 45.4348081]}}, {"type": "Feature", "properties": {"wikidata": "Q3432794", "name": "rio Madonna dell'Orto", "status": "done", "osm_id": "way/172200623", "group": "Natura e paesaggio", "subgroup": "Acqua", "subcategory": "Canale artificiale"}, "geometry": {"type": "Point", "coordinates": [12.3322, 45.446]}}, {"type": "Feature", "properties": {"wikidata": "Q3360873", "name": "Palazzo Gritti", "status": "missing", "osm_id": null, "group": "Dimore ed edifici", "subgroup": "Residenze", "subcategory": "Palazzo"}, "geometry": {"type": "Point", "coordinates": [12.3278967, 45.4426787]}}, {"type": "Feature", "properties": {"wikidata": "Q3432766", "name": "Rio di San Salvador", "status": "done", "osm_id": "way/172273028", "group": "Natura e paesaggio", "subgroup": "Acqua", "subcategory": "Canale artificiale"}, "geometry": {"type": "Point", "coordinates": [12.336, 45.4363]}}, {"type": "Feature", "properties": {"wikidata": "Q3432329", "name": "rio Brazzo", "status": "done", "osm_id": "way/180048122", "group": "Natura e paesaggio", "subgroup": "Acqua", "subcategory": "Canale artificiale"}, "geometry": {"type": "Point", "coordinates": [12.3317, 45.4457]}}, {"type": "Feature", "properties": {"wikidata": "Q3432758", "name": "Rio di San Marcuola", "status": "done", "osm_id": "way/525636048", "group": "Natura e paesaggio", "subgroup": "Acqua", "subcategory": "Canale artificiale"}, "geometry": {"type": "Point", "coordinates": [12.3298198, 45.4437232]}}, {"type": "Feature", "properties": {"wikidata": "Q3360811", "name": "Palazzo Algarotti-Corniani", "status": "missing", "osm_id": null, "group": "Dimore ed edifici", "subgroup": "Residenze", "subcategory": "Palazzo"}, "geometry": {"type": "Point", "coordinates": [12.3413, 45.4421]}}, {"type": "Feature", "properties": {"wikidata": "Q3432756", "name": "rio di San Lio", "status": "done", "osm_id": "way/322686748", "group": "Natura e paesaggio", "subgroup": "Acqua", "subcategory": "Canale artificiale"}, "geometry": {"type": "Point", "coordinates": [12.3382, 45.4386]}}, {"type": "Feature", "properties": {"wikidata": "Q3360842", "name": "Palazzo Civran", "status": "missing", "osm_id": null, "group": "Dimore ed edifici", "subgroup": "Residenze", "subcategory": "Palazzo"}, "geometry": {"type": "Point", "coordinates": [12.3364556, 45.4389393]}}, {"type": "Feature", "properties": {"wikidata": "Q3432534", "name": "Rio Marin", "status": "done", "osm_id": "way/530514016", "group": "Natura e paesaggio", "subgroup": "Acqua", "subcategory": "Canale artificiale"}, "geometry": {"type": "Point", "coordinates": [12.3245573, 45.4399066]}}, {"type": "Feature", "properties": {"wikidata": "Q3432770", "name": "Rio de San Trovaso", "status": "done", "osm_id": "way/172442989", "group": "Natura e paesaggio", "subgroup": "Acqua", "subcategory": "Canale artificiale"}, "geometry": {"type": "Point", "coordinates": [12.326611111, 45.431111111]}}, {"type": "Feature", "properties": {"wikidata": "Q3432804", "name": "Rio dei Barcaroli", "status": "done", "osm_id": "way/173621581", "group": "Natura e paesaggio", "subgroup": "Acqua", "subcategory": "Canale artificiale"}, "geometry": {"type": "Point", "coordinates": [12.334722222, 45.433888888]}}, {"type": "Feature", "properties": {"wikidata": "Q3432798", "name": "rio della Sensa", "status": "done", "osm_id": "way/172200618", "group": "Natura e paesaggio", "subgroup": "Acqua", "subcategory": "Canale artificiale"}, "geometry": {"type": "Point", "coordinates": [12.328, 45.4464]}}, {"type": "Feature", "properties": {"wikidata": "Q3432795", "name": "Rio della Misericordia", "status": "done", "osm_id": "way/4715766", "group": "Natura e paesaggio", "subgroup": "Acqua", "subcategory": "Canale artificiale"}, "geometry": {"type": "Point", "coordinates": [12.3326468, 45.4441447]}}, {"type": "Feature", "properties": {"wikidata": "Q3397384", "name": "ponte della Lagune", "status": "missing", "osm_id": null, "group": "Altro", "subgroup": "Altro", "subcategory": "Altro"}, "geometry": {"type": "Point", "coordinates": [12.3026, 45.4519]}}, {"type": "Feature", "properties": {"wikidata": "Q3360836", "name": "Palazzo Cappello a Santa Maria Nova", "status": "missing", "osm_id": null, "group": "Dimore ed edifici", "subgroup": "Residenze", "subcategory": "Palazzo"}, "geometry": {"type": "Point", "coordinates": [12.3398164, 45.4399443]}}, {"type": "Feature", "properties": {"wikidata": "Q3432762", "name": "rio di San Pantalon", "status": "done", "osm_id": "way/299305537", "group": "Natura e paesaggio", "subgroup": "Acqua", "subcategory": "Canale artificiale"}, "geometry": {"type": "Point", "coordinates": [12.3244, 45.4362]}}, {"type": "Feature", "properties": {"wikidata": "Q3361189", "name": "Palazzo del Cinema di Venezia", "status": "done", "osm_id": "node/4952628121", "group": "Cultura e tempo libero", "subgroup": "Spettacolo", "subcategory": "Cinema"}, "geometry": {"type": "Point", "coordinates": [12.3671, 45.4058]}}, {"type": "Feature", "properties": {"wikidata": "Q3432763", "name": "Rio di San Polo", "status": "done", "osm_id": "way/173196987", "group": "Natura e paesaggio", "subgroup": "Acqua", "subcategory": "Canale artificiale"}, "geometry": {"type": "Point", "coordinates": [12.329, 45.437]}}, {"type": "Feature", "properties": {"wikidata": "Q3360814", "name": "palazzo Arrigoni Caragiani", "status": "missing", "osm_id": null, "group": "Dimore ed edifici", "subgroup": "Residenze", "subcategory": "Palazzo"}, "geometry": {"type": "Point", "coordinates": [12.3309034, 45.4458609]}}, {"type": "Feature", "properties": {"wikidata": "Q3432523", "name": "rio Malatin", "status": "missing", "osm_id": null, "group": "Natura e paesaggio", "subgroup": "Acqua", "subcategory": "Canale artificiale"}, "geometry": {"type": "Point", "coordinates": [12.332, 45.4333]}}, {"type": "Feature", "properties": {"wikidata": "Q3432304", "name": "rio Antonio Foscarini", "status": "missing", "osm_id": null, "group": "Natura e paesaggio", "subgroup": "Acqua", "subcategory": "Canale artificiale"}, "geometry": {"type": "Point", "coordinates": [12.3281, 45.4315]}}, {"type": "Feature", "properties": {"wikidata": "Q3432790", "name": "rio de la Carit\u00e0", "status": "missing", "osm_id": null, "group": "Natura e paesaggio", "subgroup": "Acqua", "subcategory": "Canale artificiale"}, "geometry": {"type": "Point", "coordinates": [12.3281, 45.4315]}}, {"type": "Feature", "properties": {"wikidata": "Q3432767", "name": "rio di San Sebastiano", "status": "done", "osm_id": "way/29176437", "group": "Natura e paesaggio", "subgroup": "Acqua", "subcategory": "Canale artificiale"}, "geometry": {"type": "Point", "coordinates": [12.32, 45.4325]}}, {"type": "Feature", "properties": {"wikidata": "Q3432775", "name": "Rio di Sant'Alvise", "status": "missing", "osm_id": null, "group": "Natura e paesaggio", "subgroup": "Acqua", "subcategory": "Canale artificiale"}, "geometry": {"type": "Point", "coordinates": [12.327, 45.4476]}}, {"type": "Feature", "properties": {"wikidata": "Q3432772", "name": "rio di San Vio", "status": "done", "osm_id": "way/174687403", "group": "Natura e paesaggio", "subgroup": "Acqua", "subcategory": "Canale artificiale"}, "geometry": {"type": "Point", "coordinates": [12.3295, 45.4302]}}, {"type": "Feature", "properties": {"wikidata": "Q3379659", "name": "Nevegal", "status": "missing", "osm_id": null, "group": "Altro", "subgroup": "Altro", "subcategory": "Altro"}, "geometry": {"type": "Point", "coordinates": [12.2875, 46.09444444]}}, {"type": "Feature", "properties": {"wikidata": "Q3432742", "name": "rio di San Barnaba", "status": "done", "osm_id": "way/174639293", "group": "Natura e paesaggio", "subgroup": "Acqua", "subcategory": "Canale artificiale"}, "geometry": {"type": "Point", "coordinates": [12.324, 45.4331]}}, {"type": "Feature", "properties": {"wikidata": "Q3432774", "name": "rio di Sant'Agostin", "status": "missing", "osm_id": null, "group": "Natura e paesaggio", "subgroup": "Acqua", "subcategory": "Canale artificiale"}, "geometry": {"type": "Point", "coordinates": [12.328, 45.4383]}}, {"type": "Feature", "properties": {"wikidata": "Q3432547", "name": "rio Morto", "status": "missing", "osm_id": null, "group": "Natura e paesaggio", "subgroup": "Acqua", "subcategory": "Canale artificiale"}, "geometry": {"type": "Point", "coordinates": [12.325, 45.4244]}}, {"type": "Feature", "properties": {"wikidata": "Q3432791", "name": "rio de la Frescada", "status": "done", "osm_id": "way/172447999", "group": "Natura e paesaggio", "subgroup": "Acqua", "subcategory": "Canale artificiale"}, "geometry": {"type": "Point", "coordinates": [12.3265, 45.4357]}}, {"type": "Feature", "properties": {"wikidata": "Q3360861", "name": "Palazzo Foscari Giudecca 795", "status": "done", "osm_id": "way/410344932", "group": "Dimore ed edifici", "subgroup": "Residenze", "subcategory": "Palazzo"}, "geometry": {"type": "Point", "coordinates": [12.3219, 45.4276]}}, {"type": "Feature", "properties": {"wikidata": "Q3432782", "name": "rio de Santa Maria Zobenigo", "status": "done", "osm_id": "way/173619535", "group": "Natura e paesaggio", "subgroup": "Acqua", "subcategory": "Canale artificiale"}, "geometry": {"type": "Point", "coordinates": [12.3325, 45.432]}}, {"type": "Feature", "properties": {"wikidata": "Q3432737", "name": "rio de Ca' Foscari", "status": "done", "osm_id": "way/216893101", "group": "Natura e paesaggio", "subgroup": "Acqua", "subcategory": "Canale artificiale"}, "geometry": {"type": "Point", "coordinates": [12.325, 45.435]}}, {"type": "Feature", "properties": {"wikidata": "Q3432538", "name": "rio della Verona", "status": "missing", "osm_id": null, "group": "Natura e paesaggio", "subgroup": "Acqua", "subcategory": "Canale artificiale"}, "geometry": {"type": "Point", "coordinates": [12.333, 45.434]}}, {"type": "Feature", "properties": {"wikidata": "Q3432744", "name": "Rio di Sant'Aponal", "status": "done", "osm_id": "way/175911367", "group": "Natura e paesaggio", "subgroup": "Acqua", "subcategory": "Canale artificiale"}, "geometry": {"type": "Point", "coordinates": [12.331374863, 45.437988041]}}, {"type": "Feature", "properties": {"wikidata": "Q3432802", "name": "rio de le Torete", "status": "missing", "osm_id": null, "group": "Natura e paesaggio", "subgroup": "Acqua", "subcategory": "Canale artificiale"}, "geometry": {"type": "Point", "coordinates": [12.3266, 45.4465]}}, {"type": "Feature", "properties": {"wikidata": "Q3432788", "name": "rio della Crea", "status": "missing", "osm_id": null, "group": "Natura e paesaggio", "subgroup": "Acqua", "subcategory": "Canale artificiale"}, "geometry": {"type": "Point", "coordinates": [12.3195, 45.4428]}}, {"type": "Feature", "properties": {"wikidata": "Q3364765", "name": "parco regionale veneto del Delta del Po", "status": "done", "osm_id": "relation/6520954", "group": "Natura e paesaggio", "subgroup": "Verde", "subcategory": "Area protetta"}, "geometry": {"type": "Point", "coordinates": [12.28, 44.98]}}, {"type": "Feature", "properties": {"wikidata": "Q3355126", "name": "oratorio di Sant'Angelo degli Zoppi", "status": "done", "osm_id": "way/1103897423", "group": "Religione", "subgroup": "Luoghi di Culto", "subcategory": "Chiesa"}, "geometry": {"type": "Point", "coordinates": [12.33179, 45.4343]}}, {"type": "Feature", "properties": {"wikidata": "Q3432801", "name": "rio de le Stopare", "status": "missing", "osm_id": null, "group": "Natura e paesaggio", "subgroup": "Acqua", "subcategory": "Canale artificiale"}, "geometry": {"type": "Point", "coordinates": [12.3515, 45.4375]}}, {"type": "Feature", "properties": {"wikidata": "Q3432688", "name": "rio della Tetta", "status": "done", "osm_id": "way/1278219854", "group": "Natura e paesaggio", "subgroup": "Acqua", "subcategory": "Canale artificiale"}, "geometry": {"type": "Point", "coordinates": [12.3435, 45.4376]}}, {"type": "Feature", "properties": {"wikidata": "Q3432293", "name": "rio Amaltea", "status": "missing", "osm_id": null, "group": "Natura e paesaggio", "subgroup": "Acqua", "subcategory": "Canale artificiale"}, "geometry": {"type": "Point", "coordinates": [12.3286, 45.4374]}}, {"type": "Feature", "properties": {"wikidata": "Q3372473", "name": "Palazzo Pisani Moretta", "status": "done", "osm_id": "way/314484756", "group": "Dimore ed edifici", "subgroup": "Residenze", "subcategory": "Palazzo"}, "geometry": {"type": "Point", "coordinates": [12.3292498, 45.4360089]}}, {"type": "Feature", "properties": {"wikidata": "Q3432748", "name": "rio di San Felice", "status": "missing", "osm_id": null, "group": "Natura e paesaggio", "subgroup": "Acqua", "subcategory": "Canale artificiale"}, "geometry": {"type": "Point", "coordinates": [12.3340684, 45.4422515]}}, {"type": "Feature", "properties": {"wikidata": "Q3329878", "name": "Museo d\u2019Arte Erotica", "status": "missing", "osm_id": null, "group": "Altro", "subgroup": "Altro", "subcategory": "Altro"}, "geometry": {"type": "Point", "coordinates": [12.335527777, 45.43625]}}, {"type": "Feature", "properties": {"wikidata": "Q3432735", "name": "rio de Ca' Widmann", "status": "missing", "osm_id": null, "group": "Natura e paesaggio", "subgroup": "Acqua", "subcategory": "Canale artificiale"}, "geometry": {"type": "Point", "coordinates": [12.3393, 45.4403]}}, {"type": "Feature", "properties": {"wikidata": "Q3360894", "name": "Palazzo Miani Coletti Giusti", "status": "missing", "osm_id": null, "group": "Dimore ed edifici", "subgroup": "Residenze", "subcategory": "Palazzo"}, "geometry": {"type": "Point", "coordinates": [12.3337144, 45.4409474]}}, {"type": "Feature", "properties": {"wikidata": "Q3431790", "name": "rielo de le Erbe", "status": "missing", "osm_id": null, "group": "Natura e paesaggio", "subgroup": "Acqua", "subcategory": "Canale artificiale"}, "geometry": {"type": "Point", "coordinates": [12.3301095, 45.4365378]}}, {"type": "Feature", "properties": {"wikidata": "Q3431789", "name": "rielo Ca' Bernardo", "status": "missing", "osm_id": null, "group": "Natura e paesaggio", "subgroup": "Acqua", "subcategory": "Canale artificiale"}, "geometry": {"type": "Point", "coordinates": [12.3294, 45.4383]}}, {"type": "Feature", "properties": {"wikidata": "Q3432777", "name": "rio de Sant'Antonin", "status": "missing", "osm_id": null, "group": "Natura e paesaggio", "subgroup": "Acqua", "subcategory": "Canale artificiale"}, "geometry": {"type": "Point", "coordinates": [12.3444, 45.435]}}, {"type": "Feature", "properties": {"wikidata": "Q963954", "name": "cappella degli Scrovegni", "status": "done", "osm_id": "way/131997214", "group": "Cultura e tempo libero", "subgroup": "Musei", "subcategory": "Museo pubblico"}, "geometry": {"type": "Point", "coordinates": [11.879536, 45.411818]}}, {"type": "Feature", "properties": {"wikidata": "Q980366", "name": "chiesa di San Martino", "status": "done", "osm_id": "way/138803652", "group": "Religione", "subgroup": "Luoghi di Culto", "subcategory": "Chiesa"}, "geometry": {"type": "Point", "coordinates": [12.34897, 45.43462]}}, {"type": "Feature", "properties": {"wikidata": "Q938556", "name": "chiesa di San Giuseppe di Castello", "status": "done", "osm_id": "way/138803936", "group": "Religione", "subgroup": "Luoghi di Culto", "subcategory": "Chiesa"}, "geometry": {"type": "Point", "coordinates": [12.35732, 45.43056]}}, {"type": "Feature", "properties": {"wikidata": "Q925271", "name": "Palazzo Barbaran da Porto", "status": "done", "osm_id": "way/138894932", "group": "Cultura e tempo libero", "subgroup": "Musei", "subcategory": "Museo d'arte"}, "geometry": {"type": "Point", "coordinates": [11.54555556, 45.54861111]}}, {"type": "Feature", "properties": {"wikidata": "Q913982", "name": "complesso di Ca' da Noal, Casa Robegan e Casa Karwath", "status": "missing", "osm_id": null, "group": "Cultura e tempo libero", "subgroup": "Musei", "subcategory": "Museo etnografico"}, "geometry": {"type": "Point", "coordinates": [12.241438888, 45.66785]}}, {"type": "Feature", "properties": {"wikidata": "Q912912", "name": "Casa Longobarda", "status": "missing", "osm_id": null, "group": "Dimore ed edifici", "subgroup": "Residenze", "subcategory": "Casa"}, "geometry": {"type": "Point", "coordinates": [11.90614, 45.8022]}}, {"type": "Feature", "properties": {"wikidata": "Q1010303", "name": "Giardini pubblici", "status": "missing", "osm_id": null, "group": "Natura e paesaggio", "subgroup": "Verde", "subcategory": "Parco"}, "geometry": {"type": "Point", "coordinates": [12.3563, 45.42943]}}, {"type": "Feature", "properties": {"wikidata": "Q1027876", "name": "Cal\u00e0 del Sasso", "status": "done", "osm_id": "node/805334806", "group": "Altro", "subgroup": "Altro", "subcategory": "Altro"}, "geometry": {"type": "Point", "coordinates": [11.6302, 45.8635]}}, {"type": "Feature", "properties": {"wikidata": "Q912882", "name": "Museo civico di Asolo", "status": "missing", "osm_id": null, "group": "Cultura e tempo libero", "subgroup": "Musei", "subcategory": "Museo"}, "geometry": {"type": "Point", "coordinates": [11.91326, 45.80206]}}, {"type": "Feature", "properties": {"wikidata": "Q914018", "name": "Ca' da Robegan", "status": "done", "osm_id": "way/1254900745", "group": "Dimore ed edifici", "subgroup": "Residenze", "subcategory": "Palazzo"}, "geometry": {"type": "Point", "coordinates": [12.14284, 45.400453]}}, {"type": "Feature", "properties": {"wikidata": "Q912928", "name": "Barco della Regina Cornaro", "status": "missing", "osm_id": null, "group": "Altro", "subgroup": "Altro", "subcategory": "Altro"}, "geometry": {"type": "Point", "coordinates": [11.9615, 45.7704]}}, {"type": "Feature", "properties": {"wikidata": "Q940926", "name": "chiesa di San Gaetano", "status": "done", "osm_id": "way/131987668", "group": "Religione", "subgroup": "Luoghi di Culto", "subcategory": "Chiesa"}, "geometry": {"type": "Point", "coordinates": [11.8817, 45.4083]}}, {"type": "Feature", "properties": {"wikidata": "Q1001703", "name": "Buel del Lovo", "status": "done", "osm_id": "way/57688940", "group": "Natura e paesaggio", "subgroup": "Mare e Costa", "subcategory": "Isola"}, "geometry": {"type": "Point", "coordinates": [12.37627, 45.49245]}}, {"type": "Feature", "properties": {"wikidata": "Q960610", "name": "Caff\u00e8 Florian", "status": "done", "osm_id": "node/12453807859", "group": "Altro", "subgroup": "Altro", "subcategory": "Altro"}, "geometry": {"type": "Point", "coordinates": [12.338208333, 45.433675]}}, {"type": "Feature", "properties": {"wikidata": "Q963326", "name": "Palazzo dei Camerlenghi", "status": "done", "osm_id": "way/138800761", "group": "Dimore ed edifici", "subgroup": "Residenze", "subcategory": "Palazzo"}, "geometry": {"type": "Point", "coordinates": [12.335823, 45.438341]}}, {"type": "Feature", "properties": {"wikidata": "Q996179", "name": "Ponte romano di Susegana", "status": "missing", "osm_id": null, "group": "Altro", "subgroup": "Altro", "subcategory": "Altro"}, "geometry": {"type": "Point", "coordinates": [12.18555556, 45.85777778]}}, {"type": "Feature", "properties": {"wikidata": "Q945981", "name": "basilica di San Pietro di Castello", "status": "done", "osm_id": "way/138800730", "group": "Religione", "subgroup": "Luoghi di Culto", "subcategory": "Basilica minore"}, "geometry": {"type": "Point", "coordinates": [12.35972, 45.43458]}}, {"type": "Feature", "properties": {"wikidata": "Q935076", "name": "chiesa di San Giovanni di Malta", "status": "done", "osm_id": "way/314754899", "group": "Religione", "subgroup": "Luoghi di Culto", "subcategory": "Chiesa"}, "geometry": {"type": "Point", "coordinates": [12.3463, 45.4364]}}, {"type": "Feature", "properties": {"wikidata": "Q933666", "name": "Cinque Torri", "status": "done", "osm_id": "node/899332740", "group": "Natura e paesaggio", "subgroup": "Montagna", "subcategory": "Montagna"}, "geometry": {"type": "Point", "coordinates": [12.053972222, 46.50925]}}, {"type": "Feature", "properties": {"wikidata": "Q1028202", "name": "chiesa di San Salvador", "status": "done", "osm_id": "way/138800353", "group": "Religione", "subgroup": "Luoghi di Culto", "subcategory": "Chiesa"}, "geometry": {"type": "Point", "coordinates": [12.3365, 45.4366]}}, {"type": "Feature", "properties": {"wikidata": "Q945776", "name": "Conservatorio Benedetto Marcello", "status": "done", "osm_id": "node/6860789703", "group": "Amministrazione", "subgroup": "Istruzione", "subcategory": "Conservatorio"}, "geometry": {"type": "Point", "coordinates": [12.330366, 45.432438]}}, {"type": "Feature", "properties": {"wikidata": "Q1049033", "name": "Peggy Guggenheim Collection", "status": "done", "osm_id": "node/5366368715", "group": "Cultura e tempo libero", "subgroup": "Musei", "subcategory": "Museo d'arte"}, "geometry": {"type": "Point", "coordinates": [12.331537, 45.430821]}}, {"type": "Feature", "properties": {"wikidata": "Q1048840", "name": "castello del Catajo", "status": "done", "osm_id": "way/44135895", "group": "Fortificazioni e militare", "subgroup": "Fortificazioni", "subcategory": "Castello"}, "geometry": {"type": "Point", "coordinates": [11.787497, 45.297337]}}, {"type": "Feature", "properties": {"wikidata": "Q918491", "name": "Palazzo Contarini Dal Zaffo", "status": "done", "osm_id": "relation/2369076", "group": "Dimore ed edifici", "subgroup": "Residenze", "subcategory": "Palazzo"}, "geometry": {"type": "Point", "coordinates": [12.33405556, 45.44538889]}}, {"type": "Feature", "properties": {"wikidata": "Q943347", "name": "Colonne di San Marco e San Todaro", "status": "done", "osm_id": "way/431003750", "group": "Altro", "subgroup": "Altro", "subcategory": "Altro"}, "geometry": {"type": "Point", "coordinates": [12.339709111, 45.433324888]}}, {"type": "Feature", "properties": {"wikidata": "Q948782", "name": "Friola", "status": "done", "osm_id": "node/938636388", "group": "Insediamenti", "subgroup": "Centri", "subcategory": "Frazione"}, "geometry": {"type": "Point", "coordinates": [11.67886, 45.67784]}}, {"type": "Feature", "properties": {"wikidata": "Q913994", "name": "via Antonio Canova", "status": "missing", "osm_id": null, "group": "Infrastrutture", "subgroup": "Trasporti", "subcategory": "Strada urbana"}, "geometry": {"type": "Point", "coordinates": [12.2417, 45.6676]}}, {"type": "Feature", "properties": {"wikidata": "Q966625", "name": "torre dell'orologio", "status": "done", "osm_id": "way/410344943", "group": "Altro", "subgroup": "Altro", "subcategory": "Altro"}, "geometry": {"type": "Point", "coordinates": [12.338888888, 45.434722222]}}, {"type": "Feature", "properties": {"wikidata": "Q1047075", "name": "Forte Interrotto", "status": "done", "osm_id": "way/125372454", "group": "Fortificazioni e militare", "subgroup": "Fortificazioni", "subcategory": "Forte"}, "geometry": {"type": "Point", "coordinates": [11.480795, 45.897333]}}, {"type": "Feature", "properties": {"wikidata": "Q922371", "name": "Palazzo Grimani di San Luca", "status": "done", "osm_id": "way/312111368", "group": "Dimore ed edifici", "subgroup": "Residenze", "subcategory": "Palazzo italiano"}, "geometry": {"type": "Point", "coordinates": [12.33280556, 45.43595833]}}, {"type": "Feature", "properties": {"wikidata": "Q944214", "name": "Tofane", "status": "done", "osm_id": "node/894092771", "group": "Altro", "subgroup": "Altro", "subcategory": "Altro"}, "geometry": {"type": "Point", "coordinates": [12.05, 46.533333333]}}, {"type": "Feature", "properties": {"wikidata": "Q1049016", "name": "Castelvecchio", "status": "done", "osm_id": "way/24896022", "group": "Fortificazioni e militare", "subgroup": "Fortificazioni", "subcategory": "Castello"}, "geometry": {"type": "Point", "coordinates": [10.988099, 45.439568]}}, {"type": "Feature", "properties": {"wikidata": "Q937014", "name": "Cima XII", "status": "done", "osm_id": "node/26862704", "group": "Natura e paesaggio", "subgroup": "Montagna", "subcategory": "Montagna"}, "geometry": {"type": "Point", "coordinates": [11.46819167, 45.99768333]}}, {"type": "Feature", "properties": {"wikidata": "Q914046", "name": "Calmaggiore", "status": "missing", "osm_id": null, "group": "Infrastrutture", "subgroup": "Trasporti", "subcategory": "Strada urbana"}, "geometry": {"type": "Point", "coordinates": [12.2444, 45.6662]}}, {"type": "Feature", "properties": {"wikidata": "Q946542", "name": "chiesa di San Francesco della Vigna", "status": "done", "osm_id": "way/138804531", "group": "Religione", "subgroup": "Luoghi di Culto", "subcategory": "Chiesa"}, "geometry": {"type": "Point", "coordinates": [12.3486, 45.4381]}}, {"type": "Feature", "properties": {"wikidata": "Q1010815", "name": "Castello di Andraz", "status": "done", "osm_id": "way/199512063", "group": "Fortificazioni e militare", "subgroup": "Fortificazioni", "subcategory": "Castello"}, "geometry": {"type": "Point", "coordinates": [11.989092, 46.504415]}}, {"type": "Feature", "properties": {"wikidata": "Q1040043", "name": "chiesa di San Geremia", "status": "done", "osm_id": "way/138843633", "group": "Religione", "subgroup": "Luoghi di Culto", "subcategory": "Chiesa"}, "geometry": {"type": "Point", "coordinates": [12.32533, 45.44265]}}, {"type": "Feature", "properties": {"wikidata": "Q1025312", "name": "Cadore", "status": "missing", "osm_id": null, "group": "Natura e paesaggio", "subgroup": "Montagna", "subcategory": "Valle"}, "geometry": {"type": "Point", "coordinates": [12.35722222, 46.50916667]}}, {"type": "Feature", "properties": {"wikidata": "Q934025", "name": "Palazzo Cavalli-Franchetti", "status": "done", "osm_id": "way/138841814", "group": "Dimore ed edifici", "subgroup": "Strutture Varie", "subcategory": "Edificio"}, "geometry": {"type": "Point", "coordinates": [12.329614, 45.431718]}}, {"type": "Feature", "properties": {"wikidata": "Q974832", "name": "chiesa di Santo Stefano", "status": "done", "osm_id": "way/138842928", "group": "Religione", "subgroup": "Luoghi di Culto", "subcategory": "Chiesa"}, "geometry": {"type": "Point", "coordinates": [12.33087, 45.433726]}}, {"type": "Feature", "properties": {"wikidata": "Q914005", "name": "Ca' da Noal", "status": "done", "osm_id": "way/1254900744", "group": "Dimore ed edifici", "subgroup": "Residenze", "subcategory": "Palazzo"}, "geometry": {"type": "Point", "coordinates": [12.241438888, 45.66785]}}, {"type": "Feature", "properties": {"wikidata": "Q1048440", "name": "Cassone", "status": "done", "osm_id": "node/1181443382", "group": "Insediamenti", "subgroup": "Centri", "subcategory": "Frazione"}, "geometry": {"type": "Point", "coordinates": [10.78969, 45.73409]}}, {"type": "Feature", "properties": {"wikidata": "Q972008", "name": "Delta del Po", "status": "missing", "osm_id": null, "group": "Altro", "subgroup": "Altro", "subcategory": "Altro"}, "geometry": {"type": "Point", "coordinates": [12.4619, 44.9609]}}, {"type": "Feature", "properties": {"wikidata": "Q949153", "name": "Monte Peralba", "status": "done", "osm_id": "node/26863928", "group": "Natura e paesaggio", "subgroup": "Montagna", "subcategory": "Montagna"}, "geometry": {"type": "Point", "coordinates": [12.72, 46.63]}}, {"type": "Feature", "properties": {"wikidata": "Q915746", "name": "chiesa di San Giovanni Grisostomo", "status": "done", "osm_id": "way/138804284", "group": "Religione", "subgroup": "Luoghi di Culto", "subcategory": "Chiesa"}, "geometry": {"type": "Point", "coordinates": [12.337139, 45.439139]}}, {"type": "Feature", "properties": {"wikidata": "Q922677", "name": "chiesa di San Giacomo di Rialto", "status": "done", "osm_id": "way/138800508", "group": "Religione", "subgroup": "Luoghi di Culto", "subcategory": "Chiesa"}, "geometry": {"type": "Point", "coordinates": [12.33547222, 45.43847222]}}, {"type": "Feature", "properties": {"wikidata": "Q930572", "name": "Villa Pisani", "status": "missing", "osm_id": null, "group": "Dimore ed edifici", "subgroup": "Residenze", "subcategory": "Villa"}, "geometry": {"type": "Point", "coordinates": [11.40314, 45.39472]}}, {"type": "Feature", "properties": {"wikidata": "Q928246", "name": "Carbonera", "status": "done", "osm_id": "way/4720054", "group": "Natura e paesaggio", "subgroup": "Mare e Costa", "subcategory": "Isola"}, "geometry": {"type": "Point", "coordinates": [12.35215278, 45.48092778]}}, {"type": "Feature", "properties": {"wikidata": "Q957551", "name": "Ca' Foscari", "status": "done", "osm_id": "way/138843741", "group": "Altro", "subgroup": "Altro", "subcategory": "Altro"}, "geometry": {"type": "Point", "coordinates": [12.3266, 45.434464]}}, {"type": "Feature", "properties": {"wikidata": "Q977761", "name": "Giardino Officinale di Marzana", "status": "missing", "osm_id": null, "group": "Natura e paesaggio", "subgroup": "Verde", "subcategory": "Orto botanico"}, "geometry": {"type": "Point", "coordinates": [11.01388889, 45.5025]}}, {"type": "Feature", "properties": {"wikidata": "Q1044750", "name": "Carpi d'Adige", "status": "done", "osm_id": "node/1514071232", "group": "Insediamenti", "subgroup": "Centri", "subcategory": "Frazione"}, "geometry": {"type": "Point", "coordinates": [11.39486, 45.137753]}}, {"type": "Feature", "properties": {"wikidata": "Q914097", "name": "Biblioteca capitolare di Treviso", "status": "missing", "osm_id": null, "group": "Cultura e tempo libero", "subgroup": "Biblioteche", "subcategory": "Biblioteca privata"}, "geometry": {"type": "Point", "coordinates": [12.24333333, 45.66583333]}}, {"type": "Feature", "properties": {"wikidata": "Q914107", "name": "Museo diocesano di Treviso", "status": "done", "osm_id": "node/3924086871", "group": "Cultura e tempo libero", "subgroup": "Musei", "subcategory": "Museo d'arte"}, "geometry": {"type": "Point", "coordinates": [12.243251, 45.665982]}}, {"type": "Feature", "properties": {"wikidata": "Q1024724", "name": "Marghera", "status": "done", "osm_id": "node/1252488738", "group": "Insediamenti", "subgroup": "Centri", "subcategory": "Localit\u00e0"}, "geometry": {"type": "Point", "coordinates": [12.22465, 45.47547]}}, {"type": "Feature", "properties": {"wikidata": "Q2060988", "name": "Villa Pisani", "status": "done", "osm_id": "relation/2565627", "group": "Dimore ed edifici", "subgroup": "Residenze", "subcategory": "Villa"}, "geometry": {"type": "Point", "coordinates": [12.012583333, 45.408305555]}}, {"type": "Feature", "properties": {"wikidata": "Q2037301", "name": "Ottagono C\u00e0 Roman", "status": "done", "osm_id": "way/160753562", "group": "Fortificazioni e militare", "subgroup": "Fortificazioni", "subcategory": "Forte"}, "geometry": {"type": "Point", "coordinates": [12.283939, 45.243441]}}, {"type": "Feature", "properties": {"wikidata": "Q2190978", "name": "Cappella", "status": "done", "osm_id": "node/324033098", "group": "Insediamenti", "subgroup": "Centri", "subcategory": "Frazione"}, "geometry": {"type": "Point", "coordinates": [12.14038, 45.56906]}}, {"type": "Feature", "properties": {"wikidata": "Q2108580", "name": "Olmo", "status": "done", "osm_id": "node/659581803", "group": "Insediamenti", "subgroup": "Centri", "subcategory": "Frazione"}, "geometry": {"type": "Point", "coordinates": [12.188333333, 45.517222222]}}, {"type": "Feature", "properties": {"wikidata": "Q2069883", "name": "Malcontenta", "status": "done", "osm_id": "node/1010605970", "group": "Insediamenti", "subgroup": "Centri", "subcategory": "Frazione"}, "geometry": {"type": "Point", "coordinates": [12.205555555, 45.436666666]}}, {"type": "Feature", "properties": {"wikidata": "Q2153808", "name": "Laste", "status": "done", "osm_id": "node/3230023864", "group": "Insediamenti", "subgroup": "Centri", "subcategory": "Frazione"}, "geometry": {"type": "Point", "coordinates": [11.971092438, 46.453381854]}}, {"type": "Feature", "properties": {"wikidata": "Q2104869", "name": "Porta Garibaldi", "status": "missing", "osm_id": null, "group": "Fortificazioni e militare", "subgroup": "Fortificazioni", "subcategory": "Porta cittadina"}, "geometry": {"type": "Point", "coordinates": [12.277615, 45.21644]}}, {"type": "Feature", "properties": {"wikidata": "Q2026952", "name": "diocesi di Oderzo", "status": "missing", "osm_id": null, "group": "Altro", "subgroup": "Altro", "subcategory": "Altro"}, "geometry": {"type": "Point", "coordinates": [12.4875, 45.78305556]}}, {"type": "Feature", "properties": {"wikidata": "Q2125941", "name": "Poiatte", "status": "done", "osm_id": "node/854421496", "group": "Insediamenti", "subgroup": "Centri", "subcategory": "Frazione"}, "geometry": {"type": "Point", "coordinates": [12.366666666, 46.1]}}, {"type": "Feature", "properties": {"wikidata": "Q2104865", "name": "Porta della Carta", "status": "missing", "osm_id": null, "group": "Altro", "subgroup": "Altro", "subcategory": "Altro"}, "geometry": {"type": "Point", "coordinates": [12.33986667, 45.434125]}}, {"type": "Feature", "properties": {"wikidata": "Q2068501", "name": "Museo papa Luciani", "status": "missing", "osm_id": null, "group": "Cultura e tempo libero", "subgroup": "Musei", "subcategory": "Museo"}, "geometry": {"type": "Point", "coordinates": [11.9148, 46.36076]}}, {"type": "Feature", "properties": {"wikidata": "Q2197823", "name": "Dossobuono", "status": "done", "osm_id": "node/249474195", "group": "Insediamenti", "subgroup": "Centri", "subcategory": "Frazione"}, "geometry": {"type": "Point", "coordinates": [10.91054, 45.39333]}}, {"type": "Feature", "properties": {"wikidata": "Q2065629", "name": "San Fior di Sotto", "status": "done", "osm_id": "node/554684987", "group": "Insediamenti", "subgroup": "Centri", "subcategory": "Frazione"}, "geometry": {"type": "Point", "coordinates": [12.37505, 45.90339]}}, {"type": "Feature", "properties": {"wikidata": "Q2045979", "name": "Padola", "status": "missing", "osm_id": null, "group": "Natura e paesaggio", "subgroup": "Acqua", "subcategory": "Fiume"}, "geometry": {"type": "Point", "coordinates": [12.466111111, 46.624166666]}}, {"type": "Feature", "properties": {"wikidata": "Q2121837", "name": "Quadrante Europa", "status": "missing", "osm_id": null, "group": "Altro", "subgroup": "Altro", "subcategory": "Altro"}, "geometry": {"type": "Point", "coordinates": [10.92463889, 45.42172222]}}, {"type": "Feature", "properties": {"wikidata": "Q2037307", "name": "Ottagono Poveglia", "status": "done", "osm_id": "way/95196479", "group": "Fortificazioni e militare", "subgroup": "Fortificazioni", "subcategory": "Forte"}, "geometry": {"type": "Point", "coordinates": [12.331599, 45.38046]}}, {"type": "Feature", "properties": {"wikidata": "Q2045327", "name": "Pacengo", "status": "done", "osm_id": "node/1113489906", "group": "Insediamenti", "subgroup": "Centri", "subcategory": "Frazione"}, "geometry": {"type": "Point", "coordinates": [10.72055556, 45.46722222]}}, {"type": "Feature", "properties": {"wikidata": "Q2047620", "name": "Palazzo Venier dei Leoni", "status": "done", "osm_id": "way/313876769", "group": "Dimore ed edifici", "subgroup": "Residenze", "subcategory": "Palazzo"}, "geometry": {"type": "Point", "coordinates": [12.33138889, 45.43055556]}}, {"type": "Feature", "properties": {"wikidata": "Q2188518", "name": "Pieve di Curtarolo", "status": "missing", "osm_id": null, "group": "Insediamenti", "subgroup": "Centri", "subcategory": "Frazione"}, "geometry": {"type": "Point", "coordinates": [11.83333333, 45.51666667]}}, {"type": "Feature", "properties": {"wikidata": "Q2103738", "name": "Ponte di San Lorenzo", "status": "done", "osm_id": "way/839266591", "group": "Altro", "subgroup": "Altro", "subcategory": "Altro"}, "geometry": {"type": "Point", "coordinates": [11.87787, 45.40611]}}, {"type": "Feature", "properties": {"wikidata": "Q2091954", "name": "piazza di Rialto", "status": "missing", "osm_id": null, "group": "Insediamenti", "subgroup": "Zone Urbane", "subcategory": "Piazza"}, "geometry": {"type": "Point", "coordinates": [12.335262, 45.43908796]}}, {"type": "Feature", "properties": {"wikidata": "Q2037299", "name": "Ottagono Abbandonato", "status": "done", "osm_id": "way/146055198", "group": "Fortificazioni e militare", "subgroup": "Fortificazioni", "subcategory": "Forte"}, "geometry": {"type": "Point", "coordinates": [12.321819, 45.363514]}}, {"type": "Feature", "properties": {"wikidata": "Q2103744", "name": "ponte del Cavallo", "status": "done", "osm_id": "way/556542213", "group": "Altro", "subgroup": "Altro", "subcategory": "Altro"}, "geometry": {"type": "Point", "coordinates": [12.34116667, 45.43947222]}}, {"type": "Feature", "properties": {"wikidata": "Q2121385", "name": "San Pietro di Castello", "status": "done", "osm_id": "way/173629664", "group": "Natura e paesaggio", "subgroup": "Mare e Costa", "subcategory": "Isola"}, "geometry": {"type": "Point", "coordinates": [12.36, 45.433888888]}}, {"type": "Feature", "properties": {"wikidata": "Q2019856", "name": "Olimpia delle Tofane", "status": "missing", "osm_id": null, "group": "Altro", "subgroup": "Altro", "subcategory": "Altro"}, "geometry": {"type": "Point", "coordinates": [12.120306, 46.534917]}}, {"type": "Feature", "properties": {"wikidata": "Q2031664", "name": "Villa Badoer", "status": "done", "osm_id": "way/249816942", "group": "Dimore ed edifici", "subgroup": "Residenze", "subcategory": "Villa"}, "geometry": {"type": "Point", "coordinates": [11.639861111, 45.030352777]}}, {"type": "Feature", "properties": {"wikidata": "Q2210251", "name": "Sacca San Biagio", "status": "done", "osm_id": "way/216882428", "group": "Natura e paesaggio", "subgroup": "Mare e Costa", "subcategory": "Isola"}, "geometry": {"type": "Point", "coordinates": [12.3093, 45.4267]}}, {"type": "Feature", "properties": {"wikidata": "Q2184285", "name": "San Pietro in Volta", "status": "done", "osm_id": "node/4429692930", "group": "Insediamenti", "subgroup": "Centri", "subcategory": "Localit\u00e0"}, "geometry": {"type": "Point", "coordinates": [12.31518, 45.31542]}}, {"type": "Feature", "properties": {"wikidata": "Q2181700", "name": "Scandolara", "status": "done", "osm_id": "node/1731547407", "group": "Insediamenti", "subgroup": "Centri", "subcategory": "Frazione"}, "geometry": {"type": "Point", "coordinates": [12.09981, 45.61464]}}, {"type": "Feature", "properties": {"wikidata": "Q2137881", "name": "Sasso", "status": "done", "osm_id": "node/1371079752", "group": "Insediamenti", "subgroup": "Centri", "subcategory": "Insediamento umano"}, "geometry": {"type": "Point", "coordinates": [11.61531, 45.86378]}}, {"type": "Feature", "properties": {"wikidata": "Q2118904", "name": "Sant'Elena", "status": "done", "osm_id": "relation/4817102", "group": "Natura e paesaggio", "subgroup": "Mare e Costa", "subcategory": "Isola"}, "geometry": {"type": "Point", "coordinates": [12.36293, 45.42745]}}, {"type": "Feature", "properties": {"wikidata": "Q2065672", "name": "Valvorina", "status": "missing", "osm_id": null, "group": "Insediamenti", "subgroup": "Centri", "subcategory": "Frazione"}, "geometry": {"type": "Point", "coordinates": [11.55, 45.88333333]}}, {"type": "Feature", "properties": {"wikidata": "Q2084394", "name": "Villa Godi", "status": "done", "osm_id": "way/244552816", "group": "Altro", "subgroup": "Altro", "subcategory": "Altro"}, "geometry": {"type": "Point", "coordinates": [11.534439, 45.746141]}}, {"type": "Feature", "properties": {"wikidata": "Q2047571", "name": "Palazzo Michiel dalle Colonne", "status": "done", "osm_id": "way/162510828", "group": "Dimore ed edifici", "subgroup": "Residenze", "subcategory": "Palazzo"}, "geometry": {"type": "Point", "coordinates": [12.33519444, 45.44027778]}}, {"type": "Feature", "properties": {"wikidata": "Q2103722", "name": "Ponte San Mois\u00e9", "status": "done", "osm_id": "way/555804524", "group": "Altro", "subgroup": "Altro", "subcategory": "Altro"}, "geometry": {"type": "Point", "coordinates": [12.335569, 45.433063]}}, {"type": "Feature", "properties": {"wikidata": "Q2103742", "name": "Ponte visconteo", "status": "missing", "osm_id": null, "group": "Infrastrutture", "subgroup": "Trasporti", "subcategory": "Ponte"}, "geometry": {"type": "Point", "coordinates": [10.725161, 45.354924]}}, {"type": "Feature", "properties": {"wikidata": "Q2066536", "name": "Ball\u00f2", "status": "done", "osm_id": "node/973563559", "group": "Insediamenti", "subgroup": "Centri", "subcategory": "Frazione"}, "geometry": {"type": "Point", "coordinates": [12.07124, 45.45581]}}, {"type": "Feature", "properties": {"wikidata": "Q2103692", "name": "Ponte Altinate", "status": "done", "osm_id": "way/95501918", "group": "Altro", "subgroup": "Altro", "subcategory": "Altro"}, "geometry": {"type": "Point", "coordinates": [11.878543, 45.408904]}}, {"type": "Feature", "properties": {"wikidata": "Q2174743", "name": "Sandon", "status": "done", "osm_id": "node/3210995433", "group": "Insediamenti", "subgroup": "Centri", "subcategory": "Frazione"}, "geometry": {"type": "Point", "coordinates": [12.04259, 45.36385]}}, {"type": "Feature", "properties": {"wikidata": "Q2103707", "name": "Ponte Manin", "status": "done", "osm_id": "way/556128742", "group": "Altro", "subgroup": "Altro", "subcategory": "Altro"}, "geometry": {"type": "Point", "coordinates": [12.3352218, 45.4371231]}}, {"type": "Feature", "properties": {"wikidata": "Q2034628", "name": "osservatorio astrofisico di Asiago", "status": "done", "osm_id": "way/1298217578", "group": "Infrastrutture", "subgroup": "Industria e Tecnica", "subcategory": "Osservatorio astronomico"}, "geometry": {"type": "Point", "coordinates": [11.52608, 45.8663]}}, {"type": "Feature", "properties": {"wikidata": "Q2103092", "name": "Piavon", "status": "done", "osm_id": "way/178806869", "group": "Insediamenti", "subgroup": "Centri", "subcategory": "Frazione"}, "geometry": {"type": "Point", "coordinates": [12.53, 45.76]}}, {"type": "Feature", "properties": {"wikidata": "Q2052064", "name": "parco regionale dei Colli Euganei", "status": "done", "osm_id": "node/1716027845", "group": "Natura e paesaggio", "subgroup": "Verde", "subcategory": "Area protetta"}, "geometry": {"type": "Point", "coordinates": [11.69838, 45.308308]}}, {"type": "Feature", "properties": {"wikidata": "Q2124144", "name": "Fusina", "status": "done", "osm_id": "node/2643968874", "group": "Insediamenti", "subgroup": "Centri", "subcategory": "Localit\u00e0"}, "geometry": {"type": "Point", "coordinates": [12.256666666, 45.419166666]}}, {"type": "Feature", "properties": {"wikidata": "Q2123346", "name": "Cavino", "status": "done", "osm_id": "node/573427931", "group": "Insediamenti", "subgroup": "Centri", "subcategory": "Frazione"}, "geometry": {"type": "Point", "coordinates": [11.88466, 45.51709]}}, {"type": "Feature", "properties": {"wikidata": "Q2115058", "name": "Villa Thiene", "status": "done", "osm_id": "way/674705936", "group": "Dimore ed edifici", "subgroup": "Residenze", "subcategory": "Villa"}, "geometry": {"type": "Point", "coordinates": [11.6249847, 45.5729814]}}, {"type": "Feature", "properties": {"wikidata": "Q2056122", "name": "Passo Cimabanche", "status": "done", "osm_id": "node/420797276", "group": "Natura e paesaggio", "subgroup": "Montagna", "subcategory": "Passo"}, "geometry": {"type": "Point", "coordinates": [12.183, 46.62015]}}, {"type": "Feature", "properties": {"wikidata": "Q2067414", "name": "trampolino del Pakstall", "status": "done", "osm_id": "way/1222223898", "group": "Altro", "subgroup": "Altro", "subcategory": "Altro"}, "geometry": {"type": "Point", "coordinates": [11.54905556, 45.89622222]}}, {"type": "Feature", "properties": {"wikidata": "Q2019284", "name": "cattedrale di Santa Maria Annunciata", "status": "done", "osm_id": "way/138894828", "group": "Altro", "subgroup": "Altro", "subcategory": "Altro"}, "geometry": {"type": "Point", "coordinates": [11.5435, 45.5462]}}, {"type": "Feature", "properties": {"wikidata": "Q2048225", "name": "Spinimbecco", "status": "done", "osm_id": "node/1514071240", "group": "Insediamenti", "subgroup": "Centri", "subcategory": "Frazione"}, "geometry": {"type": "Point", "coordinates": [11.37352, 45.14657]}}, {"type": "Feature", "properties": {"wikidata": "Q2135861", "name": "Longa", "status": "done", "osm_id": "node/617518914", "group": "Insediamenti", "subgroup": "Centri", "subcategory": "Frazione"}, "geometry": {"type": "Point", "coordinates": [11.64249, 45.6806]}}, {"type": "Feature", "properties": {"wikidata": "Q2067212", "name": "Compianto sul Cristo morto", "status": "missing", "osm_id": null, "group": "Altro", "subgroup": "Altro", "subcategory": "Altro"}, "geometry": {"type": "Point", "coordinates": [11.879444444, 45.411666666]}}, {"type": "Feature", "properties": {"wikidata": "Q2032268", "name": "San Floriano di Campagna", "status": "done", "osm_id": "node/1399961748", "group": "Insediamenti", "subgroup": "Centri", "subcategory": "Frazione"}, "geometry": {"type": "Point", "coordinates": [11.970833333, 45.694166666]}}, {"type": "Feature", "properties": {"wikidata": "Q2022888", "name": "Stadio olimpico del Ghiaccio", "status": "done", "osm_id": "way/62805270", "group": "Altro", "subgroup": "Altro", "subcategory": "Altro"}, "geometry": {"type": "Point", "coordinates": [12.1325, 46.544166666]}}, {"type": "Feature", "properties": {"wikidata": "Q1063320", "name": "Porta Borsari", "status": "done", "osm_id": "way/138812787", "group": "Fortificazioni e militare", "subgroup": "Fortificazioni", "subcategory": "Porta cittadina"}, "geometry": {"type": "Point", "coordinates": [10.993302, 45.441939]}}, {"type": "Feature", "properties": {"wikidata": "Q1098606", "name": "Chievo", "status": "done", "osm_id": "node/259650179", "group": "Insediamenti", "subgroup": "Centri", "subcategory": "Frazione"}, "geometry": {"type": "Point", "coordinates": [10.94611111, 45.45722222]}}, {"type": "Feature", "properties": {"wikidata": "Q1094438", "name": "Monte Civetta", "status": "done", "osm_id": "relation/2141321", "group": "Natura e paesaggio", "subgroup": "Montagna", "subcategory": "Montagna"}, "geometry": {"type": "Point", "coordinates": [12.053333333, 46.38]}}, {"type": "Feature", "properties": {"wikidata": "Q1056360", "name": "piazza Bra", "status": "done", "osm_id": "way/23964274", "group": "Insediamenti", "subgroup": "Zone Urbane", "subcategory": "Piazza"}, "geometry": {"type": "Point", "coordinates": [10.99277778, 45.43888889]}}, {"type": "Feature", "properties": {"wikidata": "Q1059409", "name": "chiesa dell'Abbazia della Misericordia", "status": "done", "osm_id": "way/138801607", "group": "Religione", "subgroup": "Luoghi di Culto", "subcategory": "Chiesa"}, "geometry": {"type": "Point", "coordinates": [12.335163888, 45.443875]}}, {"type": "Feature", "properties": {"wikidata": "Q1093901", "name": "chiesa di San Pantalon", "status": "done", "osm_id": "way/138842015", "group": "Religione", "subgroup": "Luoghi di Culto", "subcategory": "Chiesa"}, "geometry": {"type": "Point", "coordinates": [12.32469, 45.43566]}}, {"type": "Feature", "properties": {"wikidata": "Q1074711", "name": "Chirignago", "status": "done", "osm_id": "node/4431892156", "group": "Insediamenti", "subgroup": "Centri", "subcategory": "Localit\u00e0"}, "geometry": {"type": "Point", "coordinates": [12.19338333, 45.48447778]}}, {"type": "Feature", "properties": {"wikidata": "Q1057412", "name": "Teatro San Samuele", "status": "missing", "osm_id": null, "group": "Cultura e tempo libero", "subgroup": "Spettacolo", "subcategory": "Teatro"}, "geometry": {"type": "Point", "coordinates": [12.328936111, 45.432936111]}}, {"type": "Feature", "properties": {"wikidata": "Q1066627", "name": "piazza dei Signori", "status": "done", "osm_id": "way/24403675", "group": "Insediamenti", "subgroup": "Zone Urbane", "subcategory": "Piazza"}, "geometry": {"type": "Point", "coordinates": [10.9982, 45.4436]}}, {"type": "Feature", "properties": {"wikidata": "Q1052661", "name": "chiesa di Santa Maria in Organo", "status": "done", "osm_id": "way/358970377", "group": "Religione", "subgroup": "Luoghi di Culto", "subcategory": "Chiesa"}, "geometry": {"type": "Point", "coordinates": [11.002777777, 45.446944444]}}, {"type": "Feature", "properties": {"wikidata": "Q1079652", "name": "Ponte Tron", "status": "done", "osm_id": "way/947789832", "group": "Altro", "subgroup": "Altro", "subcategory": "Altro"}, "geometry": {"type": "Point", "coordinates": [12.33638889, 45.43472222]}}, {"type": "Feature", "properties": {"wikidata": "Q1116832", "name": "duomo di Conegliano", "status": "done", "osm_id": "way/174022971", "group": "Altro", "subgroup": "Altro", "subcategory": "Altro"}, "geometry": {"type": "Point", "coordinates": [12.295908, 45.886533]}}, {"type": "Feature", "properties": {"wikidata": "Q1109384", "name": "Colli Berici", "status": "done", "osm_id": "way/1069246062", "group": "Altro", "subgroup": "Altro", "subcategory": "Altro"}, "geometry": {"type": "Point", "coordinates": [11.516666666, 45.433333333]}}, {"type": "Feature", "properties": {"wikidata": "Q1093909", "name": "chiesa dei Gesuati", "status": "done", "osm_id": "way/118714648", "group": "Religione", "subgroup": "Luoghi di Culto", "subcategory": "Chiesa"}, "geometry": {"type": "Point", "coordinates": [12.327222222, 45.429444444]}}, {"type": "Feature", "properties": {"wikidata": "Q1115991", "name": "ex convento di Sant'Antonio", "status": "missing", "osm_id": null, "group": "Religione", "subgroup": "Vita Monastica", "subcategory": "Convento"}, "geometry": {"type": "Point", "coordinates": [12.293268, 45.884949]}}, {"type": "Feature", "properties": {"wikidata": "Q1091358", "name": "Isola della Certosa", "status": "done", "osm_id": "way/23077631", "group": "Natura e paesaggio", "subgroup": "Mare e Costa", "subcategory": "Isola"}, "geometry": {"type": "Point", "coordinates": [12.36666667, 45.43333333]}}, {"type": "Feature", "properties": {"wikidata": "Q1052171", "name": "Ca' Rezzonico", "status": "done", "osm_id": "relation/1927025", "group": "Cultura e tempo libero", "subgroup": "Musei", "subcategory": "Museo d'arte"}, "geometry": {"type": "Point", "coordinates": [12.324354, 45.434086]}}, {"type": "Feature", "properties": {"wikidata": "Q1115876", "name": "Aeroporto di Asiago", "status": "done", "osm_id": "relation/1109641", "group": "Altro", "subgroup": "Altro", "subcategory": "Altro"}, "geometry": {"type": "Point", "coordinates": [11.516666666, 45.887777777]}}, {"type": "Feature", "properties": {"wikidata": "Q1089047", "name": "Accademia galileiana di scienze, lettere ed arti", "status": "done", "osm_id": "node/1459283521", "group": "Altro", "subgroup": "Altro", "subcategory": "Altro"}, "geometry": {"type": "Point", "coordinates": [11.87072, 45.40738]}}, {"type": "Feature", "properties": {"wikidata": "Q1110282", "name": "Teatro Sant'Angelo", "status": "missing", "osm_id": null, "group": "Cultura e tempo libero", "subgroup": "Spettacolo", "subcategory": "Teatro"}, "geometry": {"type": "Point", "coordinates": [12.33035, 45.435588888]}}, {"type": "Feature", "properties": {"wikidata": "Q1115230", "name": "Duomo di Rovigo", "status": "missing", "osm_id": null, "group": "Altro", "subgroup": "Altro", "subcategory": "Altro"}, "geometry": {"type": "Point", "coordinates": [11.789, 45.0699]}}, {"type": "Feature", "properties": {"wikidata": "Q1092680", "name": "Vignole", "status": "done", "osm_id": "relation/3375271", "group": "Natura e paesaggio", "subgroup": "Mare e Costa", "subcategory": "Isola"}, "geometry": {"type": "Point", "coordinates": [12.375, 45.44]}}, {"type": "Feature", "properties": {"wikidata": "Q1052142", "name": "Ca' Corner della Regina", "status": "done", "osm_id": "relation/2382771", "group": "Dimore ed edifici", "subgroup": "Residenze", "subcategory": "Palazzo italiano"}, "geometry": {"type": "Point", "coordinates": [12.332233, 45.440687]}}, {"type": "Feature", "properties": {"wikidata": "Q1113069", "name": "Col\u00e0", "status": "done", "osm_id": "node/1831485760", "group": "Insediamenti", "subgroup": "Centri", "subcategory": "Frazione"}, "geometry": {"type": "Point", "coordinates": [10.74257, 45.47428]}}, {"type": "Feature", "properties": {"wikidata": "Q1114700", "name": "Quaderni", "status": "done", "osm_id": "node/293111447", "group": "Insediamenti", "subgroup": "Centri", "subcategory": "Frazione"}, "geometry": {"type": "Point", "coordinates": [10.789511111, 45.329763888]}}, {"type": "Feature", "properties": {"wikidata": "Q1116675", "name": "parco la Favorita", "status": "missing", "osm_id": null, "group": "Natura e paesaggio", "subgroup": "Verde", "subcategory": "Parco cittadino"}, "geometry": {"type": "Point", "coordinates": [11.30561, 45.65095]}}, {"type": "Feature", "properties": {"wikidata": "Q1068131", "name": "chiesa di San Mois\u00e8", "status": "done", "osm_id": "way/138804072", "group": "Religione", "subgroup": "Luoghi di Culto", "subcategory": "Chiesa"}, "geometry": {"type": "Point", "coordinates": [12.335947, 45.433083]}}, {"type": "Feature", "properties": {"wikidata": "Q1117362", "name": "stazione di Conegliano", "status": "done", "osm_id": "node/6813794768", "group": "Infrastrutture", "subgroup": "Trasporti", "subcategory": "Stazione ferroviaria"}, "geometry": {"type": "Point", "coordinates": [12.2988, 45.8848]}}, {"type": "Feature", "properties": {"wikidata": "Q1113291", "name": "Museo del precinema", "status": "missing", "osm_id": null, "group": "Cultura e tempo libero", "subgroup": "Musei", "subcategory": "Museo"}, "geometry": {"type": "Point", "coordinates": [11.87576, 45.40001]}}, {"type": "Feature", "properties": {"wikidata": "Q1107329", "name": "Col Nudo", "status": "done", "osm_id": "node/26862723", "group": "Natura e paesaggio", "subgroup": "Montagna", "subcategory": "Montagna"}, "geometry": {"type": "Point", "coordinates": [12.40138889, 46.22888889]}}, {"type": "Feature", "properties": {"wikidata": "Q1114501", "name": "Valle del Biois", "status": "missing", "osm_id": null, "group": "Natura e paesaggio", "subgroup": "Montagna", "subcategory": "Valle"}, "geometry": {"type": "Point", "coordinates": [11.866666666, 46.366666666]}}, {"type": "Feature", "properties": {"wikidata": "Q1071495", "name": "Villa Barbaro", "status": "done", "osm_id": "way/145740467", "group": "Altro", "subgroup": "Altro", "subcategory": "Altro"}, "geometry": {"type": "Point", "coordinates": [11.976389, 45.811944]}}, {"type": "Feature", "properties": {"wikidata": "Q1072076", "name": "Sant'Erasmo", "status": "done", "osm_id": "relation/15795542", "group": "Natura e paesaggio", "subgroup": "Mare e Costa", "subcategory": "Isola"}, "geometry": {"type": "Point", "coordinates": [12.407777777, 45.454444444]}}, {"type": "Feature", "properties": {"wikidata": "Q1069678", "name": "Teatro anatomico di Padova", "status": "missing", "osm_id": null, "group": "Altro", "subgroup": "Altro", "subcategory": "Altro"}, "geometry": {"type": "Point", "coordinates": [11.877166666, 45.407138888]}}, {"type": "Feature", "properties": {"wikidata": "Q1086637", "name": "parco nazionale delle Dolomiti Bellunesi", "status": "done", "osm_id": "relation/7761352", "group": "Natura e paesaggio", "subgroup": "Verde", "subcategory": "Area protetta"}, "geometry": {"type": "Point", "coordinates": [12.0366466, 46.1699261]}}, {"type": "Feature", "properties": {"wikidata": "Q1115328", "name": "Palazzo del Capitaniato", "status": "done", "osm_id": "way/138901295", "group": "Dimore ed edifici", "subgroup": "Residenze", "subcategory": "Palazzo"}, "geometry": {"type": "Point", "coordinates": [11.54583333, 45.54722222]}}, {"type": "Feature", "properties": {"wikidata": "Q1113920", "name": "stazione di Bevilacqua", "status": "done", "osm_id": "node/540234781", "group": "Infrastrutture", "subgroup": "Trasporti", "subcategory": "Stazione ferroviaria"}, "geometry": {"type": "Point", "coordinates": [11.3968, 45.2304]}}, {"type": "Feature", "properties": {"wikidata": "Q1052167", "name": "Ca' da Mosto", "status": "done", "osm_id": "relation/2032906", "group": "Dimore ed edifici", "subgroup": "Strutture Varie", "subcategory": "Edificio"}, "geometry": {"type": "Point", "coordinates": [12.335841666, 45.439652777]}}, {"type": "Feature", "properties": {"wikidata": "Q1061762", "name": "Giardini della rotonda", "status": "done", "osm_id": "way/39757236", "group": "Altro", "subgroup": "Altro", "subcategory": "Altro"}, "geometry": {"type": "Point", "coordinates": [11.8754, 45.4163]}}, {"type": "Feature", "properties": {"wikidata": "Q1080619", "name": "chiesa di San Giovanni Decollato", "status": "done", "osm_id": "way/138842007", "group": "Religione", "subgroup": "Luoghi di Culto", "subcategory": "Chiesa"}, "geometry": {"type": "Point", "coordinates": [12.32787, 45.44158]}}, {"type": "Feature", "properties": {"wikidata": "Q1056442", "name": "chiesa di Sant'Anastasia", "status": "done", "osm_id": "way/1193522172", "group": "Religione", "subgroup": "Luoghi di Culto", "subcategory": "Chiesa"}, "geometry": {"type": "Point", "coordinates": [10.999722222, 45.445277777]}}, {"type": "Feature", "properties": {"wikidata": "Q1112350", "name": "chiesa dei Santi Maria Assunta e Cassiano", "status": "done", "osm_id": "way/1189900714", "group": "Religione", "subgroup": "Luoghi di Culto", "subcategory": "Chiesa"}, "geometry": {"type": "Point", "coordinates": [12.416148, 45.949476]}}]}