{"type": "FeatureCollection", "features": [{"type": "Feature", "properties": {"wikidata": "Q18496400", "name": "Cerreto", "status": "done", "osm_id": "node/452994170", "group": "Insediamenti", "subgroup": "Centri", "subcategory": "Frazione"}, "geometry": {"type": "Point", "coordinates": [13.49745, 42.89897]}}, {"type": "Feature", "properties": {"wikidata": "Q18496304", "name": "Astorara", "status": "done", "osm_id": "node/502905007", "group": "Insediamenti", "subgroup": "Centri", "subcategory": "Frazione"}, "geometry": {"type": "Point", "coordinates": [13.31174, 42.83744]}}, {"type": "Feature", "properties": {"wikidata": "Q18496371", "name": "Caselle di Maltignano", "status": "done", "osm_id": "node/452991264", "group": "Insediamenti", "subgroup": "Centri", "subcategory": "Frazione"}, "geometry": {"type": "Point", "coordinates": [13.67138, 42.8417]}}, {"type": "Feature", "properties": {"wikidata": "Q18496375", "name": "Casette", "status": "done", "osm_id": "node/502906079", "group": "Insediamenti", "subgroup": "Centri", "subcategory": "Insediamento umano"}, "geometry": {"type": "Point", "coordinates": [13.55567, 42.82795]}}, {"type": "Feature", "properties": {"wikidata": "Q18496488", "name": "Forca", "status": "done", "osm_id": "node/502905015", "group": "Insediamenti", "subgroup": "Centri", "subcategory": "Frazione"}, "geometry": {"type": "Point", "coordinates": [13.34295, 42.82932]}}, {"type": "Feature", "properties": {"wikidata": "Q18496474", "name": "Focarine", "status": "done", "osm_id": "node/452996761", "group": "Insediamenti", "subgroup": "Centri", "subcategory": "Insediamento umano"}, "geometry": {"type": "Point", "coordinates": [13.47025, 42.8644]}}, {"type": "Feature", "properties": {"wikidata": "Q18496491", "name": "Funti", "status": "done", "osm_id": "node/452991277", "group": "Insediamenti", "subgroup": "Centri", "subcategory": "Frazione"}, "geometry": {"type": "Point", "coordinates": [13.51091, 42.80227]}}, {"type": "Feature", "properties": {"wikidata": "Q18496432", "name": "Colle-Lungo", "status": "done", "osm_id": "node/452991272", "group": "Insediamenti", "subgroup": "Centri", "subcategory": "Insediamento umano"}, "geometry": {"type": "Point", "coordinates": [13.50371, 42.8736]}}, {"type": "Feature", "properties": {"wikidata": "Q18496285", "name": "Zona Insediamenti Produttivi", "status": "missing", "osm_id": null, "group": "Insediamenti", "subgroup": "Centri", "subcategory": "Insediamento umano"}, "geometry": {"type": "Point", "coordinates": [13.07832, 43.71044]}}, {"type": "Feature", "properties": {"wikidata": "Q18496363", "name": "Case Nuove di Capodipiano", "status": "done", "osm_id": "node/3924070758", "group": "Insediamenti", "subgroup": "Centri", "subcategory": "Frazione"}, "geometry": {"type": "Point", "coordinates": [13.48489, 42.876]}}, {"type": "Feature", "properties": {"wikidata": "Q18496434", "name": "Collemoro", "status": "done", "osm_id": "node/452996760", "group": "Insediamenti", "subgroup": "Centri", "subcategory": "Frazione"}, "geometry": {"type": "Point", "coordinates": [13.46713, 42.85114]}}, {"type": "Feature", "properties": {"wikidata": "Q18496342", "name": "Carpineto", "status": "done", "osm_id": "node/452991262", "group": "Insediamenti", "subgroup": "Centri", "subcategory": "Frazione"}, "geometry": {"type": "Point", "coordinates": [13.59708, 42.82319]}}, {"type": "Feature", "properties": {"wikidata": "Q18496396", "name": "Centrale", "status": "missing", "osm_id": null, "group": "Insediamenti", "subgroup": "Centri", "subcategory": "Frazione"}, "geometry": {"type": "Point", "coordinates": [13.42883, 42.79137]}}, {"type": "Feature", "properties": {"wikidata": "Q18496307", "name": "Bernardella", "status": "done", "osm_id": "node/452994162", "group": "Insediamenti", "subgroup": "Centri", "subcategory": "Insediamento umano"}, "geometry": {"type": "Point", "coordinates": [13.58745, 42.93763]}}, {"type": "Feature", "properties": {"wikidata": "Q18496273", "name": "Villa San Paterniano", "status": "done", "osm_id": "node/1537666483", "group": "Insediamenti", "subgroup": "Centri", "subcategory": "Insediamento umano"}, "geometry": {"type": "Point", "coordinates": [13.41551, 43.49075]}}, {"type": "Feature", "properties": {"wikidata": "Q18496287", "name": "Abetito", "status": "done", "osm_id": "node/502905005", "group": "Insediamenti", "subgroup": "Centri", "subcategory": "Frazione"}, "geometry": {"type": "Point", "coordinates": [13.36782, 42.8479]}}, {"type": "Feature", "properties": {"wikidata": "Q18496406", "name": "Ciarpellesco", "status": "done", "osm_id": "node/452996757", "group": "Insediamenti", "subgroup": "Centri", "subcategory": "Frazione"}, "geometry": {"type": "Point", "coordinates": [13.46234, 42.87854]}}, {"type": "Feature", "properties": {"wikidata": "Q18496454", "name": "Cuccaro", "status": "done", "osm_id": "node/452996762", "group": "Insediamenti", "subgroup": "Centri", "subcategory": "Frazione"}, "geometry": {"type": "Point", "coordinates": [13.48158, 42.8473]}}, {"type": "Feature", "properties": {"wikidata": "Q18496311", "name": "Bisignano", "status": "done", "osm_id": "node/502905009", "group": "Insediamenti", "subgroup": "Centri", "subcategory": "Frazione"}, "geometry": {"type": "Point", "coordinates": [13.35096, 42.8469]}}, {"type": "Feature", "properties": {"wikidata": "Q18496344", "name": "Casa Circondariale", "status": "done", "osm_id": "way/356956419", "group": "Amministrazione", "subgroup": "Uffici Pubblici", "subcategory": "Carcere"}, "geometry": {"type": "Point", "coordinates": [13.64427, 42.84189]}}, {"type": "Feature", "properties": {"wikidata": "Q18496291", "name": "Agore", "status": "done", "osm_id": "node/502905006", "group": "Insediamenti", "subgroup": "Centri", "subcategory": "Frazione"}, "geometry": {"type": "Point", "coordinates": [13.37924, 42.81379]}}, {"type": "Feature", "properties": {"wikidata": "Q18496346", "name": "Casacagnano", "status": "done", "osm_id": "node/452996746", "group": "Insediamenti", "subgroup": "Centri", "subcategory": "Frazione"}, "geometry": {"type": "Point", "coordinates": [13.48757, 42.85387]}}, {"type": "Feature", "properties": {"wikidata": "Q18496269", "name": "Villa Musone", "status": "done", "osm_id": "node/364493269", "group": "Insediamenti", "subgroup": "Centri", "subcategory": "Frazione"}, "geometry": {"type": "Point", "coordinates": [13.60312, 43.44624]}}, {"type": "Feature", "properties": {"wikidata": "Q18496271", "name": "Villa Romana", "status": "done", "osm_id": "node/1207975092", "group": "Insediamenti", "subgroup": "Centri", "subcategory": "Insediamento umano"}, "geometry": {"type": "Point", "coordinates": [13.53571, 43.59232]}}, {"type": "Feature", "properties": {"wikidata": "Q18496279", "name": "Ville", "status": "done", "osm_id": "node/3922885904", "group": "Insediamenti", "subgroup": "Centri", "subcategory": "Frazione"}, "geometry": {"type": "Point", "coordinates": [13.07157, 43.65541]}}, {"type": "Feature", "properties": {"wikidata": "Q18496427", "name": "Collefalciano", "status": "done", "osm_id": "node/502905325", "group": "Insediamenti", "subgroup": "Centri", "subcategory": "Frazione"}, "geometry": {"type": "Point", "coordinates": [13.41453, 42.799]}}, {"type": "Feature", "properties": {"wikidata": "Q18496392", "name": "Castro", "status": "done", "osm_id": "node/502905011", "group": "Insediamenti", "subgroup": "Centri", "subcategory": "Frazione"}, "geometry": {"type": "Point", "coordinates": [13.3271, 42.84665]}}, {"type": "Feature", "properties": {"wikidata": "Q18496318", "name": "Cabbiano", "status": "done", "osm_id": "node/452992200", "group": "Insediamenti", "subgroup": "Centri", "subcategory": "Frazione"}, "geometry": {"type": "Point", "coordinates": [13.70544, 42.87804]}}, {"type": "Feature", "properties": {"wikidata": "Q18496439", "name": "Collicello-Corbara", "status": "missing", "osm_id": null, "group": "Insediamenti", "subgroup": "Centri", "subcategory": "Frazione"}, "geometry": {"type": "Point", "coordinates": [13.35027, 42.84347]}}, {"type": "Feature", "properties": {"wikidata": "Q18496277", "name": "Ville Sasso", "status": "done", "osm_id": "node/1207949075", "group": "Insediamenti", "subgroup": "Centri", "subcategory": "Insediamento umano"}, "geometry": {"type": "Point", "coordinates": [13.06711, 43.44982]}}, {"type": "Feature", "properties": {"wikidata": "Q18496386", "name": "Castellano", "status": "done", "osm_id": "node/452996754", "group": "Insediamenti", "subgroup": "Centri", "subcategory": "Frazione"}, "geometry": {"type": "Point", "coordinates": [13.5159, 42.88209]}}, {"type": "Feature", "properties": {"wikidata": "Q18496404", "name": "Cese", "status": "missing", "osm_id": null, "group": "Insediamenti", "subgroup": "Centri", "subcategory": "Frazione"}, "geometry": {"type": "Point", "coordinates": [13.33061, 42.91331]}}, {"type": "Feature", "properties": {"wikidata": "Q18496417", "name": "Colle Monte Varmine", "status": "done", "osm_id": "node/1268710251", "group": "Insediamenti", "subgroup": "Centri", "subcategory": "Insediamento umano"}, "geometry": {"type": "Point", "coordinates": [13.65616, 43.0272]}}, {"type": "Feature", "properties": {"wikidata": "Q18496382", "name": "Castel San Pietro", "status": "done", "osm_id": "node/452994168", "group": "Insediamenti", "subgroup": "Centri", "subcategory": "Frazione"}, "geometry": {"type": "Point", "coordinates": [13.46383, 42.91983]}}, {"type": "Feature", "properties": {"wikidata": "Q18496446", "name": "Corneto", "status": "done", "osm_id": "node/452996759", "group": "Insediamenti", "subgroup": "Centri", "subcategory": "Frazione"}, "geometry": {"type": "Point", "coordinates": [13.43633, 42.79345]}}, {"type": "Feature", "properties": {"wikidata": "Q18496281", "name": "zona industriale Serralta", "status": "done", "osm_id": "node/1207949253", "group": "Altro", "subgroup": "Altro", "subcategory": "Altro"}, "geometry": {"type": "Point", "coordinates": [13.02603, 43.43732]}}, {"type": "Feature", "properties": {"wikidata": "Q18496299", "name": "Arola di Sotto", "status": "done", "osm_id": "node/502905321", "group": "Insediamenti", "subgroup": "Centri", "subcategory": "Insediamento umano"}, "geometry": {"type": "Point", "coordinates": [13.45796, 42.77233]}}, {"type": "Feature", "properties": {"wikidata": "Q18496365", "name": "Case Nuove di Castellano", "status": "done", "osm_id": "node/452991265", "group": "Insediamenti", "subgroup": "Centri", "subcategory": "Frazione"}, "geometry": {"type": "Point", "coordinates": [13.51211, 42.87457]}}, {"type": "Feature", "properties": {"wikidata": "Q18496490", "name": "Forcella", "status": "done", "osm_id": "node/452996764", "group": "Insediamenti", "subgroup": "Centri", "subcategory": "Frazione"}, "geometry": {"type": "Point", "coordinates": [13.42574, 42.80039]}}, {"type": "Feature", "properties": {"wikidata": "Q18496357", "name": "Casaregnano", "status": "done", "osm_id": "node/452996748", "group": "Insediamenti", "subgroup": "Centri", "subcategory": "Frazione"}, "geometry": {"type": "Point", "coordinates": [13.47778, 42.84379]}}, {"type": "Feature", "properties": {"wikidata": "Q18496450", "name": "Croce Nera", "status": "done", "osm_id": "node/452994171", "group": "Insediamenti", "subgroup": "Centri", "subcategory": "Insediamento umano"}, "geometry": {"type": "Point", "coordinates": [13.56665, 42.95985]}}, {"type": "Feature", "properties": {"wikidata": "Q18496409", "name": "Cimula", "status": "done", "osm_id": "node/3922915031", "group": "Insediamenti", "subgroup": "Centri", "subcategory": "Insediamento umano"}, "geometry": {"type": "Point", "coordinates": [13.7789, 43.07446]}}, {"type": "Feature", "properties": {"wikidata": "Q18496301", "name": "Arola", "status": "done", "osm_id": "node/502905319", "group": "Insediamenti", "subgroup": "Centri", "subcategory": "Frazione"}, "geometry": {"type": "Point", "coordinates": [13.45443, 42.77063]}}, {"type": "Feature", "properties": {"wikidata": "Q18496361", "name": "Case Fioravanti", "status": "done", "osm_id": "node/452993154", "group": "Insediamenti", "subgroup": "Centri", "subcategory": "Insediamento umano"}, "geometry": {"type": "Point", "coordinates": [13.64148, 42.93207]}}, {"type": "Feature", "properties": {"wikidata": "Q18496328", "name": "Capo Il Colle", "status": "done", "osm_id": "node/452996745", "group": "Insediamenti", "subgroup": "Centri", "subcategory": "Frazione"}, "geometry": {"type": "Point", "coordinates": [13.47699, 42.84073]}}, {"type": "Feature", "properties": {"wikidata": "Q18496309", "name": "Biondi", "status": "done", "osm_id": "node/1268710369", "group": "Insediamenti", "subgroup": "Centri", "subcategory": "Insediamento umano"}, "geometry": {"type": "Point", "coordinates": [13.70147, 43.03841]}}, {"type": "Feature", "properties": {"wikidata": "Q18496441", "name": "Colonna", "status": "done", "osm_id": "node/502906081", "group": "Insediamenti", "subgroup": "Centri", "subcategory": "Frazione"}, "geometry": {"type": "Point", "coordinates": [13.49626, 42.78828]}}, {"type": "Feature", "properties": {"wikidata": "Q18496452", "name": "Croce Rossa", "status": "done", "osm_id": "node/452994172", "group": "Insediamenti", "subgroup": "Centri", "subcategory": "Frazione"}, "geometry": {"type": "Point", "coordinates": [13.56312, 42.97419]}}, {"type": "Feature", "properties": {"wikidata": "Q18496283", "name": "zona industriale di Ancona", "status": "done", "osm_id": "node/3922860136", "group": "Altro", "subgroup": "Altro", "subcategory": "Altro"}, "geometry": {"type": "Point", "coordinates": [13.18129, 43.48436]}}, {"type": "Feature", "properties": {"wikidata": "Q18496275", "name": "Villaggio Taunus", "status": "done", "osm_id": "node/836233924", "group": "Insediamenti", "subgroup": "Centri", "subcategory": "Insediamento umano"}, "geometry": {"type": "Point", "coordinates": [13.61063, 43.50148]}}, {"type": "Feature", "properties": {"wikidata": "Q18496324", "name": "Camartina", "status": "missing", "osm_id": null, "group": "Insediamenti", "subgroup": "Centri", "subcategory": "Frazione"}, "geometry": {"type": "Point", "coordinates": [13.28914, 42.77665]}}, {"type": "Feature", "properties": {"wikidata": "Q18496467", "name": "Favalanciata", "status": "done", "osm_id": "node/502905333", "group": "Insediamenti", "subgroup": "Centri", "subcategory": "Frazione"}, "geometry": {"type": "Point", "coordinates": [13.36804, 42.76334]}}, {"type": "Feature", "properties": {"wikidata": "Q18496265", "name": "Viacce", "status": "done", "osm_id": "node/1207949128", "group": "Insediamenti", "subgroup": "Centri", "subcategory": "Insediamento umano"}, "geometry": {"type": "Point", "coordinates": [12.7973, 43.36539]}}, {"type": "Feature", "properties": {"wikidata": "Q18496465", "name": "Farno", "status": "done", "osm_id": "node/1263508916", "group": "Insediamenti", "subgroup": "Centri", "subcategory": "Frazione"}, "geometry": {"type": "Point", "coordinates": [13.4616, 42.73646]}}, {"type": "Feature", "properties": {"wikidata": "Q18496476", "name": "Foce", "status": "done", "osm_id": "node/769874552", "group": "Insediamenti", "subgroup": "Centri", "subcategory": "Frazione"}, "geometry": {"type": "Point", "coordinates": [13.26983, 42.87604]}}, {"type": "Feature", "properties": {"wikidata": "Q18496355", "name": "Casamaruccia", "status": "done", "osm_id": "node/452996747", "group": "Insediamenti", "subgroup": "Centri", "subcategory": "Insediamento umano"}, "geometry": {"type": "Point", "coordinates": [13.49392, 42.87522]}}, {"type": "Feature", "properties": {"wikidata": "Q18496413", "name": "Colle Guardia", "status": "done", "osm_id": "node/3922913210", "group": "Insediamenti", "subgroup": "Centri", "subcategory": "Insediamento umano"}, "geometry": {"type": "Point", "coordinates": [13.79782, 42.96673]}}, {"type": "Feature", "properties": {"wikidata": "Q18496436", "name": "Colleregnone", "status": "done", "osm_id": "node/2384136523", "group": "Insediamenti", "subgroup": "Centri", "subcategory": "Frazione"}, "geometry": {"type": "Point", "coordinates": [13.31846, 42.91476]}}, {"type": "Feature", "properties": {"wikidata": "Q18496426", "name": "Collecchio", "status": "done", "osm_id": "node/452993161", "group": "Insediamenti", "subgroup": "Centri", "subcategory": "Insediamento umano"}, "geometry": {"type": "Point", "coordinates": [13.70402, 42.92019]}}, {"type": "Feature", "properties": {"wikidata": "Q18496315", "name": "Borgo Miriam", "status": "done", "osm_id": "node/276402274", "group": "Insediamenti", "subgroup": "Centri", "subcategory": "Frazione"}, "geometry": {"type": "Point", "coordinates": [13.72388, 42.94594]}}, {"type": "Feature", "properties": {"wikidata": "Q18496352", "name": "Casalena", "status": "done", "osm_id": "node/452994165", "group": "Insediamenti", "subgroup": "Centri", "subcategory": "Frazione"}, "geometry": {"type": "Point", "coordinates": [13.52119, 42.90508]}}, {"type": "Feature", "properties": {"wikidata": "Q18496380", "name": "Castel Folignano", "status": "done", "osm_id": "node/253738235", "group": "Insediamenti", "subgroup": "Centri", "subcategory": "Frazione"}, "geometry": {"type": "Point", "coordinates": [13.63918, 42.81681]}}, {"type": "Feature", "properties": {"wikidata": "Q18496457", "name": "Del Parco", "status": "done", "osm_id": "node/452992207", "group": "Insediamenti", "subgroup": "Centri", "subcategory": "Insediamento umano"}, "geometry": {"type": "Point", "coordinates": [13.77829, 42.88726]}}, {"type": "Feature", "properties": {"wikidata": "Q18496313", "name": "Bonifica", "status": "done", "osm_id": "node/3923934348", "group": "Insediamenti", "subgroup": "Centri", "subcategory": "Insediamento umano"}, "geometry": {"type": "Point", "coordinates": [13.67589, 42.84597]}}, {"type": "Feature", "properties": {"wikidata": "Q18496293", "name": "Aletta", "status": "done", "osm_id": "node/3816365521", "group": "Insediamenti", "subgroup": "Centri", "subcategory": "Frazione"}, "geometry": {"type": "Point", "coordinates": [13.45183, 42.88669]}}, {"type": "Feature", "properties": {"wikidata": "Q18496468", "name": "Ferr\u00e0", "status": "done", "osm_id": "node/3924279764", "group": "Insediamenti", "subgroup": "Centri", "subcategory": "Frazione"}, "geometry": {"type": "Point", "coordinates": [13.34733, 42.90944]}}, {"type": "Feature", "properties": {"wikidata": "Q18496430", "name": "Colleiano-Roccareonile", "status": "done", "osm_id": "node/452996758", "group": "Insediamenti", "subgroup": "Centri", "subcategory": "Frazione"}, "geometry": {"type": "Point", "coordinates": [13.4581, 42.83529]}}, {"type": "Feature", "properties": {"wikidata": "Q18496297", "name": "Arli", "status": "done", "osm_id": "node/452996743", "group": "Insediamenti", "subgroup": "Centri", "subcategory": "Frazione"}, "geometry": {"type": "Point", "coordinates": [13.45175, 42.79971]}}, {"type": "Feature", "properties": {"wikidata": "Q18496444", "name": "Conca degli Ulivi", "status": "done", "osm_id": "node/452995553", "group": "Insediamenti", "subgroup": "Centri", "subcategory": "Insediamento umano"}, "geometry": {"type": "Point", "coordinates": [13.84312, 42.9395]}}, {"type": "Feature", "properties": {"wikidata": "Q18496483", "name": "Fonte Arrigo", "status": "done", "osm_id": "node/1268710265", "group": "Insediamenti", "subgroup": "Centri", "subcategory": "Insediamento umano"}, "geometry": {"type": "Point", "coordinates": [13.6094, 42.99531]}}, {"type": "Feature", "properties": {"wikidata": "Q18496461", "name": "Faiano", "status": "done", "osm_id": "node/452991275", "group": "Insediamenti", "subgroup": "Centri", "subcategory": "Frazione"}, "geometry": {"type": "Point", "coordinates": [13.56366, 42.86937]}}, {"type": "Feature", "properties": {"wikidata": "Q18496295", "name": "Ariconi", "status": "done", "osm_id": "node/769874581", "group": "Insediamenti", "subgroup": "Centri", "subcategory": "Frazione"}, "geometry": {"type": "Point", "coordinates": [13.36965, 42.89112]}}, {"type": "Feature", "properties": {"wikidata": "Q18496414", "name": "Colle in Su", "status": "done", "osm_id": "node/452995551", "group": "Insediamenti", "subgroup": "Centri", "subcategory": "Insediamento umano"}, "geometry": {"type": "Point", "coordinates": [13.83779, 42.94922]}}, {"type": "Feature", "properties": {"wikidata": "Q18496373", "name": "Caserine", "status": "done", "osm_id": "node/452996752", "group": "Insediamenti", "subgroup": "Centri", "subcategory": "Frazione"}, "geometry": {"type": "Point", "coordinates": [13.47798, 42.854]}}, {"type": "Feature", "properties": {"wikidata": "Q18496388", "name": "Castello", "status": "done", "osm_id": "node/452996755", "group": "Insediamenti", "subgroup": "Centri", "subcategory": "Insediamento umano"}, "geometry": {"type": "Point", "coordinates": [13.49273, 42.87768]}}, {"type": "Feature", "properties": {"wikidata": "Q18496368", "name": "Case Orazio", "status": "done", "osm_id": "node/452993156", "group": "Insediamenti", "subgroup": "Centri", "subcategory": "Insediamento umano"}, "geometry": {"type": "Point", "coordinates": [13.63945, 42.93595]}}, {"type": "Feature", "properties": {"wikidata": "Q18496424", "name": "Colle", "status": "done", "osm_id": "node/452991270", "group": "Insediamenti", "subgroup": "Centri", "subcategory": "Frazione"}, "geometry": {"type": "Point", "coordinates": [13.60034, 42.82014]}}, {"type": "Feature", "properties": {"wikidata": "Q18496320", "name": "Cabiano", "status": "done", "osm_id": "node/3922913209", "group": "Insediamenti", "subgroup": "Centri", "subcategory": "Insediamento umano"}, "geometry": {"type": "Point", "coordinates": [13.77982, 42.97744]}}, {"type": "Feature", "properties": {"wikidata": "Q18496322", "name": "Calvarese", "status": "done", "osm_id": "node/3924279759", "group": "Insediamenti", "subgroup": "Centri", "subcategory": "Frazione"}, "geometry": {"type": "Point", "coordinates": [13.41015, 42.91147]}}, {"type": "Feature", "properties": {"wikidata": "Q18496348", "name": "Casale Nuovo", "status": "done", "osm_id": "node/502905010", "group": "Insediamenti", "subgroup": "Centri", "subcategory": "Frazione"}, "geometry": {"type": "Point", "coordinates": [13.30733, 42.84554]}}, {"type": "Feature", "properties": {"wikidata": "Q18496449", "name": "Croce di Casale", "status": "done", "osm_id": "node/3924279763", "group": "Insediamenti", "subgroup": "Centri", "subcategory": "Frazione"}, "geometry": {"type": "Point", "coordinates": [13.42298, 42.90991]}}, {"type": "Feature", "properties": {"wikidata": "Q18496411", "name": "Colle di Funti", "status": "done", "osm_id": "node/452991271", "group": "Insediamenti", "subgroup": "Centri", "subcategory": "Insediamento umano"}, "geometry": {"type": "Point", "coordinates": [13.51104, 42.80763]}}, {"type": "Feature", "properties": {"wikidata": "Q18496398", "name": "Cepparano", "status": "done", "osm_id": "node/452991267", "group": "Insediamenti", "subgroup": "Centri", "subcategory": "Frazione"}, "geometry": {"type": "Point", "coordinates": [13.50445, 42.88187]}}, {"type": "Feature", "properties": {"wikidata": "Q18496353", "name": "Casali", "status": "done", "osm_id": "node/452994166", "group": "Insediamenti", "subgroup": "Centri", "subcategory": "Insediamento umano"}, "geometry": {"type": "Point", "coordinates": [13.46855, 42.96563]}}, {"type": "Feature", "properties": {"wikidata": "Q18496479", "name": "Fonditore", "status": "done", "osm_id": "node/502905014", "group": "Insediamenti", "subgroup": "Centri", "subcategory": "Frazione"}, "geometry": {"type": "Point", "coordinates": [13.33623, 42.8259]}}, {"type": "Feature", "properties": {"wikidata": "Q18496370", "name": "Casebianche", "status": "done", "osm_id": "node/452996749", "group": "Insediamenti", "subgroup": "Centri", "subcategory": "Frazione"}, "geometry": {"type": "Point", "coordinates": [13.48077, 42.83269]}}, {"type": "Feature", "properties": {"wikidata": "Q18496350", "name": "Casale", "status": "done", "osm_id": "node/452994164", "group": "Insediamenti", "subgroup": "Centri", "subcategory": "Frazione"}, "geometry": {"type": "Point", "coordinates": [13.43414, 42.8977]}}, {"type": "Feature", "properties": {"wikidata": "Q18496471", "name": "Fiobbo", "status": "done", "osm_id": "node/452995555", "group": "Insediamenti", "subgroup": "Centri", "subcategory": "Insediamento umano"}, "geometry": {"type": "Point", "coordinates": [13.80427, 42.87489]}}, {"type": "Feature", "properties": {"wikidata": "Q18496421", "name": "Colle Taffone", "status": "done", "osm_id": "node/452993162", "group": "Insediamenti", "subgroup": "Centri", "subcategory": "Insediamento umano"}, "geometry": {"type": "Point", "coordinates": [13.6982, 42.94595]}}, {"type": "Feature", "properties": {"wikidata": "Q18496306", "name": "Balzo", "status": "done", "osm_id": "node/502905008", "group": "Insediamenti", "subgroup": "Centri", "subcategory": "Frazione"}, "geometry": {"type": "Point", "coordinates": [13.33234, 42.84199]}}, {"type": "Feature", "properties": {"wikidata": "Q18496340", "name": "Car-Conziap", "status": "missing", "osm_id": null, "group": "Insediamenti", "subgroup": "Centri", "subcategory": "Insediamento umano"}, "geometry": {"type": "Point", "coordinates": [13.84319, 42.95407]}}, {"type": "Feature", "properties": {"wikidata": "Q18496481", "name": "Fontanelle", "status": "done", "osm_id": "node/452995556", "group": "Insediamenti", "subgroup": "Centri", "subcategory": "Insediamento umano"}, "geometry": {"type": "Point", "coordinates": [13.78692, 42.89575]}}, {"type": "Feature", "properties": {"wikidata": "Q18496463", "name": "Falciano", "status": "done", "osm_id": "node/6001570885", "group": "Insediamenti", "subgroup": "Centri", "subcategory": "Frazione"}, "geometry": {"type": "Point", "coordinates": [13.41373, 42.80292]}}, {"type": "Feature", "properties": {"wikidata": "Q18496334", "name": "Capponi", "status": "done", "osm_id": "node/452993152", "group": "Insediamenti", "subgroup": "Centri", "subcategory": "Insediamento umano"}, "geometry": {"type": "Point", "coordinates": [13.62615, 42.98432]}}, {"type": "Feature", "properties": {"wikidata": "Q18496359", "name": "Case Angelini", "status": "done", "osm_id": "node/452993153", "group": "Insediamenti", "subgroup": "Centri", "subcategory": "Insediamento umano"}, "geometry": {"type": "Point", "coordinates": [13.65082, 42.93576]}}, {"type": "Feature", "properties": {"wikidata": "Q18496473", "name": "Fleno", "status": "done", "osm_id": "node/1263508928", "group": "Insediamenti", "subgroup": "Centri", "subcategory": "Frazione"}, "geometry": {"type": "Point", "coordinates": [13.46904, 42.74309]}}, {"type": "Feature", "properties": {"wikidata": "Q18496332", "name": "Capodirigo", "status": "done", "osm_id": "node/502905322", "group": "Insediamenti", "subgroup": "Centri", "subcategory": "Frazione"}, "geometry": {"type": "Point", "coordinates": [13.34569, 42.77701]}}, {"type": "Feature", "properties": {"wikidata": "Q3982105", "name": "Teatro Paolo Ferrari", "status": "done", "osm_id": "node/3034756816", "group": "Cultura e tempo libero", "subgroup": "Spettacolo", "subcategory": "Teatro"}, "geometry": {"type": "Point", "coordinates": [13.20621, 43.57635]}}, {"type": "Feature", "properties": {"wikidata": "Q4011969", "name": "Villa Eugenia", "status": "done", "osm_id": "way/783229532", "group": "Dimore ed edifici", "subgroup": "Residenze", "subcategory": "Villa"}, "geometry": {"type": "Point", "coordinates": [13.7105, 43.30618]}}, {"type": "Feature", "properties": {"wikidata": "Q3982199", "name": "Teatro Vincenzo Pagani", "status": "done", "osm_id": "node/11195468238", "group": "Cultura e tempo libero", "subgroup": "Spettacolo", "subcategory": "Teatro"}, "geometry": {"type": "Point", "coordinates": [13.717039, 43.085779]}}, {"type": "Feature", "properties": {"wikidata": "Q7126982", "name": "Palazzo Castiglioni", "status": "missing", "osm_id": null, "group": "Cultura e tempo libero", "subgroup": "Musei", "subcategory": "Casa museo"}, "geometry": {"type": "Point", "coordinates": [13.214657, 43.376774]}}, {"type": "Feature", "properties": {"wikidata": "Q7884974", "name": "parco archeologico di Suasa", "status": "missing", "osm_id": null, "group": "Archeologia", "subgroup": "Siti", "subcategory": "Sito archeologico"}, "geometry": {"type": "Point", "coordinates": [12.984074844, 43.624484274]}}, {"type": "Feature", "properties": {"wikidata": "Q4012343", "name": "Villa Murri", "status": "done", "osm_id": "way/1079759099", "group": "Dimore ed edifici", "subgroup": "Residenze", "subcategory": "Villa"}, "geometry": {"type": "Point", "coordinates": [13.756578, 43.259247]}}, {"type": "Feature", "properties": {"wikidata": "Q4012980", "name": "Villino Ruggeri", "status": "done", "osm_id": "way/181220150", "group": "Dimore ed edifici", "subgroup": "Residenze", "subcategory": "Villa"}, "geometry": {"type": "Point", "coordinates": [12.9178557, 43.9141173]}}, {"type": "Feature", "properties": {"wikidata": "Q11746273", "name": "chiesa di Santa Croce", "status": "done", "osm_id": "way/228827649", "group": "Religione", "subgroup": "Luoghi di Culto", "subcategory": "Chiesa"}, "geometry": {"type": "Point", "coordinates": [13.43596, 43.29908]}}, {"type": "Feature", "properties": {"wikidata": "Q11745778", "name": "chiesa di Santa Maria della Porta", "status": "done", "osm_id": "way/43969944", "group": "Religione", "subgroup": "Luoghi di Culto", "subcategory": "Chiesa"}, "geometry": {"type": "Point", "coordinates": [13.45378, 43.2994]}}, {"type": "Feature", "properties": {"wikidata": "Q3995339", "name": "Torre degli Ercolani", "status": "done", "osm_id": "way/428514884", "group": "Fortificazioni e militare", "subgroup": "Fortificazioni", "subcategory": "Torre"}, "geometry": {"type": "Point", "coordinates": [13.571917, 42.857488]}}, {"type": "Feature", "properties": {"wikidata": "Q4006590", "name": "Uscerno", "status": "done", "osm_id": "node/288231432", "group": "Insediamenti", "subgroup": "Centri", "subcategory": "Frazione"}, "geometry": {"type": "Point", "coordinates": [13.38225, 42.86106]}}, {"type": "Feature", "properties": {"wikidata": "Q4231241", "name": "Conservatorio Gioachino Rossini", "status": "done", "osm_id": "node/5369058595", "group": "Amministrazione", "subgroup": "Istruzione", "subcategory": "Conservatorio"}, "geometry": {"type": "Point", "coordinates": [12.91018, 43.90941]}}, {"type": "Feature", "properties": {"wikidata": "Q6723253", "name": "Macerata opera festival", "status": "missing", "osm_id": null, "group": "Altro", "subgroup": "Altro", "subcategory": "Altro"}, "geometry": {"type": "Point", "coordinates": [13.45625, 43.299305555]}}, {"type": "Feature", "properties": {"wikidata": "Q3982316", "name": "Teatro delle Logge", "status": "done", "osm_id": "node/2324780881", "group": "Cultura e tempo libero", "subgroup": "Spettacolo", "subcategory": "Teatro"}, "geometry": {"type": "Point", "coordinates": [13.635730686, 43.31649133]}}, {"type": "Feature", "properties": {"wikidata": "Q7105064", "name": "Orto botanico dell'Universit\u00e0 di Camerino", "status": "done", "osm_id": "way/336038590", "group": "Natura e paesaggio", "subgroup": "Verde", "subcategory": "Orto botanico"}, "geometry": {"type": "Point", "coordinates": [13.06934, 43.13538]}}, {"type": "Feature", "properties": {"wikidata": "Q4007458", "name": "Val di Bove", "status": "missing", "osm_id": null, "group": "Natura e paesaggio", "subgroup": "Montagna", "subcategory": "Valle"}, "geometry": {"type": "Point", "coordinates": [13.1866, 42.92645]}}, {"type": "Feature", "properties": {"wikidata": "Q3982140", "name": "Teatro Serpente Aureo", "status": "done", "osm_id": "node/672506551", "group": "Altro", "subgroup": "Altro", "subcategory": "Altro"}, "geometry": {"type": "Point", "coordinates": [13.691134, 42.935067]}}, {"type": "Feature", "properties": {"wikidata": "Q7452248", "name": "Septempeda", "status": "missing", "osm_id": null, "group": "Archeologia", "subgroup": "Siti", "subcategory": "Sito archeologico"}, "geometry": {"type": "Point", "coordinates": [13.19611, 43.23592]}}, {"type": "Feature", "properties": {"wikidata": "Q11746901", "name": "chiesa di San Giorgio Martire", "status": "done", "osm_id": "way/44005442", "group": "Religione", "subgroup": "Luoghi di Culto", "subcategory": "Chiesa"}, "geometry": {"type": "Point", "coordinates": [13.45037, 43.30102]}}, {"type": "Feature", "properties": {"wikidata": "Q3982227", "name": "Teatro comunale", "status": "done", "osm_id": "way/873275561", "group": "Cultura e tempo libero", "subgroup": "Spettacolo", "subcategory": "Teatro"}, "geometry": {"type": "Point", "coordinates": [13.792276, 43.17996]}}, {"type": "Feature", "properties": {"wikidata": "Q9333632", "name": "chiesa di Santa Maria della Misericordia", "status": "done", "osm_id": "way/689617822", "group": "Religione", "subgroup": "Luoghi di Culto", "subcategory": "Chiesa"}, "geometry": {"type": "Point", "coordinates": [13.45621, 43.301]}}, {"type": "Feature", "properties": {"wikidata": "Q4012132", "name": "Villa Imperiale", "status": "done", "osm_id": "way/140185300", "group": "Cultura e tempo libero", "subgroup": "Musei", "subcategory": "Museo d'arte"}, "geometry": {"type": "Point", "coordinates": [12.87966111, 43.92098889]}}, {"type": "Feature", "properties": {"wikidata": "Q3982063", "name": "Teatro Misa", "status": "done", "osm_id": "node/3099009498", "group": "Altro", "subgroup": "Altro", "subcategory": "Altro"}, "geometry": {"type": "Point", "coordinates": [12.941572222, 43.5003]}}, {"type": "Feature", "properties": {"wikidata": "Q4945075", "name": "Villa Seghetti-Panichi", "status": "done", "osm_id": "way/617895250", "group": "Dimore ed edifici", "subgroup": "Residenze", "subcategory": "Villa"}, "geometry": {"type": "Point", "coordinates": [13.72, 42.866944444]}}, {"type": "Feature", "properties": {"wikidata": "Q3982262", "name": "Teatro dei Filarmonici", "status": "done", "osm_id": "node/673025703", "group": "Cultura e tempo libero", "subgroup": "Spettacolo", "subcategory": "Teatro"}, "geometry": {"type": "Point", "coordinates": [13.5729, 42.8562]}}, {"type": "Feature", "properties": {"wikidata": "Q7105047", "name": "Orto botanico \"Pierina Scaramella\"", "status": "missing", "osm_id": null, "group": "Natura e paesaggio", "subgroup": "Verde", "subcategory": "Orto botanico"}, "geometry": {"type": "Point", "coordinates": [12.63666, 43.72746]}}, {"type": "Feature", "properties": {"wikidata": "Q4010859", "name": "via delle Stelle", "status": "done", "osm_id": "way/1422752863", "group": "Infrastrutture", "subgroup": "Trasporti", "subcategory": "Strada urbana"}, "geometry": {"type": "Point", "coordinates": [13.57133, 42.85778]}}, {"type": "Feature", "properties": {"wikidata": "Q4008219", "name": "Vallestretta", "status": "done", "osm_id": "node/815413463", "group": "Insediamenti", "subgroup": "Centri", "subcategory": "Frazione"}, "geometry": {"type": "Point", "coordinates": [13.139725, 42.958453]}}, {"type": "Feature", "properties": {"wikidata": "Q4012229", "name": "Villa Luciani", "status": "done", "osm_id": "node/3924311866", "group": "Insediamenti", "subgroup": "Centri", "subcategory": "Frazione"}, "geometry": {"type": "Point", "coordinates": [13.64941, 43.25818]}}, {"type": "Feature", "properties": {"wikidata": "Q3982366", "name": "teatro romano di Ascoli Piceno", "status": "done", "osm_id": "relation/1965490", "group": "Altro", "subgroup": "Altro", "subcategory": "Altro"}, "geometry": {"type": "Point", "coordinates": [13.56858056, 42.85366111]}}, {"type": "Feature", "properties": {"wikidata": "Q3982234", "name": "Teatro comunale Santa Maria del Mercato", "status": "missing", "osm_id": null, "group": "Cultura e tempo libero", "subgroup": "Spettacolo", "subcategory": "Teatro"}, "geometry": {"type": "Point", "coordinates": [13.013476347, 43.447719381]}}, {"type": "Feature", "properties": {"wikidata": "Q4784792", "name": "Arboretum Apenninicum", "status": "missing", "osm_id": null, "group": "Natura e paesaggio", "subgroup": "Verde", "subcategory": "Orto botanico"}, "geometry": {"type": "Point", "coordinates": [13.06383056, 43.13181944]}}, {"type": "Feature", "properties": {"wikidata": "Q5431785", "name": "Aviosuperficie di Falconara", "status": "missing", "osm_id": null, "group": "Infrastrutture", "subgroup": "Trasporti", "subcategory": "Aeroporto"}, "geometry": {"type": "Point", "coordinates": [13.3623, 43.6163]}}, {"type": "Feature", "properties": {"wikidata": "Q4011990", "name": "Villa Favorita", "status": "done", "osm_id": "way/44104009", "group": "Dimore ed edifici", "subgroup": "Residenze", "subcategory": "Villa"}, "geometry": {"type": "Point", "coordinates": [13.50861111, 43.56694444]}}, {"type": "Feature", "properties": {"wikidata": "Q3997245", "name": "traforo del Cornello", "status": "done", "osm_id": "way/123170438", "group": "Infrastrutture", "subgroup": "Trasporti", "subcategory": "Galleria"}, "geometry": {"type": "Point", "coordinates": [12.8518635, 43.1428865]}}, {"type": "Feature", "properties": {"wikidata": "Q3982187", "name": "Teatro Ventidio Basso", "status": "done", "osm_id": "way/193849573", "group": "Altro", "subgroup": "Altro", "subcategory": "Altro"}, "geometry": {"type": "Point", "coordinates": [13.574808, 42.855549]}}, {"type": "Feature", "properties": {"wikidata": "Q11922647", "name": "Forum Sempronii", "status": "missing", "osm_id": null, "group": "Archeologia", "subgroup": "Siti", "subcategory": "Sito archeologico"}, "geometry": {"type": "Point", "coordinates": [12.874596, 43.725853]}}, {"type": "Feature", "properties": {"wikidata": "Q4011709", "name": "Vilano", "status": "done", "osm_id": "node/2078097344", "group": "Insediamenti", "subgroup": "Centri", "subcategory": "Frazione"}, "geometry": {"type": "Point", "coordinates": [12.568528, 43.490008]}}, {"type": "Feature", "properties": {"wikidata": "Q3982138", "name": "Teatro Raffaello Sanzio", "status": "done", "osm_id": "relation/1794219", "group": "Cultura e tempo libero", "subgroup": "Spettacolo", "subcategory": "Teatro"}, "geometry": {"type": "Point", "coordinates": [12.635452, 43.724266]}}, {"type": "Feature", "properties": {"wikidata": "Q4012519", "name": "Villa Sant'Antonio", "status": "done", "osm_id": "node/452992228", "group": "Insediamenti", "subgroup": "Centri", "subcategory": "Frazione"}, "geometry": {"type": "Point", "coordinates": [13.710833333, 42.86]}}, {"type": "Feature", "properties": {"wikidata": "Q3982354", "name": "Teatro la nuova Fenice", "status": "done", "osm_id": "way/593357255", "group": "Cultura e tempo libero", "subgroup": "Spettacolo", "subcategory": "Teatro"}, "geometry": {"type": "Point", "coordinates": [13.48436, 43.48565]}}, {"type": "Feature", "properties": {"wikidata": "Q3993699", "name": "Torchiaro", "status": "done", "osm_id": "node/1973964885", "group": "Insediamenti", "subgroup": "Centri", "subcategory": "Frazione"}, "geometry": {"type": "Point", "coordinates": [13.6701, 43.1016]}}, {"type": "Feature", "properties": {"wikidata": "Q4007543", "name": "Valcimarra", "status": "done", "osm_id": "node/1421270368", "group": "Insediamenti", "subgroup": "Centri", "subcategory": "Frazione"}, "geometry": {"type": "Point", "coordinates": [13.1691929, 43.1384612]}}, {"type": "Feature", "properties": {"wikidata": "Q3982037", "name": "Teatro Luigi Mercantini", "status": "done", "osm_id": "node/3441576185", "group": "Cultura e tempo libero", "subgroup": "Spettacolo", "subcategory": "Teatro"}, "geometry": {"type": "Point", "coordinates": [13.762326, 43.000488]}}, {"type": "Feature", "properties": {"wikidata": "Q3982218", "name": "Teatro comunale", "status": "done", "osm_id": "node/3887709037", "group": "Cultura e tempo libero", "subgroup": "Spettacolo", "subcategory": "Teatro"}, "geometry": {"type": "Point", "coordinates": [12.64741615, 43.54558095]}}, {"type": "Feature", "properties": {"wikidata": "Q9185049", "name": "Q9185049", "status": "missing", "osm_id": null, "group": "Altro", "subgroup": "Altro", "subcategory": "Altro"}, "geometry": {"type": "Point", "coordinates": [13.454, 43.2989]}}, {"type": "Feature", "properties": {"wikidata": "Q5118072", "name": "Monte Rotondo", "status": "done", "osm_id": "node/823659864", "group": "Natura e paesaggio", "subgroup": "Montagna", "subcategory": "Montagna"}, "geometry": {"type": "Point", "coordinates": [13.20277778, 42.98166667]}}, {"type": "Feature", "properties": {"wikidata": "Q4009460", "name": "Venamartello", "status": "done", "osm_id": "node/502905347", "group": "Insediamenti", "subgroup": "Centri", "subcategory": "Frazione"}, "geometry": {"type": "Point", "coordinates": [13.41469, 42.78915]}}, {"type": "Feature", "properties": {"wikidata": "Q4562690", "name": "Terremoto di Senigallia del 1930", "status": "missing", "osm_id": null, "group": "Altro", "subgroup": "Altro", "subcategory": "Altro"}, "geometry": {"type": "Point", "coordinates": [13.267, 43.667]}}, {"type": "Feature", "properties": {"wikidata": "Q3982374", "name": "Teatro sperimentale Lirio Arena", "status": "done", "osm_id": "node/1574996761", "group": "Cultura e tempo libero", "subgroup": "Spettacolo", "subcategory": "Teatro"}, "geometry": {"type": "Point", "coordinates": [13.515176735, 43.613613253]}}, {"type": "Feature", "properties": {"wikidata": "Q3982072", "name": "Teatro Nicola Vaccaj", "status": "done", "osm_id": "node/4941140492", "group": "Cultura e tempo libero", "subgroup": "Spettacolo", "subcategory": "Teatro"}, "geometry": {"type": "Point", "coordinates": [13.285694444, 43.208694444]}}, {"type": "Feature", "properties": {"wikidata": "Q3982205", "name": "Teatro Vittorio Alfieri", "status": "done", "osm_id": "way/503863480", "group": "Cultura e tempo libero", "subgroup": "Spettacolo", "subcategory": "Teatro"}, "geometry": {"type": "Point", "coordinates": [13.31124, 43.63977]}}, {"type": "Feature", "properties": {"wikidata": "Q7105057", "name": "orto botanico Selva di Gallignano", "status": "done", "osm_id": "way/1198559387", "group": "Natura e paesaggio", "subgroup": "Verde", "subcategory": "Orto botanico"}, "geometry": {"type": "Point", "coordinates": [13.431174, 43.566247]}}, {"type": "Feature", "properties": {"wikidata": "Q3995587", "name": "Torre di Palme", "status": "done", "osm_id": "node/431336698", "group": "Insediamenti", "subgroup": "Centri", "subcategory": "Frazione"}, "geometry": {"type": "Point", "coordinates": [13.81095, 43.14155]}}, {"type": "Feature", "properties": {"wikidata": "Q7268392", "name": "Quadreria della Fondazione Cassa di Risparmio di Fano", "status": "missing", "osm_id": null, "group": "Cultura e tempo libero", "subgroup": "Musei", "subcategory": "Museo d'arte"}, "geometry": {"type": "Point", "coordinates": [13.0175, 43.844166666]}}, {"type": "Feature", "properties": {"wikidata": "Q4011902", "name": "Villa Compagnoni delle Lune", "status": "done", "osm_id": "way/294621339", "group": "Dimore ed edifici", "subgroup": "Residenze", "subcategory": "Villa"}, "geometry": {"type": "Point", "coordinates": [13.3963, 43.34246]}}, {"type": "Feature", "properties": {"wikidata": "Q4012614", "name": "Villa Valcerasa", "status": "missing", "osm_id": null, "group": "Dimore ed edifici", "subgroup": "Residenze", "subcategory": "Villa"}, "geometry": {"type": "Point", "coordinates": [13.31274, 43.28942]}}, {"type": "Feature", "properties": {"wikidata": "Q3982226", "name": "teatro comunale di Montecarotto", "status": "done", "osm_id": "way/299794284", "group": "Cultura e tempo libero", "subgroup": "Spettacolo", "subcategory": "Teatro"}, "geometry": {"type": "Point", "coordinates": [13.061128, 43.525435]}}, {"type": "Feature", "properties": {"wikidata": "Q5571026", "name": "Mappamondo della pace", "status": "done", "osm_id": "way/468123576", "group": "Altro", "subgroup": "Altro", "subcategory": "Altro"}, "geometry": {"type": "Point", "coordinates": [12.462778, 43.573333]}}, {"type": "Feature", "properties": {"wikidata": "Q3983169", "name": "tempietto di Sant'Emidio Rosso", "status": "done", "osm_id": "way/718027991", "group": "Religione", "subgroup": "Luoghi di Culto", "subcategory": "Chiesa"}, "geometry": {"type": "Point", "coordinates": [13.57036, 42.85987]}}, {"type": "Feature", "properties": {"wikidata": "Q4010415", "name": "Vestignano", "status": "done", "osm_id": "node/1240755064", "group": "Insediamenti", "subgroup": "Centri", "subcategory": "Frazione"}, "geometry": {"type": "Point", "coordinates": [13.20953, 43.11758]}}, {"type": "Feature", "properties": {"wikidata": "Q3982289", "name": "Teatro dell'Aquila", "status": "done", "osm_id": "node/5975822041", "group": "Cultura e tempo libero", "subgroup": "Musei", "subcategory": "Casa museo"}, "geometry": {"type": "Point", "coordinates": [13.71767, 43.1603824]}}, {"type": "Feature", "properties": {"wikidata": "Q3982219", "name": "Teatro comunale", "status": "done", "osm_id": "node/1407435917", "group": "Cultura e tempo libero", "subgroup": "Spettacolo", "subcategory": "Teatro"}, "geometry": {"type": "Point", "coordinates": [13.225303, 43.138275]}}, {"type": "Feature", "properties": {"wikidata": "Q5558582", "name": "Giardino Botanico, Istituto Tecnico Agrario Statale \"Celso Ulpiani", "status": "done", "osm_id": "way/54968378", "group": "Natura e paesaggio", "subgroup": "Verde", "subcategory": "Orto botanico"}, "geometry": {"type": "Point", "coordinates": [13.598093, 42.854218]}}, {"type": "Feature", "properties": {"wikidata": "Q4007411", "name": "Val Tenna", "status": "missing", "osm_id": null, "group": "Natura e paesaggio", "subgroup": "Montagna", "subcategory": "Valle"}, "geometry": {"type": "Point", "coordinates": [13.520902, 43.100461]}}, {"type": "Feature", "properties": {"wikidata": "Q3983168", "name": "tempietto di Sant'Emidio alle Grotte", "status": "done", "osm_id": "way/467654983", "group": "Religione", "subgroup": "Luoghi di Culto", "subcategory": "Chiesa"}, "geometry": {"type": "Point", "coordinates": [13.57704, 42.86143]}}, {"type": "Feature", "properties": {"wikidata": "Q4011823", "name": "Villa Buonaccorsi", "status": "done", "osm_id": "relation/3258278", "group": "Dimore ed edifici", "subgroup": "Residenze", "subcategory": "Villa"}, "geometry": {"type": "Point", "coordinates": [13.6691, 43.3568]}}, {"type": "Feature", "properties": {"wikidata": "Q18495851", "name": "La Posta", "status": "done", "osm_id": "node/1207948719", "group": "Insediamenti", "subgroup": "Centri", "subcategory": "Insediamento umano"}, "geometry": {"type": "Point", "coordinates": [12.84887, 43.34604]}}, {"type": "Feature", "properties": {"wikidata": "Q18495910", "name": "Mazzangrugno", "status": "done", "osm_id": "node/445140399", "group": "Insediamenti", "subgroup": "Centri", "subcategory": "Frazione"}, "geometry": {"type": "Point", "coordinates": [13.31778, 43.52989]}}, {"type": "Feature", "properties": {"wikidata": "Q18495853", "name": "Laghi", "status": "done", "osm_id": "node/1537666298", "group": "Insediamenti", "subgroup": "Centri", "subcategory": "Insediamento umano"}, "geometry": {"type": "Point", "coordinates": [13.56539, 43.44797]}}, {"type": "Feature", "properties": {"wikidata": "Q18495904", "name": "Marinuccia", "status": "done", "osm_id": "node/1537666355", "group": "Insediamenti", "subgroup": "Centri", "subcategory": "Insediamento umano"}, "geometry": {"type": "Point", "coordinates": [13.37106, 43.46161]}}, {"type": "Feature", "properties": {"wikidata": "Q18495837", "name": "Industriale Artigianale", "status": "missing", "osm_id": null, "group": "Altro", "subgroup": "Altro", "subcategory": "Altro"}, "geometry": {"type": "Point", "coordinates": [13.6051, 43.51367]}}, {"type": "Feature", "properties": {"wikidata": "Q18495854", "name": "Le Cozze", "status": "done", "osm_id": "node/1207975080", "group": "Insediamenti", "subgroup": "Centri", "subcategory": "Frazione"}, "geometry": {"type": "Point", "coordinates": [13.31391, 43.59628]}}, {"type": "Feature", "properties": {"wikidata": "Q18495942", "name": "Monteferro", "status": "done", "osm_id": "node/1207975184", "group": "Insediamenti", "subgroup": "Centri", "subcategory": "Insediamento umano"}, "geometry": {"type": "Point", "coordinates": [13.45094, 43.57429]}}, {"type": "Feature", "properties": {"wikidata": "Q18495928", "name": "Monte Baldino", "status": "done", "osm_id": "node/1207975101", "group": "Insediamenti", "subgroup": "Centri", "subcategory": "Insediamento umano"}, "geometry": {"type": "Point", "coordinates": [13.54953, 43.58862]}}, {"type": "Feature", "properties": {"wikidata": "Q18495898", "name": "Marcosignori", "status": "done", "osm_id": "node/3922866141", "group": "Insediamenti", "subgroup": "Centri", "subcategory": "Insediamento umano"}, "geometry": {"type": "Point", "coordinates": [13.18574, 43.71381]}}, {"type": "Feature", "properties": {"wikidata": "Q18495875", "name": "Madonna del Piano", "status": "done", "osm_id": "node/333725948", "group": "Insediamenti", "subgroup": "Centri", "subcategory": "Frazione"}, "geometry": {"type": "Point", "coordinates": [13.03789, 43.66689]}}, {"type": "Feature", "properties": {"wikidata": "Q18496013", "name": "Piagge", "status": "done", "osm_id": "node/335675606", "group": "Insediamenti", "subgroup": "Centri", "subcategory": "Frazione"}, "geometry": {"type": "Point", "coordinates": [13.09853, 43.50192]}}, {"type": "Feature", "properties": {"wikidata": "Q18495856", "name": "Le Grazie", "status": "done", "osm_id": "node/462370811", "group": "Insediamenti", "subgroup": "Centri", "subcategory": "Insediamento umano"}, "geometry": {"type": "Point", "coordinates": [13.51529, 43.60081]}}, {"type": "Feature", "properties": {"wikidata": "Q18495979", "name": "Mulino ad Olio, Ancona", "status": "done", "osm_id": "node/3922885896", "group": "Insediamenti", "subgroup": "Centri", "subcategory": "Insediamento umano"}, "geometry": {"type": "Point", "coordinates": [12.99043, 43.60209]}}, {"type": "Feature", "properties": {"wikidata": "Q18495956", "name": "Montepulciano", "status": "done", "osm_id": "node/1537666371", "group": "Insediamenti", "subgroup": "Centri", "subcategory": "Frazione"}, "geometry": {"type": "Point", "coordinates": [13.34575, 43.42059]}}, {"type": "Feature", "properties": {"wikidata": "Q18496008", "name": "Passo Ripe", "status": "done", "osm_id": "node/267336756", "group": "Insediamenti", "subgroup": "Centri", "subcategory": "Frazione"}, "geometry": {"type": "Point", "coordinates": [13.12196, 43.65567]}}, {"type": "Feature", "properties": {"wikidata": "Q18496040", "name": "Pignocco", "status": "done", "osm_id": "node/1207975273", "group": "Insediamenti", "subgroup": "Centri", "subcategory": "Insediamento umano"}, "geometry": {"type": "Point", "coordinates": [13.49582, 43.50126]}}, {"type": "Feature", "properties": {"wikidata": "Q18495888", "name": "Mandriola", "status": "done", "osm_id": "node/1314060652", "group": "Insediamenti", "subgroup": "Centri", "subcategory": "Insediamento umano"}, "geometry": {"type": "Point", "coordinates": [13.22659, 43.69422]}}, {"type": "Feature", "properties": {"wikidata": "Q18495972", "name": "Montorso", "status": "done", "osm_id": "node/1537666377", "group": "Insediamenti", "subgroup": "Centri", "subcategory": "Insediamento umano"}, "geometry": {"type": "Point", "coordinates": [13.64295, 43.43742]}}, {"type": "Feature", "properties": {"wikidata": "Q18496038", "name": "Pignano", "status": "done", "osm_id": "node/1207948813", "group": "Insediamenti", "subgroup": "Centri", "subcategory": "Insediamento umano"}, "geometry": {"type": "Point", "coordinates": [12.90558, 43.3972]}}, {"type": "Feature", "properties": {"wikidata": "Q18495922", "name": "Montacuto", "status": "done", "osm_id": "node/462392461", "group": "Insediamenti", "subgroup": "Centri", "subcategory": "Frazione"}, "geometry": {"type": "Point", "coordinates": [13.54649, 43.58397]}}, {"type": "Feature", "properties": {"wikidata": "Q18495999", "name": "Palombare", "status": "done", "osm_id": "node/1207948796", "group": "Insediamenti", "subgroup": "Centri", "subcategory": "Insediamento umano"}, "geometry": {"type": "Point", "coordinates": [13.06395, 43.44098]}}, {"type": "Feature", "properties": {"wikidata": "Q18495871", "name": "Lungomare", "status": "done", "osm_id": "node/1207975047", "group": "Insediamenti", "subgroup": "Centri", "subcategory": "Insediamento umano"}, "geometry": {"type": "Point", "coordinates": [13.30862, 43.66718]}}, {"type": "Feature", "properties": {"wikidata": "Q18496042", "name": "Pinocchio", "status": "done", "osm_id": "node/462370853", "group": "Insediamenti", "subgroup": "Centri", "subcategory": "Insediamento umano"}, "geometry": {"type": "Point", "coordinates": [13.49413, 43.58986]}}, {"type": "Feature", "properties": {"wikidata": "Q18495892", "name": "Maratta", "status": "missing", "osm_id": null, "group": "Insediamenti", "subgroup": "Centri", "subcategory": "Insediamento umano"}, "geometry": {"type": "Point", "coordinates": [13.61507, 43.51258]}}, {"type": "Feature", "properties": {"wikidata": "Q18495843", "name": "La Chiusa", "status": "done", "osm_id": "node/1207975238", "group": "Insediamenti", "subgroup": "Centri", "subcategory": "Insediamento umano"}, "geometry": {"type": "Point", "coordinates": [13.32203, 43.56062]}}, {"type": "Feature", "properties": {"wikidata": "Q18495987", "name": "Nebbiano", "status": "done", "osm_id": "node/1207949222", "group": "Insediamenti", "subgroup": "Centri", "subcategory": "Insediamento umano"}, "geometry": {"type": "Point", "coordinates": [12.89468, 43.3777]}}, {"type": "Feature", "properties": {"wikidata": "Q18496003", "name": "Pantana", "status": "done", "osm_id": "node/1207949076", "group": "Insediamenti", "subgroup": "Centri", "subcategory": "Insediamento umano"}, "geometry": {"type": "Point", "coordinates": [12.79123, 43.41225]}}, {"type": "Feature", "properties": {"wikidata": "Q18496019", "name": "Piane", "status": "done", "osm_id": "node/1207975065", "group": "Insediamenti", "subgroup": "Centri", "subcategory": "Insediamento umano"}, "geometry": {"type": "Point", "coordinates": [13.34143, 43.58129]}}, {"type": "Feature", "properties": {"wikidata": "Q18495833", "name": "Il Ponte", "status": "done", "osm_id": "node/1207949091", "group": "Insediamenti", "subgroup": "Centri", "subcategory": "Insediamento umano"}, "geometry": {"type": "Point", "coordinates": [13.07763, 43.4715]}}, {"type": "Feature", "properties": {"wikidata": "Q18496028", "name": "Piano", "status": "done", "osm_id": "node/3922833504", "group": "Insediamenti", "subgroup": "Centri", "subcategory": "Insediamento umano"}, "geometry": {"type": "Point", "coordinates": [13.07435, 43.59042]}}, {"type": "Feature", "properties": {"wikidata": "Q18495842", "name": "L. P. la Chiusa", "status": "done", "osm_id": "node/1207975159", "group": "Insediamenti", "subgroup": "Centri", "subcategory": "Insediamento umano"}, "geometry": {"type": "Point", "coordinates": [13.32823, 43.56416]}}, {"type": "Feature", "properties": {"wikidata": "Q18495835", "name": "Imbrecciata", "status": "done", "osm_id": "node/318895517", "group": "Insediamenti", "subgroup": "Centri", "subcategory": "Frazione"}, "geometry": {"type": "Point", "coordinates": [13.35897, 43.41783]}}, {"type": "Feature", "properties": {"wikidata": "Q18495825", "name": "Gualdo", "status": "done", "osm_id": "node/3922863259", "group": "Insediamenti", "subgroup": "Centri", "subcategory": "Insediamento umano"}, "geometry": {"type": "Point", "coordinates": [13.28449, 43.64618]}}, {"type": "Feature", "properties": {"wikidata": "Q18495879", "name": "Madonna delle Grazie", "status": "done", "osm_id": "node/1207975245", "group": "Insediamenti", "subgroup": "Centri", "subcategory": "Insediamento umano"}, "geometry": {"type": "Point", "coordinates": [13.42409, 43.55555]}}, {"type": "Feature", "properties": {"wikidata": "Q18495997", "name": "Palazzo", "status": "done", "osm_id": "node/261601241", "group": "Insediamenti", "subgroup": "Centri", "subcategory": "Frazione"}, "geometry": {"type": "Point", "coordinates": [12.92131, 43.53631]}}, {"type": "Feature", "properties": {"wikidata": "Q18496006", "name": "Passetto", "status": "done", "osm_id": "node/3922833503", "group": "Insediamenti", "subgroup": "Centri", "subcategory": "Insediamento umano"}, "geometry": {"type": "Point", "coordinates": [13.05403, 43.52968]}}, {"type": "Feature", "properties": {"wikidata": "Q18495908", "name": "Massignano", "status": "done", "osm_id": "node/462393984", "group": "Insediamenti", "subgroup": "Centri", "subcategory": "Frazione"}, "geometry": {"type": "Point", "coordinates": [13.58834, 43.53756]}}, {"type": "Feature", "properties": {"wikidata": "Q18495964", "name": "Montespirello", "status": "done", "osm_id": "node/1207975029", "group": "Insediamenti", "subgroup": "Centri", "subcategory": "Insediamento umano"}, "geometry": {"type": "Point", "coordinates": [13.30488, 43.63359]}}, {"type": "Feature", "properties": {"wikidata": "Q18495890", "name": "Mannarini", "status": "done", "osm_id": "node/3922833501", "group": "Insediamenti", "subgroup": "Centri", "subcategory": "Insediamento umano"}, "geometry": {"type": "Point", "coordinates": [13.08154, 43.5935]}}, {"type": "Feature", "properties": {"wikidata": "Q18495937", "name": "Montebianco Alto", "status": "done", "osm_id": "node/3922866142", "group": "Insediamenti", "subgroup": "Centri", "subcategory": "Insediamento umano"}, "geometry": {"type": "Point", "coordinates": [13.17828, 43.70686]}}, {"type": "Feature", "properties": {"wikidata": "Q18495981", "name": "Murazzano", "status": "done", "osm_id": "node/1207948446", "group": "Insediamenti", "subgroup": "Centri", "subcategory": "Insediamento umano"}, "geometry": {"type": "Point", "coordinates": [12.8714, 43.39841]}}, {"type": "Feature", "properties": {"wikidata": "Q18495877", "name": "Madonna del Sole", "status": "done", "osm_id": "node/3922861188", "group": "Insediamenti", "subgroup": "Centri", "subcategory": "Frazione"}, "geometry": {"type": "Point", "coordinates": [13.18904, 43.58287]}}, {"type": "Feature", "properties": {"wikidata": "Q18496022", "name": "Pianello", "status": "done", "osm_id": "node/267673375", "group": "Insediamenti", "subgroup": "Centri", "subcategory": "Frazione"}, "geometry": {"type": "Point", "coordinates": [13.13068, 43.6262]}}, {"type": "Feature", "properties": {"wikidata": "Q18495858", "name": "Le Grotte", "status": "done", "osm_id": "node/1537666307", "group": "Insediamenti", "subgroup": "Centri", "subcategory": "Insediamento umano"}, "geometry": {"type": "Point", "coordinates": [13.65591, 43.43562]}}, {"type": "Feature", "properties": {"wikidata": "Q18495914", "name": "Mogiano", "status": "done", "osm_id": "node/1207949135", "group": "Insediamenti", "subgroup": "Centri", "subcategory": "Frazione"}, "geometry": {"type": "Point", "coordinates": [12.98042, 43.41568]}}, {"type": "Feature", "properties": {"wikidata": "Q18495830", "name": "Il Gelso", "status": "done", "osm_id": "node/1207975041", "group": "Insediamenti", "subgroup": "Centri", "subcategory": "Insediamento umano"}, "geometry": {"type": "Point", "coordinates": [13.30492, 43.65973]}}, {"type": "Feature", "properties": {"wikidata": "Q18496024", "name": "Piano di Frassineta", "status": "done", "osm_id": "node/1207948886", "group": "Insediamenti", "subgroup": "Centri", "subcategory": "Insediamento umano"}, "geometry": {"type": "Point", "coordinates": [12.84732, 43.45103]}}, {"type": "Feature", "properties": {"wikidata": "Q18495924", "name": "Montale", "status": "done", "osm_id": "node/266283304", "group": "Insediamenti", "subgroup": "Centri", "subcategory": "Frazione"}, "geometry": {"type": "Point", "coordinates": [12.99312, 43.54471]}}, {"type": "Feature", "properties": {"wikidata": "Q18495974", "name": "Morello", "status": "done", "osm_id": "node/1207949243", "group": "Insediamenti", "subgroup": "Centri", "subcategory": "Insediamento umano"}, "geometry": {"type": "Point", "coordinates": [12.80807, 43.49014]}}, {"type": "Feature", "properties": {"wikidata": "Q18495983", "name": "Nave", "status": "done", "osm_id": "node/1207975198", "group": "Insediamenti", "subgroup": "Centri", "subcategory": "Insediamento umano"}, "geometry": {"type": "Point", "coordinates": [13.55635, 43.59388]}}, {"type": "Feature", "properties": {"wikidata": "Q18495900", "name": "Marina di Montemarciano", "status": "done", "osm_id": "node/1207975020", "group": "Insediamenti", "subgroup": "Centri", "subcategory": "Insediamento umano"}, "geometry": {"type": "Point", "coordinates": [13.3364, 43.65063]}}, {"type": "Feature", "properties": {"wikidata": "Q18495865", "name": "Liceto", "status": "done", "osm_id": "node/1207949214", "group": "Insediamenti", "subgroup": "Centri", "subcategory": "Insediamento umano"}, "geometry": {"type": "Point", "coordinates": [12.81944, 43.41986]}}, {"type": "Feature", "properties": {"wikidata": "Q18496009", "name": "Paterno", "status": "done", "osm_id": "node/2467574933", "group": "Insediamenti", "subgroup": "Centri", "subcategory": "Insediamento umano"}, "geometry": {"type": "Point", "coordinates": [12.92767, 43.29141]}}, {"type": "Feature", "properties": {"wikidata": "Q18495847", "name": "La Molinella", "status": "done", "osm_id": "node/3922863260", "group": "Insediamenti", "subgroup": "Centri", "subcategory": "Insediamento umano"}, "geometry": {"type": "Point", "coordinates": [13.15629, 43.64341]}}, {"type": "Feature", "properties": {"wikidata": "Q18495917", "name": "Molini", "status": "missing", "osm_id": null, "group": "Insediamenti", "subgroup": "Centri", "subcategory": "Insediamento umano"}, "geometry": {"type": "Point", "coordinates": [13.60984, 43.5185]}}, {"type": "Feature", "properties": {"wikidata": "Q18495869", "name": "Loreto Stazione", "status": "done", "osm_id": "node/1537666326", "group": "Insediamenti", "subgroup": "Centri", "subcategory": "Insediamento umano"}, "geometry": {"type": "Point", "coordinates": [13.62016, 43.44792]}}, {"type": "Feature", "properties": {"wikidata": "Q18496015", "name": "Piaggiasecca", "status": "done", "osm_id": "node/1207948964", "group": "Insediamenti", "subgroup": "Centri", "subcategory": "Frazione"}, "geometry": {"type": "Point", "coordinates": [12.78352, 43.37712]}}, {"type": "Feature", "properties": {"wikidata": "Q18495930", "name": "Monte degli Elci", "status": "done", "osm_id": "node/1207975028", "group": "Insediamenti", "subgroup": "Centri", "subcategory": "Insediamento umano"}, "geometry": {"type": "Point", "coordinates": [13.4368, 43.55927]}}, {"type": "Feature", "properties": {"wikidata": "Q18496001", "name": "Pancaldo", "status": "done", "osm_id": "node/3922863263", "group": "Insediamenti", "subgroup": "Centri", "subcategory": "Insediamento umano"}, "geometry": {"type": "Point", "coordinates": [13.10728, 43.60748]}}, {"type": "Feature", "properties": {"wikidata": "Q18495828", "name": "Il Fiume", "status": "done", "osm_id": "node/3922860125", "group": "Insediamenti", "subgroup": "Centri", "subcategory": "Insediamento umano"}, "geometry": {"type": "Point", "coordinates": [13.13295, 43.4991]}}, {"type": "Feature", "properties": {"wikidata": "Q18495994", "name": "Osteria", "status": "done", "osm_id": "node/267528802", "group": "Insediamenti", "subgroup": "Centri", "subcategory": "Frazione"}, "geometry": {"type": "Point", "coordinates": [13.02188, 43.5495]}}, {"type": "Feature", "properties": {"wikidata": "Q18495946", "name": "Montefortino", "status": "done", "osm_id": "node/266283411", "group": "Insediamenti", "subgroup": "Centri", "subcategory": "Insediamento umano"}, "geometry": {"type": "Point", "coordinates": [12.93911, 43.52515]}}, {"type": "Feature", "properties": {"wikidata": "Q18495970", "name": "Montoro", "status": "done", "osm_id": "node/1537666376", "group": "Insediamenti", "subgroup": "Centri", "subcategory": "Frazione"}, "geometry": {"type": "Point", "coordinates": [13.41361, 43.45521]}}, {"type": "Feature", "properties": {"wikidata": "Q18496036", "name": "Pietralacroce", "status": "done", "osm_id": "node/462354716", "group": "Insediamenti", "subgroup": "Centri", "subcategory": "Insediamento umano"}, "geometry": {"type": "Point", "coordinates": [13.53887, 43.60224]}}, {"type": "Feature", "properties": {"wikidata": "Q18495881", "name": "Madonnina", "status": "done", "osm_id": "node/1207975089", "group": "Insediamenti", "subgroup": "Centri", "subcategory": "Insediamento umano"}, "geometry": {"type": "Point", "coordinates": [13.47882, 43.58737]}}, {"type": "Feature", "properties": {"wikidata": "Q18495894", "name": "Marcelli", "status": "done", "osm_id": "node/1537666350", "group": "Insediamenti", "subgroup": "Centri", "subcategory": "Frazione"}, "geometry": {"type": "Point", "coordinates": [13.62545, 43.49204]}}, {"type": "Feature", "properties": {"wikidata": "Q18495919", "name": "Molino", "status": "done", "osm_id": "node/1854969942", "group": "Insediamenti", "subgroup": "Centri", "subcategory": "Insediamento umano"}, "geometry": {"type": "Point", "coordinates": [13.10644, 43.72192]}}, {"type": "Feature", "properties": {"wikidata": "Q18495913", "name": "Meleto", "status": "done", "osm_id": "node/1207948641", "group": "Insediamenti", "subgroup": "Centri", "subcategory": "Frazione"}, "geometry": {"type": "Point", "coordinates": [12.9145, 43.42396]}}, {"type": "Feature", "properties": {"wikidata": "Q18495896", "name": "Marcianella", "status": "done", "osm_id": "node/8807818570", "group": "Insediamenti", "subgroup": "Centri", "subcategory": "Frazione"}, "geometry": {"type": "Point", "coordinates": [13.31054, 43.66227]}}, {"type": "Feature", "properties": {"wikidata": "Q18495873", "name": "Macine-Borgo Loreto", "status": "missing", "osm_id": null, "group": "Insediamenti", "subgroup": "Centri", "subcategory": "Insediamento umano"}, "geometry": {"type": "Point", "coordinates": [13.08725, 43.48611]}}, {"type": "Feature", "properties": {"wikidata": "Q18495995", "name": "Padiglione", "status": "done", "osm_id": "node/1537666388", "group": "Insediamenti", "subgroup": "Centri", "subcategory": "Frazione"}, "geometry": {"type": "Point", "coordinates": [13.46261, 43.469]}}, {"type": "Feature", "properties": {"wikidata": "Q18495966", "name": "Monticelli", "status": "done", "osm_id": "node/1207948464", "group": "Insediamenti", "subgroup": "Centri", "subcategory": "Frazione"}, "geometry": {"type": "Point", "coordinates": [12.92447, 43.43157]}}, {"type": "Feature", "properties": {"wikidata": "Q18495948", "name": "Montefreddo", "status": "done", "osm_id": "node/1207975060", "group": "Insediamenti", "subgroup": "Centri", "subcategory": "Insediamento umano"}, "geometry": {"type": "Point", "coordinates": [13.60004, 43.50374]}}, {"type": "Feature", "properties": {"wikidata": "Q18495926", "name": "Montanina", "status": "done", "osm_id": "node/1207975260", "group": "Insediamenti", "subgroup": "Centri", "subcategory": "Insediamento umano"}, "geometry": {"type": "Point", "coordinates": [13.35691, 43.58455]}}, {"type": "Feature", "properties": {"wikidata": "Q18495862", "name": "Le Vigne", "status": "done", "osm_id": "node/3922866140", "group": "Insediamenti", "subgroup": "Centri", "subcategory": "Insediamento umano"}, "geometry": {"type": "Point", "coordinates": [13.17148, 43.72503]}}, {"type": "Feature", "properties": {"wikidata": "Q18495961", "name": "Monterosso", "status": "done", "osm_id": "node/1207948717", "group": "Insediamenti", "subgroup": "Centri", "subcategory": "Insediamento umano"}, "geometry": {"type": "Point", "coordinates": [12.82807, 43.47505]}}, {"type": "Feature", "properties": {"wikidata": "Q18495839", "name": "Isola Centipera", "status": "done", "osm_id": "node/1207948499", "group": "Insediamenti", "subgroup": "Centri", "subcategory": "Insediamento umano"}, "geometry": {"type": "Point", "coordinates": [12.89413, 43.45005]}}, {"type": "Feature", "properties": {"wikidata": "Q18495932", "name": "Monte Galluzzo", "status": "done", "osm_id": "node/1207975103", "group": "Insediamenti", "subgroup": "Centri", "subcategory": "Insediamento umano"}, "geometry": {"type": "Point", "coordinates": [13.4466, 43.55139]}}, {"type": "Feature", "properties": {"wikidata": "Q18495944", "name": "Montefiascone", "status": "done", "osm_id": "node/503605125", "group": "Insediamenti", "subgroup": "Centri", "subcategory": "Insediamento umano"}, "geometry": {"type": "Point", "coordinates": [13.05259, 43.39865]}}, {"type": "Feature", "properties": {"wikidata": "Q18495916", "name": "Molinaccio", "status": "done", "osm_id": "node/1207948802", "group": "Insediamenti", "subgroup": "Centri", "subcategory": "Insediamento umano"}, "geometry": {"type": "Point", "coordinates": [12.82915, 43.35105]}}, {"type": "Feature", "properties": {"wikidata": "Q18496026", "name": "Piano di Rocchetta", "status": "done", "osm_id": "node/287849998", "group": "Insediamenti", "subgroup": "Centri", "subcategory": "Insediamento umano"}, "geometry": {"type": "Point", "coordinates": [12.95139, 43.46778]}}, {"type": "Feature", "properties": {"wikidata": "Q18495950", "name": "Montegallo", "status": "done", "osm_id": "node/1207975264", "group": "Insediamenti", "subgroup": "Centri", "subcategory": "Frazione"}, "geometry": {"type": "Point", "coordinates": [13.47882, 43.52451]}}, {"type": "Feature", "properties": {"wikidata": "Q18495912", "name": "Melano", "status": "done", "osm_id": "node/1207949090", "group": "Insediamenti", "subgroup": "Centri", "subcategory": "Insediamento umano"}, "geometry": {"type": "Point", "coordinates": [12.84003, 43.34197]}}, {"type": "Feature", "properties": {"wikidata": "Q18495845", "name": "La Croce", "status": "done", "osm_id": "node/267336774", "group": "Insediamenti", "subgroup": "Centri", "subcategory": "Insediamento umano"}, "geometry": {"type": "Point", "coordinates": [13.09756, 43.68683]}}, {"type": "Feature", "properties": {"wikidata": "Q18495860", "name": "Le Moie", "status": "done", "osm_id": "node/266030232", "group": "Insediamenti", "subgroup": "Centri", "subcategory": "Insediamento umano"}, "geometry": {"type": "Point", "coordinates": [12.91856, 43.54601]}}, {"type": "Feature", "properties": {"wikidata": "Q18495985", "name": "Nazzano", "status": "done", "osm_id": "node/1207948983", "group": "Insediamenti", "subgroup": "Centri", "subcategory": "Insediamento umano"}, "geometry": {"type": "Point", "coordinates": [12.89428, 43.35833]}}, {"type": "Feature", "properties": {"wikidata": "Q18495902", "name": "Marina di Rocca Priora", "status": "done", "osm_id": "node/1207975176", "group": "Insediamenti", "subgroup": "Centri", "subcategory": "Insediamento umano"}, "geometry": {"type": "Point", "coordinates": [13.36513, 43.64426]}}, {"type": "Feature", "properties": {"wikidata": "Q18495968", "name": "Montignano-Marzocca", "status": "missing", "osm_id": null, "group": "Insediamenti", "subgroup": "Centri", "subcategory": "Insediamento umano"}, "geometry": {"type": "Point", "coordinates": [13.29093, 43.67451]}}, {"type": "Feature", "properties": {"wikidata": "Q18496011", "name": "Pecorile", "status": "done", "osm_id": "node/512458536", "group": "Insediamenti", "subgroup": "Centri", "subcategory": "Insediamento umano"}, "geometry": {"type": "Point", "coordinates": [13.04841, 43.40757]}}, {"type": "Feature", "properties": {"wikidata": "Q18495883", "name": "Maest\u00e0", "status": "done", "osm_id": "node/289049524", "group": "Insediamenti", "subgroup": "Centri", "subcategory": "Insediamento umano"}, "geometry": {"type": "Point", "coordinates": [12.99008, 43.4785]}}, {"type": "Feature", "properties": {"wikidata": "Q18495992", "name": "Osteria di Colleponi", "status": "done", "osm_id": "node/1207949130", "group": "Insediamenti", "subgroup": "Centri", "subcategory": "Insediamento umano"}, "geometry": {"type": "Point", "coordinates": [12.90338, 43.43892]}}, {"type": "Feature", "properties": {"wikidata": "Q18495940", "name": "Montecucco", "status": "done", "osm_id": "node/1537666366", "group": "Insediamenti", "subgroup": "Centri", "subcategory": "Insediamento umano"}, "geometry": {"type": "Point", "coordinates": [13.33521, 43.49058]}}, {"type": "Feature", "properties": {"wikidata": "Q18496017", "name": "Pian del Medico", "status": "done", "osm_id": "node/3922860128", "group": "Insediamenti", "subgroup": "Centri", "subcategory": "Insediamento umano"}, "geometry": {"type": "Point", "coordinates": [13.21839, 43.49304]}}, {"type": "Feature", "properties": {"wikidata": "Q18495867", "name": "Loretello", "status": "done", "osm_id": "node/266030244", "group": "Insediamenti", "subgroup": "Centri", "subcategory": "Frazione"}, "geometry": {"type": "Point", "coordinates": [12.94453, 43.57042]}}, {"type": "Feature", "properties": {"wikidata": "Q18495885", "name": "Magnadorsa", "status": "done", "osm_id": "node/269851768", "group": "Insediamenti", "subgroup": "Centri", "subcategory": "Frazione"}, "geometry": {"type": "Point", "coordinates": [12.98743, 43.52535]}}, {"type": "Feature", "properties": {"wikidata": "Q18495959", "name": "Monterosso Stazione", "status": "done", "osm_id": "node/1207948511", "group": "Insediamenti", "subgroup": "Centri", "subcategory": "Insediamento umano"}, "geometry": {"type": "Point", "coordinates": [12.8214, 43.46019]}}, {"type": "Feature", "properties": {"wikidata": "Q18495849", "name": "La Morentella", "status": "done", "osm_id": "node/1207949078", "group": "Insediamenti", "subgroup": "Centri", "subcategory": "Insediamento umano"}, "geometry": {"type": "Point", "coordinates": [12.80067, 43.36453]}}, {"type": "Feature", "properties": {"wikidata": "Q2372655", "name": "parco archeologico di Urbs Salvia", "status": "done", "osm_id": "way/161577954", "group": "Cultura e tempo libero", "subgroup": "Musei", "subcategory": "Museo pubblico"}, "geometry": {"type": "Point", "coordinates": [13.3853, 43.1981]}}, {"type": "Feature", "properties": {"wikidata": "Q2471138", "name": "Rubbiano", "status": "done", "osm_id": "node/821701679", "group": "Insediamenti", "subgroup": "Centri", "subcategory": "Frazione"}, "geometry": {"type": "Point", "coordinates": [13.30933, 42.928719]}}, {"type": "Feature", "properties": {"wikidata": "Q2022561", "name": "Sterpeti", "status": "done", "osm_id": "node/1883829308", "group": "Insediamenti", "subgroup": "Centri", "subcategory": "Frazione"}, "geometry": {"type": "Point", "coordinates": [12.8649, 43.71909]}}, {"type": "Feature", "properties": {"wikidata": "Q2417486", "name": "Monte Vettore", "status": "done", "osm_id": "node/26864002", "group": "Natura e paesaggio", "subgroup": "Montagna", "subcategory": "Montagna"}, "geometry": {"type": "Point", "coordinates": [13.266666666, 42.816666666]}}, {"type": "Feature", "properties": {"wikidata": "Q2436457", "name": "Borgo di Arquata", "status": "done", "osm_id": "node/1263504559", "group": "Insediamenti", "subgroup": "Centri", "subcategory": "Frazione"}, "geometry": {"type": "Point", "coordinates": [13.294722222, 42.775833333]}}, {"type": "Feature", "properties": {"wikidata": "Q2297606", "name": "Obelisco di Urbino", "status": "done", "osm_id": "node/2947419371", "group": "Altro", "subgroup": "Altro", "subcategory": "Altro"}, "geometry": {"type": "Point", "coordinates": [12.63693, 43.72427]}}, {"type": "Feature", "properties": {"wikidata": "Q2204790", "name": "Pretare", "status": "done", "osm_id": "node/259995449", "group": "Insediamenti", "subgroup": "Centri", "subcategory": "Frazione"}, "geometry": {"type": "Point", "coordinates": [13.30041, 42.79786]}}, {"type": "Feature", "properties": {"wikidata": "Q2940761", "name": "Casa Santi", "status": "done", "osm_id": "relation/16413589", "group": "Cultura e tempo libero", "subgroup": "Musei", "subcategory": "Museo d'arte"}, "geometry": {"type": "Point", "coordinates": [12.635355, 43.727046]}}, {"type": "Feature", "properties": {"wikidata": "Q2119752", "name": "Universit\u00e0 degli Studi di Urbino Carlo Bo", "status": "missing", "osm_id": null, "group": "Altro", "subgroup": "Altro", "subcategory": "Altro"}, "geometry": {"type": "Point", "coordinates": [12.637, 43.722]}}, {"type": "Feature", "properties": {"wikidata": "Q1650259", "name": "Rocca Roveresca", "status": "done", "osm_id": "way/22781491", "group": "Fortificazioni e militare", "subgroup": "Fortificazioni", "subcategory": "Rocca"}, "geometry": {"type": "Point", "coordinates": [13.220403, 43.71526]}}, {"type": "Feature", "properties": {"wikidata": "Q2230379", "name": "Montagna dei Fiori", "status": "missing", "osm_id": null, "group": "Natura e paesaggio", "subgroup": "Montagna", "subcategory": "Montagna"}, "geometry": {"type": "Point", "coordinates": [13.600833333, 42.763611111]}}, {"type": "Feature", "properties": {"wikidata": "Q2423329", "name": "Piticchio", "status": "done", "osm_id": "node/266283299", "group": "Insediamenti", "subgroup": "Centri", "subcategory": "Frazione"}, "geometry": {"type": "Point", "coordinates": [12.97334, 43.53978]}}, {"type": "Feature", "properties": {"wikidata": "Q2754576", "name": "Duomo di Urbino", "status": "done", "osm_id": "way/133498284", "group": "Religione", "subgroup": "Luoghi di Culto", "subcategory": "Basilica minore"}, "geometry": {"type": "Point", "coordinates": [12.636389, 43.725]}}, {"type": "Feature", "properties": {"wikidata": "Q1838883", "name": "Castelnuovo", "status": "missing", "osm_id": null, "group": "Insediamenti", "subgroup": "Centri", "subcategory": "Frazione"}, "geometry": {"type": "Point", "coordinates": [12.578055555, 43.864444444]}}, {"type": "Feature", "properties": {"wikidata": "Q2103727", "name": "ponte Romano di Solest\u00e0", "status": "done", "osm_id": "way/524234821", "group": "Altro", "subgroup": "Altro", "subcategory": "Altro"}, "geometry": {"type": "Point", "coordinates": [13.57183333, 42.85866667]}}, {"type": "Feature", "properties": {"wikidata": "Q2941391", "name": "Castello della Pieve", "status": "missing", "osm_id": null, "group": "Insediamenti", "subgroup": "Centri", "subcategory": "Frazione"}, "geometry": {"type": "Point", "coordinates": [12.312194444, 43.662372222]}}, {"type": "Feature", "properties": {"wikidata": "Q2271044", "name": "Marischio", "status": "done", "osm_id": "node/1207948544", "group": "Insediamenti", "subgroup": "Centri", "subcategory": "Frazione"}, "geometry": {"type": "Point", "coordinates": [12.86928, 43.33947]}}, {"type": "Feature", "properties": {"wikidata": "Q2103717", "name": "Q2103717", "status": "missing", "osm_id": null, "group": "Altro", "subgroup": "Altro", "subcategory": "Altro"}, "geometry": {"type": "Point", "coordinates": [13.408035, 42.76854]}}, {"type": "Feature", "properties": {"wikidata": "Q2675936", "name": "Calcinelli", "status": "done", "osm_id": "node/1852235281", "group": "Insediamenti", "subgroup": "Centri", "subcategory": "Frazione"}, "geometry": {"type": "Point", "coordinates": [12.92, 43.7539]}}, {"type": "Feature", "properties": {"wikidata": "Q2942566", "name": "concattedrale di Osimo", "status": "done", "osm_id": "way/595945173", "group": "Religione", "subgroup": "Luoghi di Culto", "subcategory": "Chiesa"}, "geometry": {"type": "Point", "coordinates": [13.480405228, 43.486387422]}}, {"type": "Feature", "properties": {"wikidata": "Q1994964", "name": "grotte di Frasassi", "status": "done", "osm_id": "node/2326324375", "group": "Altro", "subgroup": "Altro", "subcategory": "Altro"}, "geometry": {"type": "Point", "coordinates": [12.9632, 43.4009]}}, {"type": "Feature", "properties": {"wikidata": "Q2437413", "name": "Capodacqua", "status": "done", "osm_id": "node/1263504550", "group": "Insediamenti", "subgroup": "Centri", "subcategory": "Frazione"}, "geometry": {"type": "Point", "coordinates": [13.23817, 42.73751]}}, {"type": "Feature", "properties": {"wikidata": "Q2942547", "name": "cattedrale di Sant'Emidio", "status": "done", "osm_id": "relation/9209689", "group": "Altro", "subgroup": "Altro", "subcategory": "Altro"}, "geometry": {"type": "Point", "coordinates": [13.5783, 42.8535]}}, {"type": "Feature", "properties": {"wikidata": "Q2103764", "name": "Ponte di Cecco", "status": "done", "osm_id": "way/54119298", "group": "Altro", "subgroup": "Altro", "subcategory": "Altro"}, "geometry": {"type": "Point", "coordinates": [13.58583333, 42.85255556]}}, {"type": "Feature", "properties": {"wikidata": "Q1854553", "name": "Paggese", "status": "done", "osm_id": "node/502905338", "group": "Insediamenti", "subgroup": "Centri", "subcategory": "Frazione"}, "geometry": {"type": "Point", "coordinates": [13.419185, 42.782708]}}, {"type": "Feature", "properties": {"wikidata": "Q2414306", "name": "Fiorenzuola di Focara", "status": "done", "osm_id": "node/291093313", "group": "Insediamenti", "subgroup": "Centri", "subcategory": "Frazione"}, "geometry": {"type": "Point", "coordinates": [12.82238, 43.94994]}}, {"type": "Feature", "properties": {"wikidata": "Q2534656", "name": "Trebbiantico", "status": "done", "osm_id": "node/1412395395", "group": "Insediamenti", "subgroup": "Centri", "subcategory": "Frazione"}, "geometry": {"type": "Point", "coordinates": [12.9434, 43.8733]}}, {"type": "Feature", "properties": {"wikidata": "Q2106396", "name": "area archeologica di Potentia", "status": "done", "osm_id": "way/32393250", "group": "Altro", "subgroup": "Altro", "subcategory": "Altro"}, "geometry": {"type": "Point", "coordinates": [13.67118, 43.4141]}}, {"type": "Feature", "properties": {"wikidata": "Q2111727", "name": "Calmazzo", "status": "done", "osm_id": "node/1223064786", "group": "Insediamenti", "subgroup": "Centri", "subcategory": "Frazione"}, "geometry": {"type": "Point", "coordinates": [12.75025, 43.67699]}}, {"type": "Feature", "properties": {"wikidata": "Q1867616", "name": "Vallinfante", "status": "done", "osm_id": "node/821744436", "group": "Insediamenti", "subgroup": "Centri", "subcategory": "Frazione"}, "geometry": {"type": "Point", "coordinates": [13.173611111, 42.892222222]}}, {"type": "Feature", "properties": {"wikidata": "Q2103751", "name": "Ponte del Gran Caso", "status": "missing", "osm_id": null, "group": "Altro", "subgroup": "Altro", "subcategory": "Altro"}, "geometry": {"type": "Point", "coordinates": [13.58730556, 42.83230556]}}, {"type": "Feature", "properties": {"wikidata": "Q2174837", "name": "Moscano", "status": "done", "osm_id": "node/1207949333", "group": "Insediamenti", "subgroup": "Centri", "subcategory": "Frazione"}, "geometry": {"type": "Point", "coordinates": [12.948544444, 43.370397222]}}, {"type": "Feature", "properties": {"wikidata": "Q2117620", "name": "Castelferretti", "status": "done", "osm_id": "node/452737083", "group": "Insediamenti", "subgroup": "Centri", "subcategory": "Frazione"}, "geometry": {"type": "Point", "coordinates": [13.368888888, 43.607777777]}}, {"type": "Feature", "properties": {"wikidata": "Q2579163", "name": "Avacelli", "status": "done", "osm_id": "node/267529855", "group": "Insediamenti", "subgroup": "Centri", "subcategory": "Frazione"}, "geometry": {"type": "Point", "coordinates": [12.98274, 43.46995]}}, {"type": "Feature", "properties": {"wikidata": "Q2495115", "name": "Faete", "status": "done", "osm_id": "node/1263504541", "group": "Insediamenti", "subgroup": "Centri", "subcategory": "Frazione"}, "geometry": {"type": "Point", "coordinates": [13.30663, 42.76986]}}, {"type": "Feature", "properties": {"wikidata": "Q2103768", "name": "Ponte Marmone", "status": "done", "osm_id": "way/261712803", "group": "Altro", "subgroup": "Altro", "subcategory": "Altro"}, "geometry": {"type": "Point", "coordinates": [12.984783, 43.179094]}}, {"type": "Feature", "properties": {"wikidata": "Q2122584", "name": "Porto Potenza Picena", "status": "done", "osm_id": "node/364419322", "group": "Insediamenti", "subgroup": "Centri", "subcategory": "Frazione"}, "geometry": {"type": "Point", "coordinates": [13.69746, 43.35751]}}, {"type": "Feature", "properties": {"wikidata": "Q1892195", "name": "Arco di Augusto", "status": "done", "osm_id": "way/463253711", "group": "Fortificazioni e militare", "subgroup": "Fortificazioni", "subcategory": "Porta cittadina"}, "geometry": {"type": "Point", "coordinates": [13.014595555, 43.843045833]}}, {"type": "Feature", "properties": {"wikidata": "Q2169366", "name": "Vallina", "status": "done", "osm_id": "node/1207948894", "group": "Insediamenti", "subgroup": "Centri", "subcategory": "Frazione"}, "geometry": {"type": "Point", "coordinates": [12.810277777, 43.345555555]}}, {"type": "Feature", "properties": {"wikidata": "Q2108962", "name": "Paterno", "status": "done", "osm_id": "node/462356282", "group": "Insediamenti", "subgroup": "Centri", "subcategory": "Frazione"}, "geometry": {"type": "Point", "coordinates": [13.407777777, 43.570277777]}}, {"type": "Feature", "properties": {"wikidata": "Q2401022", "name": "Mozzano", "status": "done", "osm_id": "node/290395594", "group": "Insediamenti", "subgroup": "Centri", "subcategory": "Frazione"}, "geometry": {"type": "Point", "coordinates": [13.51209, 42.83003]}}]}