{"type": "FeatureCollection", "features": [{"type": "Feature", "properties": {"wikidata": "Q810128", "name": "basilica di Santa Maria Assunta in Cielo e Santi Ermagora e Fortunato", "status": "done", "osm_id": "way/36684771", "group": "Altro", "subgroup": "Altro", "subcategory": "Altro"}, "geometry": {"type": "Point", "coordinates": [13.371167, 45.76975]}}, {"type": "Feature", "properties": {"wikidata": "Q302975", "name": "fortezza di Palmanova", "status": "missing", "osm_id": null, "group": "Fortificazioni e militare", "subgroup": "Fortificazioni", "subcategory": "Fortezza"}, "geometry": {"type": "Point", "coordinates": [13.310256, 45.904971]}}, {"type": "Feature", "properties": {"wikidata": "Q942564", "name": "Savoia Excelsior Palace", "status": "done", "osm_id": "way/36432036", "group": "Dimore ed edifici", "subgroup": "Ospitalit\u00e0", "subcategory": "Albergo"}, "geometry": {"type": "Point", "coordinates": [13.765556, 45.649444]}}, {"type": "Feature", "properties": {"wikidata": "Q506033", "name": "Timavo", "status": "missing", "osm_id": null, "group": "Natura e paesaggio", "subgroup": "Acqua", "subcategory": "Fiume"}, "geometry": {"type": "Point", "coordinates": [13.5909, 45.7876]}}, {"type": "Feature", "properties": {"wikidata": "Q965121", "name": "museo di storia naturale di Trieste", "status": "done", "osm_id": "way/36409954", "group": "Altro", "subgroup": "Altro", "subcategory": "Altro"}, "geometry": {"type": "Point", "coordinates": [13.800472222, 45.640416666]}}, {"type": "Feature", "properties": {"wikidata": "Q752696", "name": "teatro romano di Trieste", "status": "done", "osm_id": "way/905064066", "group": "Altro", "subgroup": "Altro", "subcategory": "Altro"}, "geometry": {"type": "Point", "coordinates": [13.77167, 45.64917]}}, {"type": "Feature", "properties": {"wikidata": "Q803363", "name": "ferrovia Udine-Cividale", "status": "done", "osm_id": "relation/11265567", "group": "Infrastrutture", "subgroup": "Trasporti", "subcategory": "Linea ferroviaria"}, "geometry": {"type": "Point", "coordinates": [13.31539, 46.08112]}}, {"type": "Feature", "properties": {"wikidata": "Q726594", "name": "stazione di Tarvisio Boscoverde", "status": "done", "osm_id": "node/1449334256", "group": "Infrastrutture", "subgroup": "Trasporti", "subcategory": "Stazione ferroviaria"}, "geometry": {"type": "Point", "coordinates": [13.6076, 46.5062]}}, {"type": "Feature", "properties": {"wikidata": "Q637182", "name": "Museo archeologico nazionale di Aquileia", "status": "missing", "osm_id": null, "group": "Cultura e tempo libero", "subgroup": "Musei", "subcategory": "Museo archeologico"}, "geometry": {"type": "Point", "coordinates": [13.368724, 45.767628]}}, {"type": "Feature", "properties": {"wikidata": "Q700922", "name": "Monte Coglians", "status": "done", "osm_id": "node/2534285844", "group": "Natura e paesaggio", "subgroup": "Montagna", "subcategory": "Montagna"}, "geometry": {"type": "Point", "coordinates": [12.88254, 46.607191]}}, {"type": "Feature", "properties": {"wikidata": "Q807312", "name": "Barbana", "status": "done", "osm_id": "way/39424614", "group": "Natura e paesaggio", "subgroup": "Mare e Costa", "subcategory": "Isola"}, "geometry": {"type": "Point", "coordinates": [13.423, 45.7032]}}, {"type": "Feature", "properties": {"wikidata": "Q1025549", "name": "Caff\u00e8 Tommaseo", "status": "done", "osm_id": "node/270124812", "group": "Altro", "subgroup": "Altro", "subcategory": "Altro"}, "geometry": {"type": "Point", "coordinates": [13.769095, 45.651323]}}, {"type": "Feature", "properties": {"wikidata": "Q752327", "name": "Faro della Vittoria", "status": "done", "osm_id": "way/36428883", "group": "Infrastrutture", "subgroup": "Trasporti", "subcategory": "Faro"}, "geometry": {"type": "Point", "coordinates": [13.757047, 45.675566]}}, {"type": "Feature", "properties": {"wikidata": "Q799942", "name": "Bagni di Lusnizza", "status": "done", "osm_id": "node/1323357960", "group": "Insediamenti", "subgroup": "Centri", "subcategory": "Frazione"}, "geometry": {"type": "Point", "coordinates": [13.37861111, 46.50166667]}}, {"type": "Feature", "properties": {"wikidata": "Q476614", "name": "Cave del Predil", "status": "done", "osm_id": "node/961478058", "group": "Insediamenti", "subgroup": "Centri", "subcategory": "Frazione"}, "geometry": {"type": "Point", "coordinates": [13.57127, 46.44046]}}, {"type": "Feature", "properties": {"wikidata": "Q747177", "name": "Clenia", "status": "done", "osm_id": "node/9893673850", "group": "Insediamenti", "subgroup": "Centri", "subcategory": "Frazione"}, "geometry": {"type": "Point", "coordinates": [13.49871, 46.1314]}}, {"type": "Feature", "properties": {"wikidata": "Q979837", "name": "Oslavia", "status": "done", "osm_id": "node/892299630", "group": "Insediamenti", "subgroup": "Centri", "subcategory": "Frazione"}, "geometry": {"type": "Point", "coordinates": [13.6125, 45.971666666]}}, {"type": "Feature", "properties": {"wikidata": "Q616514", "name": "Piancavallo", "status": "done", "osm_id": "node/524413847", "group": "Insediamenti", "subgroup": "Centri", "subcategory": "Frazione"}, "geometry": {"type": "Point", "coordinates": [12.51833333, 46.10694444]}}, {"type": "Feature", "properties": {"wikidata": "Q426164", "name": "Risiera di San Sabba", "status": "done", "osm_id": "way/777763718", "group": "Fortificazioni e militare", "subgroup": "Militare", "subcategory": "Campo di concentramento"}, "geometry": {"type": "Point", "coordinates": [13.789166666, 45.620833333]}}, {"type": "Feature", "properties": {"wikidata": "Q856359", "name": "Biblioteca civica Attilio Hortis", "status": "missing", "osm_id": null, "group": "Altro", "subgroup": "Altro", "subcategory": "Altro"}, "geometry": {"type": "Point", "coordinates": [13.7677213, 45.6467917]}}, {"type": "Feature", "properties": {"wikidata": "Q679358", "name": "Alpi Carniche e della Gail", "status": "missing", "osm_id": null, "group": "Natura e paesaggio", "subgroup": "Montagna", "subcategory": "Montagna"}, "geometry": {"type": "Point", "coordinates": [12.88222222, 46.60694444]}}, {"type": "Feature", "properties": {"wikidata": "Q603559", "name": "Lucinico", "status": "done", "osm_id": "node/892299636", "group": "Insediamenti", "subgroup": "Centri", "subcategory": "Frazione"}, "geometry": {"type": "Point", "coordinates": [13.56666667, 45.93333333]}}, {"type": "Feature", "properties": {"wikidata": "Q669135", "name": "Passo di Monte Croce Carnico", "status": "done", "osm_id": "node/29868605", "group": "Natura e paesaggio", "subgroup": "Montagna", "subcategory": "Passo"}, "geometry": {"type": "Point", "coordinates": [12.945, 46.60361111]}}, {"type": "Feature", "properties": {"wikidata": "Q1048860", "name": "castello di San Giusto", "status": "done", "osm_id": "relation/7287683", "group": "Cultura e tempo libero", "subgroup": "Musei", "subcategory": "Museo d'arte"}, "geometry": {"type": "Point", "coordinates": [13.773503, 45.646902]}}, {"type": "Feature", "properties": {"wikidata": "Q588000", "name": "Monte Crostis", "status": "done", "osm_id": "node/402619671", "group": "Natura e paesaggio", "subgroup": "Montagna", "subcategory": "Montagna"}, "geometry": {"type": "Point", "coordinates": [12.89111111, 46.59694444]}}, {"type": "Feature", "properties": {"wikidata": "Q807970", "name": "Barcola", "status": "done", "osm_id": "node/302950266", "group": "Insediamenti", "subgroup": "Centri", "subcategory": "Frazione"}, "geometry": {"type": "Point", "coordinates": [13.75444444, 45.67944444]}}, {"type": "Feature", "properties": {"wikidata": "Q1085682", "name": "Meduna", "status": "done", "osm_id": "relation/2220294", "group": "Natura e paesaggio", "subgroup": "Acqua", "subcategory": "Fiume"}, "geometry": {"type": "Point", "coordinates": [12.646, 46.3213]}}, {"type": "Feature", "properties": {"wikidata": "Q160570", "name": "Friuli", "status": "missing", "osm_id": null, "group": "Altro", "subgroup": "Altro", "subcategory": "Altro"}, "geometry": {"type": "Point", "coordinates": [13.0, 46.166388888]}}, {"type": "Feature", "properties": {"wikidata": "Q685718", "name": "Passo di Pramollo", "status": "done", "osm_id": "node/1626728615", "group": "Natura e paesaggio", "subgroup": "Montagna", "subcategory": "Passo"}, "geometry": {"type": "Point", "coordinates": [13.2758, 46.56]}}, {"type": "Feature", "properties": {"wikidata": "Q835441", "name": "sinagoga di Trieste", "status": "done", "osm_id": "way/36684708", "group": "Altro", "subgroup": "Altro", "subcategory": "Altro"}, "geometry": {"type": "Point", "coordinates": [13.7798687, 45.6533685]}}, {"type": "Feature", "properties": {"wikidata": "Q209757", "name": "Golfo di Trieste", "status": "done", "osm_id": "relation/13703755", "group": "Natura e paesaggio", "subgroup": "Mare e Costa", "subcategory": "Baia"}, "geometry": {"type": "Point", "coordinates": [13.583333333, 45.666666666]}}, {"type": "Feature", "properties": {"wikidata": "Q670416", "name": "Campanile di Val Montanaia", "status": "done", "osm_id": "node/5512426841", "group": "Natura e paesaggio", "subgroup": "Montagna", "subcategory": "Montagna"}, "geometry": {"type": "Point", "coordinates": [12.466667, 46.383333]}}, {"type": "Feature", "properties": {"wikidata": "Q498934", "name": "Sacrario militare di Redipuglia", "status": "done", "osm_id": "way/965272675", "group": "Religione", "subgroup": "Cimiteri", "subcategory": "Cimitero di guerra"}, "geometry": {"type": "Point", "coordinates": [13.489722222, 45.851666666]}}, {"type": "Feature", "properties": {"wikidata": "Q668385", "name": "AREA Science Park", "status": "done", "osm_id": "way/5198178", "group": "Altro", "subgroup": "Altro", "subcategory": "Altro"}, "geometry": {"type": "Point", "coordinates": [13.827782, 45.657541]}}, {"type": "Feature", "properties": {"wikidata": "Q116175", "name": "osservatorio astronomico di Trieste", "status": "done", "osm_id": "way/94336282", "group": "Infrastrutture", "subgroup": "Industria e Tecnica", "subcategory": "Osservatorio astronomico"}, "geometry": {"type": "Point", "coordinates": [13.774047, 45.644836]}}, {"type": "Feature", "properties": {"wikidata": "Q802326", "name": "ferrovia Gemona del Friuli-Sacile", "status": "missing", "osm_id": null, "group": "Infrastrutture", "subgroup": "Trasporti", "subcategory": "Linea ferroviaria"}, "geometry": {"type": "Point", "coordinates": [12.7456, 46.17618]}}, {"type": "Feature", "properties": {"wikidata": "Q768130", "name": "duomo di Gorizia", "status": "done", "osm_id": "way/36685011", "group": "Altro", "subgroup": "Altro", "subcategory": "Altro"}, "geometry": {"type": "Point", "coordinates": [13.6242, 45.9423]}}, {"type": "Feature", "properties": {"wikidata": "Q598402", "name": "Tapogliano", "status": "done", "osm_id": "node/66503480", "group": "Insediamenti", "subgroup": "Centri", "subcategory": "Localit\u00e0 abitata"}, "geometry": {"type": "Point", "coordinates": [13.39965, 45.87601]}}, {"type": "Feature", "properties": {"wikidata": "Q588301", "name": "stazione di Udine", "status": "done", "osm_id": "node/11561037998", "group": "Infrastrutture", "subgroup": "Trasporti", "subcategory": "Stazione ferroviaria"}, "geometry": {"type": "Point", "coordinates": [13.2419, 46.056]}}, {"type": "Feature", "properties": {"wikidata": "Q464991", "name": "Slizza", "status": "done", "osm_id": "relation/2219712", "group": "Natura e paesaggio", "subgroup": "Acqua", "subcategory": "Fiume"}, "geometry": {"type": "Point", "coordinates": [13.69, 46.5703]}}, {"type": "Feature", "properties": {"wikidata": "Q801532", "name": "stazione di Trieste Centrale", "status": "done", "osm_id": "way/1030129688", "group": "Altro", "subgroup": "Altro", "subcategory": "Altro"}, "geometry": {"type": "Point", "coordinates": [13.772105, 45.65747]}}, {"type": "Feature", "properties": {"wikidata": "Q949153", "name": "Monte Peralba", "status": "done", "osm_id": "node/26863928", "group": "Natura e paesaggio", "subgroup": "Montagna", "subcategory": "Montagna"}, "geometry": {"type": "Point", "coordinates": [12.72, 46.63]}}, {"type": "Feature", "properties": {"wikidata": "Q429711", "name": "autostrada A4", "status": "done", "osm_id": "relation/136434", "group": "Altro", "subgroup": "Altro", "subcategory": "Altro"}, "geometry": {"type": "Point", "coordinates": [10.75081, 45.42725]}}, {"type": "Feature", "properties": {"wikidata": "Q747929", "name": "Tagliamento", "status": "done", "osm_id": "relation/2220298", "group": "Natura e paesaggio", "subgroup": "Acqua", "subcategory": "Fiume"}, "geometry": {"type": "Point", "coordinates": [13.0994, 45.6426]}}, {"type": "Feature", "properties": {"wikidata": "Q477193", "name": "Sella Nevea", "status": "done", "osm_id": "node/4937429678", "group": "Natura e paesaggio", "subgroup": "Montagna", "subcategory": "Passo"}, "geometry": {"type": "Point", "coordinates": [13.47453, 46.38977]}}, {"type": "Feature", "properties": {"wikidata": "Q790794", "name": "Base aerea di Aviano", "status": "done", "osm_id": "way/39394092", "group": "Infrastrutture", "subgroup": "Trasporti", "subcategory": "Aeroporto"}, "geometry": {"type": "Point", "coordinates": [12.596472222, 46.031888888]}}, {"type": "Feature", "properties": {"wikidata": "Q936906", "name": "Cima dei Preti", "status": "done", "osm_id": "node/26862695", "group": "Natura e paesaggio", "subgroup": "Montagna", "subcategory": "Montagna"}, "geometry": {"type": "Point", "coordinates": [12.42113056, 46.34239167]}}, {"type": "Feature", "properties": {"wikidata": "Q948537", "name": "Medeazza", "status": "done", "osm_id": "node/440628207", "group": "Insediamenti", "subgroup": "Centri", "subcategory": "Frazione"}, "geometry": {"type": "Point", "coordinates": [13.605, 45.79806]}}, {"type": "Feature", "properties": {"wikidata": "Q425566", "name": "Opicina", "status": "done", "osm_id": "node/297661154", "group": "Altro", "subgroup": "Altro", "subcategory": "Altro"}, "geometry": {"type": "Point", "coordinates": [13.788611, 45.6875]}}, {"type": "Feature", "properties": {"wikidata": "Q640031", "name": "stadio Friuli", "status": "done", "osm_id": "way/566753907", "group": "Cultura e tempo libero", "subgroup": "Sport", "subcategory": "Impianto sportivo"}, "geometry": {"type": "Point", "coordinates": [13.200136, 46.081603]}}, {"type": "Feature", "properties": {"wikidata": "Q498125", "name": "Camporosso", "status": "done", "osm_id": "node/1695341453", "group": "Insediamenti", "subgroup": "Centri", "subcategory": "Frazione"}, "geometry": {"type": "Point", "coordinates": [13.53306, 46.51]}}, {"type": "Feature", "properties": {"wikidata": "Q706626", "name": "Timau", "status": "done", "osm_id": "node/468216285", "group": "Insediamenti", "subgroup": "Centri", "subcategory": "Frazione"}, "geometry": {"type": "Point", "coordinates": [13.00507, 46.58358]}}, {"type": "Feature", "properties": {"wikidata": "Q443118", "name": "Friuli Isonzo DOC", "status": "missing", "osm_id": null, "group": "Altro", "subgroup": "Altro", "subcategory": "Altro"}, "geometry": {"type": "Point", "coordinates": [13.807, 45.641]}}, {"type": "Feature", "properties": {"wikidata": "Q683241", "name": "parco naturale delle Dolomiti Friulane", "status": "done", "osm_id": "way/43721496", "group": "Natura e paesaggio", "subgroup": "Verde", "subcategory": "Area protetta"}, "geometry": {"type": "Point", "coordinates": [12.56673, 46.3383]}}, {"type": "Feature", "properties": {"wikidata": "Q165069", "name": "Castello di Miramare", "status": "done", "osm_id": "way/361092895", "group": "Fortificazioni e militare", "subgroup": "Fortificazioni", "subcategory": "Castello"}, "geometry": {"type": "Point", "coordinates": [13.712318, 45.702454]}}, {"type": "Feature", "properties": {"wikidata": "Q893154", "name": "Aeroporto di Trieste-Ronchi dei Legionari", "status": "done", "osm_id": "way/928943117", "group": "Infrastrutture", "subgroup": "Trasporti", "subcategory": "Aeroporto"}, "geometry": {"type": "Point", "coordinates": [13.48557, 45.82123]}}, {"type": "Feature", "properties": {"wikidata": "Q676254", "name": "Bagnoli della Rosandra", "status": "done", "osm_id": "node/1620313834", "group": "Insediamenti", "subgroup": "Centri", "subcategory": "Frazione"}, "geometry": {"type": "Point", "coordinates": [13.858055555, 45.613333333]}}, {"type": "Feature", "properties": {"wikidata": "Q660390", "name": "Alpi Carniche", "status": "done", "osm_id": "relation/2515873", "group": "Altro", "subgroup": "Altro", "subcategory": "Altro"}, "geometry": {"type": "Point", "coordinates": [13.0, 46.5]}}, {"type": "Feature", "properties": {"wikidata": "Q1941981", "name": "Tarcetta", "status": "done", "osm_id": "node/540366838", "group": "Insediamenti", "subgroup": "Centri", "subcategory": "Frazione"}, "geometry": {"type": "Point", "coordinates": [13.478888888, 46.158888888]}}, {"type": "Feature", "properties": {"wikidata": "Q2256594", "name": "Aurisina", "status": "done", "osm_id": "node/66503048", "group": "Insediamenti", "subgroup": "Centri", "subcategory": "Frazione"}, "geometry": {"type": "Point", "coordinates": [13.67458611, 45.750375]}}, {"type": "Feature", "properties": {"wikidata": "Q1779436", "name": "Creta di Collina", "status": "done", "osm_id": "node/2545662733", "group": "Natura e paesaggio", "subgroup": "Montagna", "subcategory": "Montagna"}, "geometry": {"type": "Point", "coordinates": [12.908026, 46.608183]}}, {"type": "Feature", "properties": {"wikidata": "Q1675490", "name": "Iutizzo", "status": "done", "osm_id": "node/474375889", "group": "Insediamenti", "subgroup": "Centri", "subcategory": "Frazione"}, "geometry": {"type": "Point", "coordinates": [12.97138889, 45.94638889]}}, {"type": "Feature", "properties": {"wikidata": "Q1894831", "name": "Poffabro", "status": "done", "osm_id": "node/1440918954", "group": "Insediamenti", "subgroup": "Centri", "subcategory": "Frazione"}, "geometry": {"type": "Point", "coordinates": [12.707777777, 46.216944444]}}, {"type": "Feature", "properties": {"wikidata": "Q1969658", "name": "Natisone", "status": "done", "osm_id": "relation/2219644", "group": "Natura e paesaggio", "subgroup": "Acqua", "subcategory": "Fiume"}, "geometry": {"type": "Point", "coordinates": [13.3647, 45.9453]}}, {"type": "Feature", "properties": {"wikidata": "Q1954272", "name": "Civico museo Sartorio", "status": "done", "osm_id": "way/36414869", "group": "Cultura e tempo libero", "subgroup": "Musei", "subcategory": "Museo d'arte"}, "geometry": {"type": "Point", "coordinates": [13.763166, 45.645706]}}, {"type": "Feature", "properties": {"wikidata": "Q1611344", "name": "foiba di Basovizza", "status": "done", "osm_id": "way/36438742", "group": "Monumenti", "subgroup": "Monumenti", "subcategory": "Monumento ai caduti"}, "geometry": {"type": "Point", "coordinates": [13.864163, 45.634286]}}, {"type": "Feature", "properties": {"wikidata": "Q2258943", "name": "Strassoldo", "status": "done", "osm_id": "node/1694414347", "group": "Insediamenti", "subgroup": "Centri", "subcategory": "Frazione"}, "geometry": {"type": "Point", "coordinates": [13.32234, 45.86013]}}, {"type": "Feature", "properties": {"wikidata": "Q2227652", "name": "Ternova", "status": "done", "osm_id": "node/477226096", "group": "Insediamenti", "subgroup": "Centri", "subcategory": "Frazione"}, "geometry": {"type": "Point", "coordinates": [13.70583, 45.76583]}}, {"type": "Feature", "properties": {"wikidata": "Q2189733", "name": "San Odorico", "status": "done", "osm_id": "node/4128688361", "group": "Insediamenti", "subgroup": "Centri", "subcategory": "Frazione"}, "geometry": {"type": "Point", "coordinates": [12.505816666, 45.948411111]}}, {"type": "Feature", "properties": {"wikidata": "Q1679608", "name": "Museo teatrale Carlo Schmidl", "status": "done", "osm_id": "node/2616620168", "group": "Altro", "subgroup": "Altro", "subcategory": "Altro"}, "geometry": {"type": "Point", "coordinates": [13.77056, 45.652912]}}, {"type": "Feature", "properties": {"wikidata": "Q1940144", "name": "Museo postale e telegrafico della Mitteleuropa", "status": "done", "osm_id": "node/2626437448", "group": "Cultura e tempo libero", "subgroup": "Musei", "subcategory": "Museo"}, "geometry": {"type": "Point", "coordinates": [13.77277778, 45.65444444]}}, {"type": "Feature", "properties": {"wikidata": "Q2220049", "name": "basilica del Cristo Salvatore", "status": "done", "osm_id": "way/36684628", "group": "Altro", "subgroup": "Altro", "subcategory": "Altro"}, "geometry": {"type": "Point", "coordinates": [13.768986, 45.648245]}}, {"type": "Feature", "properties": {"wikidata": "Q1751060", "name": "Universit\u00e0 di Trieste", "status": "done", "osm_id": "way/171519490", "group": "Altro", "subgroup": "Altro", "subcategory": "Altro"}, "geometry": {"type": "Point", "coordinates": [13.79318, 45.6585]}}, {"type": "Feature", "properties": {"wikidata": "Q2271750", "name": "Creta Forata", "status": "done", "osm_id": "node/26863839", "group": "Natura e paesaggio", "subgroup": "Montagna", "subcategory": "Montagna"}, "geometry": {"type": "Point", "coordinates": [12.73333333, 46.53333333]}}, {"type": "Feature", "properties": {"wikidata": "Q1645600", "name": "piazza Unit\u00e0 d'Italia", "status": "missing", "osm_id": null, "group": "Insediamenti", "subgroup": "Zone Urbane", "subcategory": "Piazza"}, "geometry": {"type": "Point", "coordinates": [13.76786111, 45.65]}}, {"type": "Feature", "properties": {"wikidata": "Q2254319", "name": "J\u00f4f Fuart", "status": "done", "osm_id": "node/5016712753", "group": "Natura e paesaggio", "subgroup": "Montagna", "subcategory": "Montagna"}, "geometry": {"type": "Point", "coordinates": [13.49389, 46.43083]}}, {"type": "Feature", "properties": {"wikidata": "Q2198780", "name": "Grignano", "status": "done", "osm_id": "node/574445027", "group": "Insediamenti", "subgroup": "Centri", "subcategory": "Frazione"}, "geometry": {"type": "Point", "coordinates": [13.71456, 45.70825]}}, {"type": "Feature", "properties": {"wikidata": "Q1867244", "name": "Correda", "status": "done", "osm_id": "node/9893673849", "group": "Insediamenti", "subgroup": "Centri", "subcategory": "Frazione"}, "geometry": {"type": "Point", "coordinates": [13.5, 46.133333333]}}, {"type": "Feature", "properties": {"wikidata": "Q1954273", "name": "Museo Revoltella", "status": "done", "osm_id": "way/36414868", "group": "Cultura e tempo libero", "subgroup": "Musei", "subcategory": "Museo d'arte"}, "geometry": {"type": "Point", "coordinates": [13.76305556, 45.64694444]}}, {"type": "Feature", "properties": {"wikidata": "Q2196635", "name": "Ceroglie", "status": "done", "osm_id": "node/357326929", "group": "Insediamenti", "subgroup": "Centri", "subcategory": "Frazione"}, "geometry": {"type": "Point", "coordinates": [13.75, 45.733333333]}}, {"type": "Feature", "properties": {"wikidata": "Q1805233", "name": "Vajont", "status": "done", "osm_id": "relation/6614422", "group": "Natura e paesaggio", "subgroup": "Acqua", "subcategory": "Fiume"}, "geometry": {"type": "Point", "coordinates": [12.309451, 46.265217]}}, {"type": "Feature", "properties": {"wikidata": "Q2095539", "name": "Casso", "status": "done", "osm_id": "node/286323328", "group": "Insediamenti", "subgroup": "Centri", "subcategory": "Frazione"}, "geometry": {"type": "Point", "coordinates": [12.331944444, 46.271666666]}}, {"type": "Feature", "properties": {"wikidata": "Q2244652", "name": "Villaggio del Pescatore", "status": "done", "osm_id": "node/357319976", "group": "Insediamenti", "subgroup": "Centri", "subcategory": "Frazione"}, "geometry": {"type": "Point", "coordinates": [13.5875, 45.781111111]}}, {"type": "Feature", "properties": {"wikidata": "Q1816834", "name": "Lemene", "status": "done", "osm_id": "relation/3205584", "group": "Natura e paesaggio", "subgroup": "Acqua", "subcategory": "Fiume"}, "geometry": {"type": "Point", "coordinates": [12.89055556, 45.62972222]}}, {"type": "Feature", "properties": {"wikidata": "Q1805580", "name": "Lanterna di Trieste", "status": "done", "osm_id": "way/36428916", "group": "Infrastrutture", "subgroup": "Trasporti", "subcategory": "Faro"}, "geometry": {"type": "Point", "coordinates": [13.756029, 45.649125]}}, {"type": "Feature", "properties": {"wikidata": "Q1890215", "name": "Mangart", "status": "done", "osm_id": "node/474849673", "group": "Natura e paesaggio", "subgroup": "Montagna", "subcategory": "Montagna"}, "geometry": {"type": "Point", "coordinates": [13.653888888, 46.44]}}, {"type": "Feature", "properties": {"wikidata": "Q1567848", "name": "porto di Trieste", "status": "missing", "osm_id": null, "group": "Infrastrutture", "subgroup": "Trasporti", "subcategory": "Porto"}, "geometry": {"type": "Point", "coordinates": [13.774, 45.63647]}}, {"type": "Feature", "properties": {"wikidata": "Q1736225", "name": "cattedrale di San Giusto", "status": "done", "osm_id": "way/36684626", "group": "Religione", "subgroup": "Luoghi di Culto", "subcategory": "Basilica minore"}, "geometry": {"type": "Point", "coordinates": [13.7725, 45.646389]}}, {"type": "Feature", "properties": {"wikidata": "Q1723626", "name": "Val Canale", "status": "done", "osm_id": "way/545866832", "group": "Natura e paesaggio", "subgroup": "Montagna", "subcategory": "Valle"}, "geometry": {"type": "Point", "coordinates": [13.404444444, 46.493055555]}}, {"type": "Feature", "properties": {"wikidata": "Q1636858", "name": "Laglesie San Leopoldo", "status": "missing", "osm_id": null, "group": "Insediamenti", "subgroup": "Centri", "subcategory": "Frazione"}, "geometry": {"type": "Point", "coordinates": [13.34777778, 46.50861111]}}, {"type": "Feature", "properties": {"wikidata": "Q1699950", "name": "Sistiana", "status": "done", "osm_id": "node/297661360", "group": "Insediamenti", "subgroup": "Centri", "subcategory": "Frazione"}, "geometry": {"type": "Point", "coordinates": [13.63824, 45.77237]}}, {"type": "Feature", "properties": {"wikidata": "Q2152681", "name": "rifugio Celso Gilberti", "status": "done", "osm_id": "way/36051557", "group": "Dimore ed edifici", "subgroup": "Ospitalit\u00e0", "subcategory": "Rifugio di montagna"}, "geometry": {"type": "Point", "coordinates": [13.461266, 46.371866]}}, {"type": "Feature", "properties": {"wikidata": "Q2294135", "name": "Teatro Verdi", "status": "done", "osm_id": "way/36437344", "group": "Cultura e tempo libero", "subgroup": "Spettacolo", "subcategory": "Teatro d'opera"}, "geometry": {"type": "Point", "coordinates": [13.7687, 45.6509]}}, {"type": "Feature", "properties": {"wikidata": "Q1759191", "name": "J\u00f4f di Montasio", "status": "done", "osm_id": "node/26863280", "group": "Natura e paesaggio", "subgroup": "Montagna", "subcategory": "Montagna"}, "geometry": {"type": "Point", "coordinates": [13.433333333, 46.437777777]}}, {"type": "Feature", "properties": {"wikidata": "Q2005940", "name": "Basovizza", "status": "done", "osm_id": "node/297662093", "group": "Insediamenti", "subgroup": "Centri", "subcategory": "Frazione"}, "geometry": {"type": "Point", "coordinates": [13.86333, 45.64167]}}, {"type": "Feature", "properties": {"wikidata": "Q1746657", "name": "Pal Piccolo", "status": "done", "osm_id": "node/1827030713", "group": "Natura e paesaggio", "subgroup": "Montagna", "subcategory": "Montagna"}, "geometry": {"type": "Point", "coordinates": [12.957823, 46.606397]}}, {"type": "Feature", "properties": {"wikidata": "Q2152705", "name": "rifugio Fratelli Grego", "status": "done", "osm_id": "way/36020837", "group": "Dimore ed edifici", "subgroup": "Ospitalit\u00e0", "subcategory": "Rifugio di montagna"}, "geometry": {"type": "Point", "coordinates": [13.44916667, 46.46361111]}}, {"type": "Feature", "properties": {"wikidata": "Q1853837", "name": "Collegio del Mondo Unito dell'Adriatico", "status": "done", "osm_id": "node/3964946860", "group": "Altro", "subgroup": "Altro", "subcategory": "Altro"}, "geometry": {"type": "Point", "coordinates": [13.6053, 45.7733]}}, {"type": "Feature", "properties": {"wikidata": "Q1892354", "name": "Maratona d'Europa", "status": "missing", "osm_id": null, "group": "Altro", "subgroup": "Altro", "subcategory": "Altro"}, "geometry": {"type": "Point", "coordinates": [13.76777778, 45.64972222]}}, {"type": "Feature", "properties": {"wikidata": "Q2152720", "name": "rifugio Mario Premuda", "status": "done", "osm_id": "way/36416673", "group": "Dimore ed edifici", "subgroup": "Ospitalit\u00e0", "subcategory": "Rifugio di montagna"}, "geometry": {"type": "Point", "coordinates": [13.86555556, 45.61916667]}}, {"type": "Feature", "properties": {"wikidata": "Q2307935", "name": "Universit\u00e0 degli Studi di Udine", "status": "done", "osm_id": "node/2942706599", "group": "Altro", "subgroup": "Altro", "subcategory": "Altro"}, "geometry": {"type": "Point", "coordinates": [13.211666666, 46.080833333]}}, {"type": "Feature", "properties": {"wikidata": "Q2293440", "name": "Ronche", "status": "done", "osm_id": "node/4128688359", "group": "Insediamenti", "subgroup": "Centri", "subcategory": "Frazione"}, "geometry": {"type": "Point", "coordinates": [12.48333333, 45.96666667]}}, {"type": "Feature", "properties": {"wikidata": "Q1858676", "name": "Paradiso", "status": "done", "osm_id": "node/1012099937", "group": "Insediamenti", "subgroup": "Centri", "subcategory": "Frazione"}, "geometry": {"type": "Point", "coordinates": [13.14601, 45.86875]}}, {"type": "Feature", "properties": {"wikidata": "Q2171290", "name": "Rozzol Melara", "status": "done", "osm_id": "node/302944801", "group": "Insediamenti", "subgroup": "Zone Urbane", "subcategory": "Quartiere"}, "geometry": {"type": "Point", "coordinates": [13.82472222, 45.63916667]}}, {"type": "Feature", "properties": {"wikidata": "Q1547628", "name": "Grotta Gigante", "status": "done", "osm_id": "relation/11150131", "group": "Altro", "subgroup": "Altro", "subcategory": "Altro"}, "geometry": {"type": "Point", "coordinates": [13.763830555, 45.709216666]}}, {"type": "Feature", "properties": {"wikidata": "Q1954243", "name": "Museo ferroviario di Trieste Campo Marzio", "status": "done", "osm_id": "node/296398807", "group": "Altro", "subgroup": "Altro", "subcategory": "Altro"}, "geometry": {"type": "Point", "coordinates": [13.755, 45.64611111]}}, {"type": "Feature", "properties": {"wikidata": "Q2219848", "name": "chiesa di San Nicol\u00f2", "status": "done", "osm_id": "way/36684707", "group": "Religione", "subgroup": "Luoghi di Culto", "subcategory": "Chiesa"}, "geometry": {"type": "Point", "coordinates": [13.769216, 45.651578]}}, {"type": "Feature", "properties": {"wikidata": "Q2276731", "name": "castello di Duino", "status": "done", "osm_id": "relation/7353424", "group": "Fortificazioni e militare", "subgroup": "Fortificazioni", "subcategory": "Castello"}, "geometry": {"type": "Point", "coordinates": [13.603923, 45.771781]}}, {"type": "Feature", "properties": {"wikidata": "Q1627980", "name": "stadio Giuseppe Grezar", "status": "done", "osm_id": "way/219812110", "group": "Cultura e tempo libero", "subgroup": "Sport", "subcategory": "Impianto sportivo"}, "geometry": {"type": "Point", "coordinates": [13.79425764, 45.62381518]}}, {"type": "Feature", "properties": {"wikidata": "Q1723772", "name": "Monte Canin", "status": "done", "osm_id": "node/26863316", "group": "Natura e paesaggio", "subgroup": "Montagna", "subcategory": "Montagna"}, "geometry": {"type": "Point", "coordinates": [13.439027777, 46.360083333]}}, {"type": "Feature", "properties": {"wikidata": "Q1943649", "name": "Molo Sartorio", "status": "missing", "osm_id": null, "group": "Altro", "subgroup": "Altro", "subcategory": "Altro"}, "geometry": {"type": "Point", "coordinates": [13.759867, 45.646867]}}, {"type": "Feature", "properties": {"wikidata": "Q1675457", "name": "Creta delle Chianevate", "status": "done", "osm_id": "node/2409093301", "group": "Natura e paesaggio", "subgroup": "Montagna", "subcategory": "Montagna"}, "geometry": {"type": "Point", "coordinates": [12.9, 46.6092]}}, {"type": "Feature", "properties": {"wikidata": "Q1942504", "name": "Moggessa di L\u00e0", "status": "done", "osm_id": "node/1617738008", "group": "Insediamenti", "subgroup": "Centri", "subcategory": "Insediamento umano"}, "geometry": {"type": "Point", "coordinates": [13.15076944, 46.42166111]}}, {"type": "Feature", "properties": {"wikidata": "Q2195498", "name": "Monte Chiadenis", "status": "done", "osm_id": "node/1572677722", "group": "Natura e paesaggio", "subgroup": "Montagna", "subcategory": "Montagna"}, "geometry": {"type": "Point", "coordinates": [12.728056, 46.626944]}}, {"type": "Feature", "properties": {"wikidata": "Q3621027", "name": "Aprilia Marittima", "status": "done", "osm_id": "node/564669829", "group": "Insediamenti", "subgroup": "Centri", "subcategory": "Frazione"}, "geometry": {"type": "Point", "coordinates": [13.06875, 45.6925]}}, {"type": "Feature", "properties": {"wikidata": "Q3548471", "name": "Val Resia", "status": "missing", "osm_id": null, "group": "Natura e paesaggio", "subgroup": "Montagna", "subcategory": "Valle"}, "geometry": {"type": "Point", "coordinates": [13.33, 46.36]}}, {"type": "Feature", "properties": {"wikidata": "Q3624645", "name": "Arupacupa", "status": "missing", "osm_id": null, "group": "Natura e paesaggio", "subgroup": "Montagna", "subcategory": "Collina"}, "geometry": {"type": "Point", "coordinates": [13.569352777, 45.821525]}}, {"type": "Feature", "properties": {"wikidata": "Q3439662", "name": "Colloredo di Prato", "status": "done", "osm_id": "node/443011116", "group": "Insediamenti", "subgroup": "Centri", "subcategory": "Frazione"}, "geometry": {"type": "Point", "coordinates": [13.14394, 46.05124]}}, {"type": "Feature", "properties": {"wikidata": "Q2949733", "name": "Sterpo", "status": "done", "osm_id": "node/1333892489", "group": "Insediamenti", "subgroup": "Centri", "subcategory": "Frazione"}, "geometry": {"type": "Point", "coordinates": [13.05089, 45.90431]}}, {"type": "Feature", "properties": {"wikidata": "Q3640262", "name": "Biotopo palude di Cima Corso", "status": "done", "osm_id": "relation/3640495", "group": "Natura e paesaggio", "subgroup": "Verde", "subcategory": "Area protetta"}, "geometry": {"type": "Point", "coordinates": [12.7446, 46.39549]}}, {"type": "Feature", "properties": {"wikidata": "Q3045561", "name": "duomo di Pordenone", "status": "done", "osm_id": "way/36685878", "group": "Altro", "subgroup": "Altro", "subcategory": "Altro"}, "geometry": {"type": "Point", "coordinates": [12.66083, 45.95433]}}, {"type": "Feature", "properties": {"wikidata": "Q3621786", "name": "Arco di Riccardo", "status": "done", "osm_id": "way/928923867", "group": "Archeologia", "subgroup": "Siti", "subcategory": "Sito archeologico"}, "geometry": {"type": "Point", "coordinates": [13.768900391, 45.647809126]}}, {"type": "Feature", "properties": {"wikidata": "Q3388241", "name": "pieve di San Pietro in Carnia", "status": "missing", "osm_id": null, "group": "Altro", "subgroup": "Altro", "subcategory": "Altro"}, "geometry": {"type": "Point", "coordinates": [13.0156, 46.4683]}}, {"type": "Feature", "properties": {"wikidata": "Q3635515", "name": "Basaldella", "status": "done", "osm_id": "node/749251917", "group": "Insediamenti", "subgroup": "Centri", "subcategory": "Frazione"}, "geometry": {"type": "Point", "coordinates": [13.205555555, 46.027777777]}}, {"type": "Feature", "properties": {"wikidata": "Q3396382", "name": "Prosecco", "status": "done", "osm_id": "node/297657694", "group": "Insediamenti", "subgroup": "Centri", "subcategory": "Frazione"}, "geometry": {"type": "Point", "coordinates": [13.73361111, 45.7075]}}, {"type": "Feature", "properties": {"wikidata": "Q3603202", "name": "abbazia di Rosazzo", "status": "done", "osm_id": "way/36195580", "group": "Religione", "subgroup": "Vita Monastica", "subcategory": "Abbazia"}, "geometry": {"type": "Point", "coordinates": [13.421331, 46.008125]}}, {"type": "Feature", "properties": {"wikidata": "Q3640268", "name": "Biotopo risorgive di Flambro", "status": "done", "osm_id": "way/157598948", "group": "Natura e paesaggio", "subgroup": "Verde", "subcategory": "Area protetta"}, "geometry": {"type": "Point", "coordinates": [13.0701, 45.9224]}}, {"type": "Feature", "properties": {"wikidata": "Q3631597", "name": "Azzida", "status": "done", "osm_id": "node/357361007", "group": "Insediamenti", "subgroup": "Centri", "subcategory": "Frazione"}, "geometry": {"type": "Point", "coordinates": [13.4910307, 46.1181034]}}, {"type": "Feature", "properties": {"wikidata": "Q3297571", "name": "Masseris", "status": "done", "osm_id": "node/356759500", "group": "Insediamenti", "subgroup": "Centri", "subcategory": "Frazione"}, "geometry": {"type": "Point", "coordinates": [13.550737, 46.183801]}}, {"type": "Feature", "properties": {"wikidata": "Q3629887", "name": "Ausa", "status": "done", "osm_id": "relation/15687527", "group": "Natura e paesaggio", "subgroup": "Acqua", "subcategory": "Fiume"}, "geometry": {"type": "Point", "coordinates": [13.3428, 45.8598]}}, {"type": "Feature", "properties": {"wikidata": "Q3334360", "name": "Gropada", "status": "done", "osm_id": "node/516026023", "group": "Insediamenti", "subgroup": "Centri", "subcategory": "Frazione"}, "geometry": {"type": "Point", "coordinates": [13.848888888, 45.665277777]}}, {"type": "Feature", "properties": {"wikidata": "Q3006145", "name": "San Pelagio", "status": "done", "osm_id": "node/357328651", "group": "Insediamenti", "subgroup": "Centri", "subcategory": "Frazione"}, "geometry": {"type": "Point", "coordinates": [13.68687, 45.76468]}}, {"type": "Feature", "properties": {"wikidata": "Q3640270", "name": "Biotopo risorgive di Zarnicco", "status": "done", "osm_id": "way/131391520", "group": "Natura e paesaggio", "subgroup": "Verde", "subcategory": "Area protetta"}, "geometry": {"type": "Point", "coordinates": [13.0678, 45.893]}}, {"type": "Feature", "properties": {"wikidata": "Q3640273", "name": "Biotopo torbiera di Curiedi", "status": "done", "osm_id": "relation/3594487", "group": "Natura e paesaggio", "subgroup": "Verde", "subcategory": "Area protetta"}, "geometry": {"type": "Point", "coordinates": [12.98098, 46.42597]}}, {"type": "Feature", "properties": {"wikidata": "Q3265988", "name": "Slivia", "status": "done", "osm_id": "node/440168255", "group": "Insediamenti", "subgroup": "Centri", "subcategory": "Frazione"}, "geometry": {"type": "Point", "coordinates": [13.66467, 45.77135]}}, {"type": "Feature", "properties": {"wikidata": "Q3603284", "name": "abbazia di Santa Maria in Sylvis", "status": "missing", "osm_id": null, "group": "Religione", "subgroup": "Vita Monastica", "subcategory": "Abbazia"}, "geometry": {"type": "Point", "coordinates": [12.81626, 45.84849]}}, {"type": "Feature", "properties": {"wikidata": "Q2859274", "name": "Aquileia antica", "status": "missing", "osm_id": null, "group": "Altro", "subgroup": "Altro", "subcategory": "Altro"}, "geometry": {"type": "Point", "coordinates": [13.364601, 45.768259]}}, {"type": "Feature", "properties": {"wikidata": "Q2859841", "name": "Arco Bollani", "status": "done", "osm_id": "node/546613003", "group": "Altro", "subgroup": "Altro", "subcategory": "Altro"}, "geometry": {"type": "Point", "coordinates": [13.235652777, 46.063816666]}}, {"type": "Feature", "properties": {"wikidata": "Q3596102", "name": "Museo di arte moderna e contemporanea", "status": "done", "osm_id": "relation/159909", "group": "Cultura e tempo libero", "subgroup": "Archivi", "subcategory": "Archivio"}, "geometry": {"type": "Point", "coordinates": [13.23511944, 46.062425]}}, {"type": "Feature", "properties": {"wikidata": "Q3640265", "name": "Biotopo paludi del Corno", "status": "done", "osm_id": "relation/1767897", "group": "Natura e paesaggio", "subgroup": "Verde", "subcategory": "Area protetta"}, "geometry": {"type": "Point", "coordinates": [13.2235, 45.8842]}}, {"type": "Feature", "properties": {"wikidata": "Q3360741", "name": "PalaTrieste", "status": "done", "osm_id": "way/1213831712", "group": "Altro", "subgroup": "Altro", "subcategory": "Altro"}, "geometry": {"type": "Point", "coordinates": [13.794956, 45.622775]}}, {"type": "Feature", "properties": {"wikidata": "Q3603723", "name": "Abisso di Trebiciano", "status": "done", "osm_id": "node/2575508827", "group": "Natura e paesaggio", "subgroup": "Montagna", "subcategory": "Grotta"}, "geometry": {"type": "Point", "coordinates": [13.8335, 45.6853]}}, {"type": "Feature", "properties": {"wikidata": "Q3640266", "name": "Biotopo prati di Col San Floreano", "status": "done", "osm_id": "way/133880256", "group": "Natura e paesaggio", "subgroup": "Verde", "subcategory": "Area protetta"}, "geometry": {"type": "Point", "coordinates": [13.0564, 46.1422]}}, {"type": "Feature", "properties": {"wikidata": "Q3640260", "name": "Biotopo magredi di San Quirino", "status": "missing", "osm_id": null, "group": "Natura e paesaggio", "subgroup": "Verde", "subcategory": "Area protetta"}, "geometry": {"type": "Point", "coordinates": [12.718665836, 46.031101581]}}, {"type": "Feature", "properties": {"wikidata": "Q3640263", "name": "Biotopo palude di Fontana Abisso", "status": "done", "osm_id": "way/131479999", "group": "Natura e paesaggio", "subgroup": "Verde", "subcategory": "Area protetta"}, "geometry": {"type": "Point", "coordinates": [13.0935, 46.2016]}}, {"type": "Feature", "properties": {"wikidata": "Q3639634", "name": "Biblioteca civica Vincenzo Joppi", "status": "done", "osm_id": "node/3208150087", "group": "Cultura e tempo libero", "subgroup": "Biblioteche", "subcategory": "Biblioteca pubblica"}, "geometry": {"type": "Point", "coordinates": [13.2346, 46.065]}}, {"type": "Feature", "properties": {"wikidata": "Q3640269", "name": "Biotopo risorgive di Virco", "status": "done", "osm_id": "way/131388152", "group": "Natura e paesaggio", "subgroup": "Verde", "subcategory": "Area protetta"}, "geometry": {"type": "Point", "coordinates": [13.0716, 45.9257]}}, {"type": "Feature", "properties": {"wikidata": "Q3575761", "name": "area archeologica e basilica patriarcale di Aquileia", "status": "missing", "osm_id": null, "group": "Altro", "subgroup": "Altro", "subcategory": "Altro"}, "geometry": {"type": "Point", "coordinates": [13.3675, 45.7683]}}, {"type": "Feature", "properties": {"wikidata": "Q3547904", "name": "Torre", "status": "done", "osm_id": "relation/2219650", "group": "Natura e paesaggio", "subgroup": "Acqua", "subcategory": "Fiume"}, "geometry": {"type": "Point", "coordinates": [13.3609, 46.2975]}}, {"type": "Feature", "properties": {"wikidata": "Q3640271", "name": "Biotopo torbiera Scichizza", "status": "done", "osm_id": "relation/2926394", "group": "Natura e paesaggio", "subgroup": "Verde", "subcategory": "Area protetta"}, "geometry": {"type": "Point", "coordinates": [13.6788, 46.4923]}}, {"type": "Feature", "properties": {"wikidata": "Q2987906", "name": "Zugliano", "status": "done", "osm_id": "node/749258638", "group": "Insediamenti", "subgroup": "Centri", "subcategory": "Frazione"}, "geometry": {"type": "Point", "coordinates": [13.196944444, 45.984722222]}}, {"type": "Feature", "properties": {"wikidata": "Q2934857", "name": "Creta di Aip", "status": "done", "osm_id": "node/26864964", "group": "Natura e paesaggio", "subgroup": "Montagna", "subcategory": "Montagna"}, "geometry": {"type": "Point", "coordinates": [13.216562, 46.570541]}}, {"type": "Feature", "properties": {"wikidata": "Q3640274", "name": "Biotopo torbiera di Lazzacco", "status": "done", "osm_id": "way/1498154155", "group": "Natura e paesaggio", "subgroup": "Verde", "subcategory": "Area protetta"}, "geometry": {"type": "Point", "coordinates": [13.1631, 46.1316]}}, {"type": "Feature", "properties": {"wikidata": "Q3382256", "name": "Piazza Libert\u00e0", "status": "done", "osm_id": "way/924935041", "group": "Insediamenti", "subgroup": "Zone Urbane", "subcategory": "Piazza"}, "geometry": {"type": "Point", "coordinates": [13.23578, 46.063366]}}, {"type": "Feature", "properties": {"wikidata": "Q3322593", "name": "Monteaperta", "status": "done", "osm_id": "node/1753712978", "group": "Insediamenti", "subgroup": "Centri", "subcategory": "Frazione"}, "geometry": {"type": "Point", "coordinates": [13.31231, 46.27272]}}, {"type": "Feature", "properties": {"wikidata": "Q3640275", "name": "Biotopo torbiera di Pramollo", "status": "done", "osm_id": "relation/3640496", "group": "Natura e paesaggio", "subgroup": "Verde", "subcategory": "Area protetta"}, "geometry": {"type": "Point", "coordinates": [13.2776, 46.5557]}}, {"type": "Feature", "properties": {"wikidata": "Q3624709", "name": "Arzino", "status": "done", "osm_id": "relation/6133677", "group": "Natura e paesaggio", "subgroup": "Acqua", "subcategory": "Fiume"}, "geometry": {"type": "Point", "coordinates": [12.960833333, 46.194444444]}}, {"type": "Feature", "properties": {"wikidata": "Q3620547", "name": "Aonedis", "status": "done", "osm_id": "node/3891438236", "group": "Insediamenti", "subgroup": "Centri", "subcategory": "Frazione"}, "geometry": {"type": "Point", "coordinates": [12.963333333, 46.149166666]}}, {"type": "Feature", "properties": {"wikidata": "Q3640261", "name": "Biotopo palude del Fiume Cavana", "status": "missing", "osm_id": null, "group": "Natura e paesaggio", "subgroup": "Verde", "subcategory": "Area protetta"}, "geometry": {"type": "Point", "coordinates": [13.5306, 45.7818]}}, {"type": "Feature", "properties": {"wikidata": "Q3295004", "name": "Marseu", "status": "missing", "osm_id": null, "group": "Insediamenti", "subgroup": "Centri", "subcategory": "Frazione"}, "geometry": {"type": "Point", "coordinates": [13.48444, 46.17333]}}, {"type": "Feature", "properties": {"wikidata": "Q3635770", "name": "basilica di Santa Maria delle Grazie", "status": "done", "osm_id": "way/36684669", "group": "Religione", "subgroup": "Luoghi di Culto", "subcategory": "Chiesa"}, "geometry": {"type": "Point", "coordinates": [13.38475, 45.67678]}}, {"type": "Feature", "properties": {"wikidata": "Q3516775", "name": "Teatro Verdi", "status": "missing", "osm_id": null, "group": "Cultura e tempo libero", "subgroup": "Spettacolo", "subcategory": "Teatro"}, "geometry": {"type": "Point", "coordinates": [12.66096, 45.95745]}}, {"type": "Feature", "properties": {"wikidata": "Q3374394", "name": "trampolino Fratelli Nogara", "status": "done", "osm_id": "relation/4602467", "group": "Altro", "subgroup": "Altro", "subcategory": "Altro"}, "geometry": {"type": "Point", "coordinates": [13.425, 46.49583333]}}, {"type": "Feature", "properties": {"wikidata": "Q3636803", "name": "battistero di Grado", "status": "done", "osm_id": "way/36684667", "group": "Religione", "subgroup": "Luoghi di Culto", "subcategory": "Chiesa"}, "geometry": {"type": "Point", "coordinates": [13.3853, 45.6767]}}, {"type": "Feature", "properties": {"wikidata": "Q3547923", "name": "Cabia", "status": "done", "osm_id": "node/604393853", "group": "Insediamenti", "subgroup": "Centri", "subcategory": "Frazione"}, "geometry": {"type": "Point", "coordinates": [13.03917, 46.46722]}}, {"type": "Feature", "properties": {"wikidata": "Q3322580", "name": "Monte Siera", "status": "done", "osm_id": "node/2406419143", "group": "Natura e paesaggio", "subgroup": "Montagna", "subcategory": "Montagna"}, "geometry": {"type": "Point", "coordinates": [12.676388888, 46.558055555]}}, {"type": "Feature", "properties": {"wikidata": "Q2972662", "name": "cimitero degli Invitti", "status": "done", "osm_id": "node/2428988695", "group": "Religione", "subgroup": "Cimiteri", "subcategory": "Cimitero"}, "geometry": {"type": "Point", "coordinates": [13.48488, 45.84896]}}, {"type": "Feature", "properties": {"wikidata": "Q3640264", "name": "Biotopo palude di Fraghis", "status": "done", "osm_id": "way/131569425", "group": "Natura e paesaggio", "subgroup": "Verde", "subcategory": "Area protetta"}, "geometry": {"type": "Point", "coordinates": [13.2266, 45.8674]}}, {"type": "Feature", "properties": {"wikidata": "Q3640267", "name": "Biotopo risorgive di Codroipo", "status": "missing", "osm_id": null, "group": "Natura e paesaggio", "subgroup": "Verde", "subcategory": "Area protetta"}, "geometry": {"type": "Point", "coordinates": [12.9873, 45.9442]}}, {"type": "Feature", "properties": {"wikidata": "Q3606892", "name": "Agrons", "status": "done", "osm_id": "node/1297033849", "group": "Insediamenti", "subgroup": "Centri", "subcategory": "Frazione"}, "geometry": {"type": "Point", "coordinates": [12.86364, 46.47177]}}, {"type": "Feature", "properties": {"wikidata": "Q3548146", "name": "Monte B\u00ecvera", "status": "done", "osm_id": "node/26863797", "group": "Natura e paesaggio", "subgroup": "Montagna", "subcategory": "Montagna"}, "geometry": {"type": "Point", "coordinates": [12.64199, 46.44135]}}, {"type": "Feature", "properties": {"wikidata": "Q3603217", "name": "abbazia di San Gallo", "status": "done", "osm_id": "relation/159201", "group": "Religione", "subgroup": "Vita Monastica", "subcategory": "Abbazia"}, "geometry": {"type": "Point", "coordinates": [13.187886, 46.404447]}}, {"type": "Feature", "properties": {"wikidata": "Q3402520", "name": "Castello Fusine", "status": "done", "osm_id": "node/1673183076", "group": "Fortificazioni e militare", "subgroup": "Fortificazioni", "subcategory": "Castello in rovina"}, "geometry": {"type": "Point", "coordinates": [13.644903, 46.501886]}}, {"type": "Feature", "properties": {"wikidata": "Q18450712", "name": "Case Zucchiatti", "status": "missing", "osm_id": null, "group": "Insediamenti", "subgroup": "Centri", "subcategory": "Insediamento umano"}, "geometry": {"type": "Point", "coordinates": [13.06266, 46.21162]}}, {"type": "Feature", "properties": {"wikidata": "Q18450804", "name": "Cedron", "status": "done", "osm_id": "node/791617045", "group": "Insediamenti", "subgroup": "Centri", "subcategory": "Insediamento umano"}, "geometry": {"type": "Point", "coordinates": [13.52448, 46.1548]}}, {"type": "Feature", "properties": {"wikidata": "Q18450727", "name": "Casolari Piluc", "status": "missing", "osm_id": null, "group": "Insediamenti", "subgroup": "Centri", "subcategory": "Insediamento umano"}, "geometry": {"type": "Point", "coordinates": [12.94452, 46.41127]}}, {"type": "Feature", "properties": {"wikidata": "Q18451211", "name": "Corgnolo", "status": "missing", "osm_id": null, "group": "Insediamenti", "subgroup": "Centri", "subcategory": "Frazione"}, "geometry": {"type": "Point", "coordinates": [13.19722, 45.86833]}}, {"type": "Feature", "properties": {"wikidata": "Q18451021", "name": "Clastra", "status": "done", "osm_id": "node/1382833486", "group": "Insediamenti", "subgroup": "Centri", "subcategory": "Insediamento umano"}, "geometry": {"type": "Point", "coordinates": [13.52048, 46.13298]}}, {"type": "Feature", "properties": {"wikidata": "Q18451359", "name": "Domenis", "status": "missing", "osm_id": null, "group": "Insediamenti", "subgroup": "Centri", "subcategory": "Insediamento umano"}, "geometry": {"type": "Point", "coordinates": [13.49523, 46.17348]}}, {"type": "Feature", "properties": {"wikidata": "Q18451157", "name": "Collerumiz", "status": "missing", "osm_id": null, "group": "Insediamenti", "subgroup": "Centri", "subcategory": "Insediamento umano"}, "geometry": {"type": "Point", "coordinates": [13.18762, 46.21234]}}, {"type": "Feature", "properties": {"wikidata": "Q18451142", "name": "Coia", "status": "missing", "osm_id": null, "group": "Insediamenti", "subgroup": "Centri", "subcategory": "Insediamento umano"}, "geometry": {"type": "Point", "coordinates": [13.20921, 46.22404]}}, {"type": "Feature", "properties": {"wikidata": "Q18450888", "name": "Chialminis", "status": "missing", "osm_id": null, "group": "Insediamenti", "subgroup": "Centri", "subcategory": "Frazione"}, "geometry": {"type": "Point", "coordinates": [13.28229, 46.24345]}}, {"type": "Feature", "properties": {"wikidata": "Q18450587", "name": "Case Anzil", "status": "done", "osm_id": "node/1504261301", "group": "Insediamenti", "subgroup": "Centri", "subcategory": "Insediamento umano"}, "geometry": {"type": "Point", "coordinates": [13.18806, 46.21557]}}, {"type": "Feature", "properties": {"wikidata": "Q18450824", "name": "Centro Commerciale", "status": "missing", "osm_id": null, "group": "Insediamenti", "subgroup": "Centri", "subcategory": "Insediamento umano"}, "geometry": {"type": "Point", "coordinates": [13.22186, 46.13366]}}, {"type": "Feature", "properties": {"wikidata": "Q18450760", "name": "Castions delle Mura", "status": "missing", "osm_id": null, "group": "Insediamenti", "subgroup": "Centri", "subcategory": "Frazione"}, "geometry": {"type": "Point", "coordinates": [13.3, 45.84667]}}, {"type": "Feature", "properties": {"wikidata": "Q18451329", "name": "Del Forte", "status": "missing", "osm_id": null, "group": "Insediamenti", "subgroup": "Centri", "subcategory": "Insediamento umano"}, "geometry": {"type": "Point", "coordinates": [13.07894, 45.81323]}}, {"type": "Feature", "properties": {"wikidata": "Q18450962", "name": "Cialla", "status": "done", "osm_id": "node/1288944425", "group": "Insediamenti", "subgroup": "Centri", "subcategory": "Insediamento umano"}, "geometry": {"type": "Point", "coordinates": [13.48008, 46.0792]}}, {"type": "Feature", "properties": {"wikidata": "Q18450944", "name": "Chiout Cali", "status": "done", "osm_id": "node/1229687876", "group": "Insediamenti", "subgroup": "Centri", "subcategory": "Insediamento umano"}, "geometry": {"type": "Point", "coordinates": [13.36924, 46.40507]}}, {"type": "Feature", "properties": {"wikidata": "Q18451351", "name": "Dolegna", "status": "done", "osm_id": "node/353878433", "group": "Insediamenti", "subgroup": "Centri", "subcategory": "Insediamento umano"}, "geometry": {"type": "Point", "coordinates": [13.54775, 46.14279]}}, {"type": "Feature", "properties": {"wikidata": "Q18450668", "name": "Case Pighin", "status": "missing", "osm_id": null, "group": "Insediamenti", "subgroup": "Centri", "subcategory": "Insediamento umano"}, "geometry": {"type": "Point", "coordinates": [13.27374, 45.9801]}}, {"type": "Feature", "properties": {"wikidata": "Q18450841", "name": "Cergneu Inferiore", "status": "done", "osm_id": "node/1166303591", "group": "Insediamenti", "subgroup": "Centri", "subcategory": "Insediamento umano"}, "geometry": {"type": "Point", "coordinates": [13.30272, 46.21027]}}, {"type": "Feature", "properties": {"wikidata": "Q18451300", "name": "Crosada", "status": "missing", "osm_id": null, "group": "Insediamenti", "subgroup": "Centri", "subcategory": "Frazione"}, "geometry": {"type": "Point", "coordinates": [13.2758, 45.97869]}}, {"type": "Feature", "properties": {"wikidata": "Q18450793", "name": "Cazzaso", "status": "missing", "osm_id": null, "group": "Insediamenti", "subgroup": "Centri", "subcategory": "Frazione"}, "geometry": {"type": "Point", "coordinates": [12.99524, 46.43182]}}, {"type": "Feature", "properties": {"wikidata": "Q18450610", "name": "Case di Via Carso", "status": "missing", "osm_id": null, "group": "Insediamenti", "subgroup": "Centri", "subcategory": "Insediamento umano"}, "geometry": {"type": "Point", "coordinates": [13.37179, 45.82022]}}, {"type": "Feature", "properties": {"wikidata": "Q18451324", "name": "Debellis", "status": "done", "osm_id": "node/1504261365", "group": "Insediamenti", "subgroup": "Centri", "subcategory": "Frazione"}, "geometry": {"type": "Point", "coordinates": [13.32465, 46.25957]}}, {"type": "Feature", "properties": {"wikidata": "Q18450956", "name": "Chiutdipupe", "status": "missing", "osm_id": null, "group": "Insediamenti", "subgroup": "Centri", "subcategory": "Insediamento umano"}, "geometry": {"type": "Point", "coordinates": [13.3316, 46.44971]}}, {"type": "Feature", "properties": {"wikidata": "Q18450901", "name": "Chiaranda", "status": "missing", "osm_id": null, "group": "Insediamenti", "subgroup": "Centri", "subcategory": "Frazione"}, "geometry": {"type": "Point", "coordinates": [13.20005, 46.43221]}}, {"type": "Feature", "properties": {"wikidata": "Q18451334", "name": "Dierico", "status": "done", "osm_id": "node/1355607550", "group": "Insediamenti", "subgroup": "Centri", "subcategory": "Insediamento umano"}, "geometry": {"type": "Point", "coordinates": [13.13222, 46.51806]}}, {"type": "Feature", "properties": {"wikidata": "Q18451108", "name": "Coceanzi", "status": "done", "osm_id": "node/540386155", "group": "Insediamenti", "subgroup": "Centri", "subcategory": "Insediamento umano"}, "geometry": {"type": "Point", "coordinates": [13.46219, 46.16618]}}, {"type": "Feature", "properties": {"wikidata": "Q18451206", "name": "Coranzano", "status": "missing", "osm_id": null, "group": "Insediamenti", "subgroup": "Centri", "subcategory": "Insediamento umano"}, "geometry": {"type": "Point", "coordinates": [13.13374, 46.11567]}}, {"type": "Feature", "properties": {"wikidata": "Q18450846", "name": "Cergneu Superiore", "status": "missing", "osm_id": null, "group": "Insediamenti", "subgroup": "Centri", "subcategory": "Insediamento umano"}, "geometry": {"type": "Point", "coordinates": [13.31644, 46.21574]}}, {"type": "Feature", "properties": {"wikidata": "Q18451315", "name": "Cucco", "status": "missing", "osm_id": null, "group": "Insediamenti", "subgroup": "Centri", "subcategory": "Frazione"}, "geometry": {"type": "Point", "coordinates": [13.41958, 46.50506]}}, {"type": "Feature", "properties": {"wikidata": "Q18450603", "name": "Case del Pino", "status": "done", "osm_id": "node/1504261322", "group": "Insediamenti", "subgroup": "Centri", "subcategory": "Insediamento umano"}, "geometry": {"type": "Point", "coordinates": [13.18445, 46.21663]}}, {"type": "Feature", "properties": {"wikidata": "Q18451289", "name": "Cras", "status": "done", "osm_id": "node/365978989", "group": "Insediamenti", "subgroup": "Centri", "subcategory": "Insediamento umano"}, "geometry": {"type": "Point", "coordinates": [13.62287, 46.17403]}}, {"type": "Feature", "properties": {"wikidata": "Q18450697", "name": "Case Simoncello", "status": "done", "osm_id": "node/1461469225", "group": "Insediamenti", "subgroup": "Centri", "subcategory": "Insediamento umano"}, "geometry": {"type": "Point", "coordinates": [13.17631, 45.85083]}}, {"type": "Feature", "properties": {"wikidata": "Q18451272", "name": "Costne", "status": "done", "osm_id": "node/356770793", "group": "Insediamenti", "subgroup": "Centri", "subcategory": "Insediamento umano"}, "geometry": {"type": "Point", "coordinates": [13.60753, 46.15349]}}, {"type": "Feature", "properties": {"wikidata": "Q18451221", "name": "Cornazzai", "status": "missing", "osm_id": null, "group": "Insediamenti", "subgroup": "Centri", "subcategory": "Frazione"}, "geometry": {"type": "Point", "coordinates": [13.00833, 45.87788]}}, {"type": "Feature", "properties": {"wikidata": "Q18451319", "name": "Culau", "status": "done", "osm_id": "node/1504261357", "group": "Insediamenti", "subgroup": "Centri", "subcategory": "Insediamento umano"}, "geometry": {"type": "Point", "coordinates": [13.20034, 46.23495]}}, {"type": "Feature", "properties": {"wikidata": "Q18451248", "name": "Cosizza", "status": "missing", "osm_id": null, "group": "Insediamenti", "subgroup": "Centri", "subcategory": "Frazione"}, "geometry": {"type": "Point", "coordinates": [13.55418, 46.14637]}}, {"type": "Feature", "properties": {"wikidata": "Q18450788", "name": "Cazzaso Nuova", "status": "missing", "osm_id": null, "group": "Insediamenti", "subgroup": "Centri", "subcategory": "Insediamento umano"}, "geometry": {"type": "Point", "coordinates": [12.99475, 46.43854]}}, {"type": "Feature", "properties": {"wikidata": "Q18451256", "name": "Costa", "status": "done", "osm_id": "node/791617071", "group": "Insediamenti", "subgroup": "Centri", "subcategory": "Insediamento umano"}, "geometry": {"type": "Point", "coordinates": [13.52137, 46.16797]}}, {"type": "Feature", "properties": {"wikidata": "Q18451190", "name": "Colombatti", "status": "missing", "osm_id": null, "group": "Insediamenti", "subgroup": "Centri", "subcategory": "Insediamento umano"}, "geometry": {"type": "Point", "coordinates": [13.19042, 46.11485]}}, {"type": "Feature", "properties": {"wikidata": "Q18451219", "name": "Cornappo", "status": "done", "osm_id": "node/1752677222", "group": "Insediamenti", "subgroup": "Centri", "subcategory": "Frazione"}, "geometry": {"type": "Point", "coordinates": [13.33896, 46.27196]}}, {"type": "Feature", "properties": {"wikidata": "Q18451117", "name": "Cocevaro", "status": "done", "osm_id": "node/791617062", "group": "Insediamenti", "subgroup": "Centri", "subcategory": "Insediamento umano"}, "geometry": {"type": "Point", "coordinates": [13.51656, 46.14753]}}, {"type": "Feature", "properties": {"wikidata": "Q18450641", "name": "Case di Via Murtisina", "status": "missing", "osm_id": null, "group": "Insediamenti", "subgroup": "Centri", "subcategory": "Insediamento umano"}, "geometry": {"type": "Point", "coordinates": [13.37594, 45.83096]}}, {"type": "Feature", "properties": {"wikidata": "Q18450910", "name": "Chiarmacis", "status": "missing", "osm_id": null, "group": "Insediamenti", "subgroup": "Centri", "subcategory": "Frazione"}, "geometry": {"type": "Point", "coordinates": [13.07806, 45.83722]}}, {"type": "Feature", "properties": {"wikidata": "Q18450923", "name": "Chiasottis", "status": "done", "osm_id": "node/1404864793", "group": "Insediamenti", "subgroup": "Centri", "subcategory": "Insediamento umano"}, "geometry": {"type": "Point", "coordinates": [13.25778, 45.96222]}}, {"type": "Feature", "properties": {"wikidata": "Q18450705", "name": "Case Vidoni", "status": "done", "osm_id": "node/1504261315", "group": "Insediamenti", "subgroup": "Centri", "subcategory": "Insediamento umano"}, "geometry": {"type": "Point", "coordinates": [13.23007, 46.20826]}}, {"type": "Feature", "properties": {"wikidata": "Q18450851", "name": "Cerneglons", "status": "done", "osm_id": "node/793637320", "group": "Insediamenti", "subgroup": "Centri", "subcategory": "Frazione"}, "geometry": {"type": "Point", "coordinates": [13.30959, 46.05239]}}, {"type": "Feature", "properties": {"wikidata": "Q18451215", "name": "Corgnul", "status": "missing", "osm_id": null, "group": "Insediamenti", "subgroup": "Centri", "subcategory": "Insediamento umano"}, "geometry": {"type": "Point", "coordinates": [13.05132, 46.31004]}}, {"type": "Feature", "properties": {"wikidata": "Q18450895", "name": "Chiandelin", "status": "missing", "osm_id": null, "group": "Insediamenti", "subgroup": "Centri", "subcategory": "Frazione"}, "geometry": {"type": "Point", "coordinates": [12.97009, 46.53126]}}, {"type": "Feature", "properties": {"wikidata": "Q18451294", "name": "Cravero", "status": "done", "osm_id": "node/353877080", "group": "Insediamenti", "subgroup": "Centri", "subcategory": "Insediamento umano"}, "geometry": {"type": "Point", "coordinates": [13.55799, 46.13394]}}, {"type": "Feature", "properties": {"wikidata": "Q18450661", "name": "Case Nuove", "status": "missing", "osm_id": null, "group": "Insediamenti", "subgroup": "Centri", "subcategory": "Insediamento umano"}, "geometry": {"type": "Point", "coordinates": [13.06314, 45.76742]}}, {"type": "Feature", "properties": {"wikidata": "Q18450967", "name": "Cicigolis", "status": "done", "osm_id": "node/783336977", "group": "Insediamenti", "subgroup": "Centri", "subcategory": "Insediamento umano"}, "geometry": {"type": "Point", "coordinates": [13.48541, 46.17011]}}, {"type": "Feature", "properties": {"wikidata": "Q18450620", "name": "Case di Via Grado", "status": "missing", "osm_id": null, "group": "Insediamenti", "subgroup": "Centri", "subcategory": "Insediamento umano"}, "geometry": {"type": "Point", "coordinates": [13.35037, 45.80082]}}, {"type": "Feature", "properties": {"wikidata": "Q18450818", "name": "Cemur", "status": "done", "osm_id": "node/789555361", "group": "Insediamenti", "subgroup": "Centri", "subcategory": "Insediamento umano"}, "geometry": {"type": "Point", "coordinates": [13.50674, 46.11546]}}, {"type": "Feature", "properties": {"wikidata": "Q18450799", "name": "Cedarchis", "status": "missing", "osm_id": null, "group": "Insediamenti", "subgroup": "Centri", "subcategory": "Frazione"}, "geometry": {"type": "Point", "coordinates": [13.03527, 46.45793]}}, {"type": "Feature", "properties": {"wikidata": "Q18450929", "name": "Chiassis", "status": "missing", "osm_id": null, "group": "Insediamenti", "subgroup": "Centri", "subcategory": "Frazione"}, "geometry": {"type": "Point", "coordinates": [12.88544, 46.43757]}}, {"type": "Feature", "properties": {"wikidata": "Q18450874", "name": "Cesclans", "status": "missing", "osm_id": null, "group": "Insediamenti", "subgroup": "Centri", "subcategory": "Frazione"}, "geometry": {"type": "Point", "coordinates": [13.05514, 46.35254]}}]}